<?xml version='1.0' encoding='utf-8'?>
<q:quakeml xmlns="http://quakeml.org/xmlns/bed/1.2" xmlns:q="http://quakeml.org/xmlns/quakeml/1.2" xmlns:ns0="http://some-page.de/xmlns/0.1">
  <eventParameters publicID="smi:local/5fc5459d-a0f0-47cb-8707-25062a60a157">
    <event publicID="smi:nakamura81/event/05648">
      <type>meteorite</type>
      <description>
        <text>meteoroid</text>
      </description>
      <pick publicID="smi:nakamura81/pick/S15/05648">
        <time>
          <value>1973-01-03T23:48:00.000000Z</value>
          <uncertainty>60.0</uncertainty>
        </time>
        <waveformID networkCode="XA" stationCode="S15" locationCode="" channelCode=""></waveformID>
        <phaseHint>P</phaseHint>
      </pick>
      <amplitude publicID="smi:nakamura81/amplitude/S15/05648">
        <genericAmplitude>
          <value>1.2</value>
        </genericAmplitude>
        <type>A</type>
        <unit>other</unit>
        <pickID>smi:nakamura81/pick/S15/05648</pickID>
      </amplitude>
      <ns0:moon_event_type>meteoroid</ns0:moon_event_type>
    </event>
    <event publicID="smi:nakamura81/event/05756">
      <type>meteorite</type>
      <description>
        <text>meteoroid</text>
      </description>
      <comment id="smi:nakamura81/event/comment/05756">
        <text>C 14SP=14</text>
      </comment>
      <pick publicID="smi:nakamura81/pick/S15/05756">
        <time>
          <value>1973-01-18T23:01:00.000000Z</value>
          <uncertainty>60.0</uncertainty>
        </time>
        <waveformID networkCode="XA" stationCode="S15" locationCode="" channelCode=""></waveformID>
        <phaseHint>P</phaseHint>
      </pick>
      <amplitude publicID="smi:nakamura81/amplitude/S15/05756">
        <genericAmplitude>
          <value>2.0</value>
        </genericAmplitude>
        <type>A</type>
        <unit>other</unit>
        <pickID>smi:nakamura81/pick/S15/05756</pickID>
      </amplitude>
      <ns0:moon_event_type>meteoroid</ns0:moon_event_type>
    </event>
    <event publicID="smi:nakamura81/event/05757">
      <type>meteorite</type>
      <description>
        <text>meteoroid</text>
      </description>
      <pick publicID="smi:nakamura81/pick/S15/05757">
        <time>
          <value>1973-01-18T23:59:00.000000Z</value>
          <uncertainty>60.0</uncertainty>
        </time>
        <waveformID networkCode="XA" stationCode="S15" locationCode="" channelCode=""></waveformID>
        <phaseHint>P</phaseHint>
      </pick>
      <amplitude publicID="smi:nakamura81/amplitude/S15/05757">
        <genericAmplitude>
          <value>29.0</value>
        </genericAmplitude>
        <type>A</type>
        <unit>other</unit>
        <pickID>smi:nakamura81/pick/S15/05757</pickID>
      </amplitude>
      <ns0:moon_event_type>meteoroid</ns0:moon_event_type>
    </event>
    <event publicID="smi:nakamura81/event/05818">
      <type>meteorite</type>
      <description>
        <text>meteoroid</text>
      </description>
      <pick publicID="smi:nakamura81/pick/S15/05818">
        <time>
          <value>1973-01-31T00:44:00.000000Z</value>
          <uncertainty>60.0</uncertainty>
        </time>
        <waveformID networkCode="XA" stationCode="S15" locationCode="" channelCode=""></waveformID>
        <phaseHint>P</phaseHint>
      </pick>
      <amplitude publicID="smi:nakamura81/amplitude/S15/05818">
        <genericAmplitude>
          <value>2.3</value>
        </genericAmplitude>
        <type>A</type>
        <unit>other</unit>
        <pickID>smi:nakamura81/pick/S15/05818</pickID>
      </amplitude>
      <ns0:moon_event_type>meteoroid</ns0:moon_event_type>
    </event>
    <event publicID="smi:nakamura81/event/05833">
      <type>meteorite</type>
      <description>
        <text>meteoroid</text>
      </description>
      <comment id="smi:nakamura81/event/comment/05833">
        <text>C</text>
      </comment>
      <pick publicID="smi:nakamura81/pick/S15/05833">
        <time>
          <value>1973-02-02T10:44:00.000000Z</value>
          <uncertainty>60.0</uncertainty>
        </time>
        <waveformID networkCode="XA" stationCode="S15" locationCode="" channelCode=""></waveformID>
        <phaseHint>P</phaseHint>
      </pick>
      <amplitude publicID="smi:nakamura81/amplitude/S15/05833">
        <genericAmplitude>
          <value>3.6</value>
        </genericAmplitude>
        <type>A</type>
        <unit>other</unit>
        <pickID>smi:nakamura81/pick/S15/05833</pickID>
      </amplitude>
      <ns0:moon_event_type>meteoroid</ns0:moon_event_type>
    </event>
    <event publicID="smi:nakamura81/event/05851">
      <type>meteorite</type>
      <description>
        <text>meteoroid</text>
      </description>
      <comment id="smi:nakamura81/event/comment/05851">
        <text>C</text>
      </comment>
      <pick publicID="smi:nakamura81/pick/S15/05851">
        <time>
          <value>1973-02-05T15:27:00.000000Z</value>
          <uncertainty>60.0</uncertainty>
        </time>
        <waveformID networkCode="XA" stationCode="S15" locationCode="" channelCode=""></waveformID>
        <phaseHint>P</phaseHint>
      </pick>
      <amplitude publicID="smi:nakamura81/amplitude/S15/05851">
        <genericAmplitude>
          <value>1.8</value>
        </genericAmplitude>
        <type>A</type>
        <unit>other</unit>
        <pickID>smi:nakamura81/pick/S15/05851</pickID>
      </amplitude>
      <ns0:moon_event_type>meteoroid</ns0:moon_event_type>
    </event>
    <event publicID="smi:nakamura81/event/05853">
      <type>meteorite</type>
      <description>
        <text>meteoroid</text>
      </description>
      <comment id="smi:nakamura81/event/comment/05853">
        <text>C</text>
      </comment>
      <pick publicID="smi:nakamura81/pick/S15/05853">
        <time>
          <value>1973-02-05T20:59:00.000000Z</value>
          <uncertainty>60.0</uncertainty>
        </time>
        <waveformID networkCode="XA" stationCode="S15" locationCode="" channelCode=""></waveformID>
        <phaseHint>P</phaseHint>
      </pick>
      <amplitude publicID="smi:nakamura81/amplitude/S15/05853">
        <genericAmplitude>
          <value>3.7</value>
        </genericAmplitude>
        <type>A</type>
        <unit>other</unit>
        <pickID>smi:nakamura81/pick/S15/05853</pickID>
      </amplitude>
      <ns0:moon_event_type>meteoroid</ns0:moon_event_type>
    </event>
    <event publicID="smi:nakamura81/event/05894">
      <type>meteorite</type>
      <description>
        <text>meteoroid</text>
      </description>
      <comment id="smi:nakamura81/event/comment/05894">
        <text>DIST</text>
      </comment>
      <pick publicID="smi:nakamura81/pick/S15/05894">
        <time>
          <value>1973-02-12T10:56:00.000000Z</value>
          <uncertainty>60.0</uncertainty>
        </time>
        <waveformID networkCode="XA" stationCode="S15" locationCode="" channelCode=""></waveformID>
        <phaseHint>P</phaseHint>
      </pick>
      <amplitude publicID="smi:nakamura81/amplitude/S15/05894">
        <genericAmplitude>
          <value>7.0</value>
        </genericAmplitude>
        <type>A</type>
        <unit>other</unit>
        <pickID>smi:nakamura81/pick/S15/05894</pickID>
      </amplitude>
      <ns0:moon_event_type>meteoroid</ns0:moon_event_type>
    </event>
    <event publicID="smi:nakamura81/event/05926">
      <type>meteorite</type>
      <description>
        <text>meteoroid</text>
      </description>
      <comment id="smi:nakamura81/event/comment/05926">
        <text>C NEAR 15 SP=LP</text>
      </comment>
      <pick publicID="smi:nakamura81/pick/S15/05926">
        <time>
          <value>1973-02-14T17:37:00.000000Z</value>
          <uncertainty>60.0</uncertainty>
        </time>
        <waveformID networkCode="XA" stationCode="S15" locationCode="" channelCode=""></waveformID>
        <phaseHint>P</phaseHint>
      </pick>
      <amplitude publicID="smi:nakamura81/amplitude/S15/05926">
        <genericAmplitude>
          <value>12.0</value>
        </genericAmplitude>
        <type>A</type>
        <unit>other</unit>
        <pickID>smi:nakamura81/pick/S15/05926</pickID>
      </amplitude>
      <ns0:moon_event_type>meteoroid</ns0:moon_event_type>
    </event>
    <event publicID="smi:nakamura81/event/05949">
      <type>meteorite</type>
      <description>
        <text>meteoroid</text>
      </description>
      <comment id="smi:nakamura81/event/comment/05949">
        <text>DIST  14 LOOKS STRANGE</text>
      </comment>
      <pick publicID="smi:nakamura81/pick/S15/05949">
        <time>
          <value>1973-02-15T23:35:00.000000Z</value>
          <uncertainty>60.0</uncertainty>
        </time>
        <waveformID networkCode="XA" stationCode="S15" locationCode="" channelCode=""></waveformID>
        <phaseHint>P</phaseHint>
      </pick>
      <amplitude publicID="smi:nakamura81/amplitude/S15/05949">
        <genericAmplitude>
          <value>3.0</value>
        </genericAmplitude>
        <type>A</type>
        <unit>other</unit>
        <pickID>smi:nakamura81/pick/S15/05949</pickID>
      </amplitude>
      <ns0:moon_event_type>meteoroid</ns0:moon_event_type>
    </event>
    <event publicID="smi:nakamura81/event/05953">
      <type>meteorite</type>
      <description>
        <text>meteoroid</text>
      </description>
      <comment id="smi:nakamura81/event/comment/05953">
        <text>NEAR 14,LP&gt;SP</text>
      </comment>
      <pick publicID="smi:nakamura81/pick/S15/05953">
        <time>
          <value>1973-02-16T06:31:00.000000Z</value>
          <uncertainty>60.0</uncertainty>
        </time>
        <waveformID networkCode="XA" stationCode="S15" locationCode="" channelCode=""></waveformID>
        <phaseHint>P</phaseHint>
      </pick>
      <amplitude publicID="smi:nakamura81/amplitude/S15/05953">
        <genericAmplitude>
          <value>1.0</value>
        </genericAmplitude>
        <type>A</type>
        <unit>other</unit>
        <pickID>smi:nakamura81/pick/S15/05953</pickID>
      </amplitude>
      <ns0:moon_event_type>meteoroid</ns0:moon_event_type>
    </event>
    <event publicID="smi:nakamura81/event/05985">
      <type>meteorite</type>
      <description>
        <text>meteoroid</text>
      </description>
      <comment id="smi:nakamura81/event/comment/05985">
        <text>NEAR 15,SP&gt;LP</text>
      </comment>
      <pick publicID="smi:nakamura81/pick/S15/05985">
        <time>
          <value>1973-02-19T04:14:00.000000Z</value>
          <uncertainty>60.0</uncertainty>
        </time>
        <waveformID networkCode="XA" stationCode="S15" locationCode="" channelCode=""></waveformID>
        <phaseHint>P</phaseHint>
      </pick>
      <amplitude publicID="smi:nakamura81/amplitude/S15/05985">
        <genericAmplitude>
          <value>5.0</value>
        </genericAmplitude>
        <type>A</type>
        <unit>other</unit>
        <pickID>smi:nakamura81/pick/S15/05985</pickID>
      </amplitude>
      <ns0:moon_event_type>meteoroid</ns0:moon_event_type>
    </event>
    <event publicID="smi:nakamura81/event/05991">
      <type>meteorite</type>
      <description>
        <text>meteoroid</text>
      </description>
      <comment id="smi:nakamura81/event/comment/05991">
        <text>DIST NO SP</text>
      </comment>
      <pick publicID="smi:nakamura81/pick/S15/05991">
        <time>
          <value>1973-02-21T09:23:00.000000Z</value>
          <uncertainty>60.0</uncertainty>
        </time>
        <waveformID networkCode="XA" stationCode="S15" locationCode="" channelCode=""></waveformID>
        <phaseHint>P</phaseHint>
      </pick>
      <amplitude publicID="smi:nakamura81/amplitude/S15/05991">
        <genericAmplitude>
          <value>4.0</value>
        </genericAmplitude>
        <type>A</type>
        <unit>other</unit>
        <pickID>smi:nakamura81/pick/S15/05991</pickID>
      </amplitude>
      <ns0:moon_event_type>meteoroid</ns0:moon_event_type>
    </event>
    <event publicID="smi:nakamura81/event/05993">
      <type>meteorite</type>
      <description>
        <text>meteoroid</text>
      </description>
      <comment id="smi:nakamura81/event/comment/05993">
        <text>NEAR 15,SP&gt;LP</text>
      </comment>
      <pick publicID="smi:nakamura81/pick/S15/05993">
        <time>
          <value>1973-02-22T02:36:00.000000Z</value>
          <uncertainty>60.0</uncertainty>
        </time>
        <waveformID networkCode="XA" stationCode="S15" locationCode="" channelCode=""></waveformID>
        <phaseHint>P</phaseHint>
      </pick>
      <amplitude publicID="smi:nakamura81/amplitude/S15/05993">
        <genericAmplitude>
          <value>5.0</value>
        </genericAmplitude>
        <type>A</type>
        <unit>other</unit>
        <pickID>smi:nakamura81/pick/S15/05993</pickID>
      </amplitude>
      <ns0:moon_event_type>meteoroid</ns0:moon_event_type>
    </event>
    <event publicID="smi:nakamura81/event/06000">
      <type>meteorite</type>
      <description>
        <text>meteoroid</text>
      </description>
      <comment id="smi:nakamura81/event/comment/06000">
        <text>C DIST</text>
      </comment>
      <pick publicID="smi:nakamura81/pick/S15/06000">
        <time>
          <value>1973-02-24T06:22:00.000000Z</value>
          <uncertainty>60.0</uncertainty>
        </time>
        <waveformID networkCode="XA" stationCode="S15" locationCode="" channelCode=""></waveformID>
        <phaseHint>P</phaseHint>
        <comment id="smi:nakamura81/pick/comment/S15/06000">
          <text>noisy data</text>
        </comment>
      </pick>
      <amplitude publicID="smi:nakamura81/amplitude/S15/06000">
        <genericAmplitude>
          <value>3.0</value>
        </genericAmplitude>
        <type>A</type>
        <unit>other</unit>
        <pickID>smi:nakamura81/pick/S15/06000</pickID>
      </amplitude>
      <ns0:moon_event_type>meteoroid</ns0:moon_event_type>
    </event>
    <event publicID="smi:nakamura81/event/06033">
      <type>meteorite</type>
      <description>
        <text>meteoroid</text>
      </description>
      <comment id="smi:nakamura81/event/comment/06033">
        <text>C</text>
      </comment>
      <pick publicID="smi:nakamura81/pick/S15/06033">
        <time>
          <value>1973-03-07T08:54:00.000000Z</value>
          <uncertainty>60.0</uncertainty>
        </time>
        <waveformID networkCode="XA" stationCode="S15" locationCode="" channelCode=""></waveformID>
        <phaseHint>P</phaseHint>
      </pick>
      <amplitude publicID="smi:nakamura81/amplitude/S15/06033">
        <genericAmplitude>
          <value>3.2</value>
        </genericAmplitude>
        <type>A</type>
        <unit>other</unit>
        <pickID>smi:nakamura81/pick/S15/06033</pickID>
      </amplitude>
      <ns0:moon_event_type>meteoroid</ns0:moon_event_type>
    </event>
    <event publicID="smi:nakamura81/event/06048">
      <type>meteorite</type>
      <description>
        <text>meteoroid</text>
      </description>
      <pick publicID="smi:nakamura81/pick/S15/06048">
        <time>
          <value>1973-03-12T20:40:00.000000Z</value>
          <uncertainty>60.0</uncertainty>
        </time>
        <waveformID networkCode="XA" stationCode="S15" locationCode="" channelCode=""></waveformID>
        <phaseHint>P</phaseHint>
        <comment id="smi:nakamura81/pick/comment/S15/06048">
          <text>noisy data</text>
        </comment>
      </pick>
      <amplitude publicID="smi:nakamura81/amplitude/S15/06048">
        <genericAmplitude>
          <value>5.5</value>
        </genericAmplitude>
        <type>A</type>
        <unit>other</unit>
        <pickID>smi:nakamura81/pick/S15/06048</pickID>
      </amplitude>
      <ns0:moon_event_type>meteoroid</ns0:moon_event_type>
    </event>
    <event publicID="smi:nakamura81/event/06052">
      <type>meteorite</type>
      <description>
        <text>meteoroid</text>
      </description>
      <comment id="smi:nakamura81/event/comment/06052">
        <text>C NEAR 15</text>
      </comment>
      <pick publicID="smi:nakamura81/pick/S15/06052">
        <time>
          <value>1973-03-13T22:07:00.000000Z</value>
          <uncertainty>60.0</uncertainty>
        </time>
        <waveformID networkCode="XA" stationCode="S15" locationCode="" channelCode=""></waveformID>
        <phaseHint>P</phaseHint>
        <comment id="smi:nakamura81/pick/comment/S15/06052">
          <text>noisy data</text>
        </comment>
      </pick>
      <amplitude publicID="smi:nakamura81/amplitude/S15/06052">
        <genericAmplitude>
          <value>6.0</value>
        </genericAmplitude>
        <type>A</type>
        <unit>other</unit>
        <pickID>smi:nakamura81/pick/S15/06052</pickID>
      </amplitude>
      <ns0:moon_event_type>meteoroid</ns0:moon_event_type>
    </event>
    <event publicID="smi:nakamura81/event/06072">
      <type>meteorite</type>
      <description>
        <text>meteoroid</text>
      </description>
      <comment id="smi:nakamura81/event/comment/06072">
        <text>NEAR 16</text>
      </comment>
      <pick publicID="smi:nakamura81/pick/S15/06072">
        <time>
          <value>1973-03-15T13:46:00.000000Z</value>
          <uncertainty>60.0</uncertainty>
        </time>
        <waveformID networkCode="XA" stationCode="S15" locationCode="" channelCode=""></waveformID>
        <phaseHint>P</phaseHint>
        <comment id="smi:nakamura81/pick/comment/S15/06072">
          <text>noisy data</text>
        </comment>
      </pick>
      <amplitude publicID="smi:nakamura81/amplitude/S15/06072">
        <genericAmplitude>
          <value>2.0</value>
        </genericAmplitude>
        <type>A</type>
        <unit>other</unit>
        <pickID>smi:nakamura81/pick/S15/06072</pickID>
      </amplitude>
      <ns0:moon_event_type>meteoroid</ns0:moon_event_type>
    </event>
    <event publicID="smi:nakamura81/event/06088">
      <type>meteorite</type>
      <description>
        <text>meteoroid</text>
      </description>
      <comment id="smi:nakamura81/event/comment/06088">
        <text>C SP=6</text>
      </comment>
      <pick publicID="smi:nakamura81/pick/S15/06088">
        <time>
          <value>1973-03-16T16:58:00.000000Z</value>
          <uncertainty>60.0</uncertainty>
        </time>
        <waveformID networkCode="XA" stationCode="S15" locationCode="" channelCode=""></waveformID>
        <phaseHint>P</phaseHint>
        <comment id="smi:nakamura81/pick/comment/S15/06088">
          <text>noisy data</text>
        </comment>
      </pick>
      <amplitude publicID="smi:nakamura81/amplitude/S15/06088">
        <genericAmplitude>
          <value>2.8</value>
        </genericAmplitude>
        <type>A</type>
        <unit>other</unit>
        <pickID>smi:nakamura81/pick/S15/06088</pickID>
      </amplitude>
      <ns0:moon_event_type>meteoroid</ns0:moon_event_type>
    </event>
    <event publicID="smi:nakamura81/event/06100">
      <type>meteorite</type>
      <description>
        <text>meteoroid</text>
      </description>
      <pick publicID="smi:nakamura81/pick/S15/06100">
        <time>
          <value>1973-03-17T08:58:00.000000Z</value>
          <uncertainty>60.0</uncertainty>
        </time>
        <waveformID networkCode="XA" stationCode="S15" locationCode="" channelCode=""></waveformID>
        <phaseHint>P</phaseHint>
      </pick>
      <amplitude publicID="smi:nakamura81/amplitude/S15/06100">
        <genericAmplitude>
          <value>6.0</value>
        </genericAmplitude>
        <type>A</type>
        <unit>other</unit>
        <pickID>smi:nakamura81/pick/S15/06100</pickID>
      </amplitude>
      <ns0:moon_event_type>meteoroid</ns0:moon_event_type>
    </event>
    <event publicID="smi:nakamura81/event/06120">
      <type>meteorite</type>
      <description>
        <text>meteoroid</text>
      </description>
      <comment id="smi:nakamura81/event/comment/06120">
        <text>C</text>
      </comment>
