<?xml version='1.0' encoding='utf-8'?>
<q:quakeml xmlns="http://quakeml.org/xmlns/bed/1.2" xmlns:q="http://quakeml.org/xmlns/quakeml/1.2" xmlns:ns0="http://some-page.de/xmlns/0.1" xmlns:ns1="http://some-page.de/xmlns/1.0">
  <eventParameters publicID="smi:local/60b7c8d7-9034-4388-b8a5-6f62cb14f141">
    <event publicID="smi:nakamura81/event/05615">
      <type>earthquake</type>
      <description>
        <text>deep moonquake</text>
      </description>
      <comment id="smi:nakamura81/event/comment/bulow07/05615">
        <text>bulow_moonquake: A256</text>
      </comment>
      <pick publicID="smi:nakamura81/pick/S16/05615">
        <time>
          <value>1973-01-01T02:30:00.000000Z</value>
          <uncertainty>60.0</uncertainty>
        </time>
        <waveformID networkCode="XA" stationCode="S16" locationCode="" channelCode=""></waveformID>
        <phaseHint>P</phaseHint>
        <comment id="smi:nakamura81/pick/comment/S16/05615">
          <text>noisy data</text>
        </comment>
        <ns1:bulow_moonquake>A256</ns1:bulow_moonquake>
      </pick>
      <amplitude publicID="smi:nakamura81/amplitude/S16/05615">
        <genericAmplitude>
          <value>4.5</value>
        </genericAmplitude>
        <type>A</type>
        <unit>other</unit>
        <pickID>smi:nakamura81/pick/S16/05615</pickID>
      </amplitude>
      <ns0:moon_event_type>deep moonquake</ns0:moon_event_type>
    </event>
    <event publicID="smi:nakamura81/event/05618">
      <type>earthquake</type>
      <description>
        <text>deep moonquake</text>
      </description>
      <comment id="smi:nakamura81/event/comment/bulow07/05618">
        <text>bulow_moonquake: A415</text>
      </comment>
      <pick publicID="smi:nakamura81/pick/S16/05618">
        <time>
          <value>1973-01-01T10:16:00.000000Z</value>
          <uncertainty>60.0</uncertainty>
        </time>
        <waveformID networkCode="XA" stationCode="S16" locationCode="" channelCode=""></waveformID>
        <phaseHint>P</phaseHint>
        <comment id="smi:nakamura81/pick/comment/S16/05618">
          <text>noisy data</text>
        </comment>
        <ns1:bulow_moonquake>A415</ns1:bulow_moonquake>
      </pick>
      <amplitude publicID="smi:nakamura81/amplitude/S16/05618">
        <genericAmplitude>
          <value>3.0</value>
        </genericAmplitude>
        <type>A</type>
        <unit>other</unit>
        <pickID>smi:nakamura81/pick/S16/05618</pickID>
      </amplitude>
      <ns0:moon_event_type>deep moonquake</ns0:moon_event_type>
    </event>
    <event publicID="smi:nakamura81/event/05619">
      <type>earthquake</type>
      <description>
        <text>deep moonquake</text>
      </description>
      <comment id="smi:nakamura81/event/comment/05619">
        <text>15A ESTIMATED</text>
      </comment>
      <comment id="smi:nakamura81/event/comment/nakamura81/05619">
        <text/>
      </comment>
      <comment id="smi:nakamura81/event/comment/bulow07/05619">
        <text>bulow_moonquake: A17</text>
      </comment>
      <pick publicID="smi:nakamura81/pick/S16/05619">
        <time>
          <value>1973-01-01T11:32:00.000000Z</value>
          <uncertainty>60.0</uncertainty>
        </time>
        <waveformID networkCode="XA" stationCode="S16" locationCode="" channelCode=""></waveformID>
        <phaseHint>P</phaseHint>
        <comment id="smi:nakamura81/pick/comment/S16/05619">
          <text>noisy data</text>
        </comment>
        <ns1:bulow_moonquake>A17</ns1:bulow_moonquake>
        <ns1:nakamura_moonquake>A17</ns1:nakamura_moonquake>
      </pick>
      <amplitude publicID="smi:nakamura81/amplitude/S16/05619">
        <genericAmplitude>
          <value>6.0</value>
        </genericAmplitude>
        <type>A</type>
        <unit>other</unit>
        <pickID>smi:nakamura81/pick/S16/05619</pickID>
      </amplitude>
      <ns0:moon_event_type>deep moonquake</ns0:moon_event_type>
    </event>
    <event publicID="smi:nakamura81/event/05620">
      <type>earthquake</type>
      <description>
        <text>deep moonquake</text>
      </description>
      <comment id="smi:nakamura81/event/comment/bulow07/05620">
        <text>bulow_moonquake: A256</text>
      </comment>
      <pick publicID="smi:nakamura81/pick/S16/05620">
        <time>
          <value>1973-01-01T12:08:00.000000Z</value>
          <uncertainty>60.0</uncertainty>
        </time>
        <waveformID networkCode="XA" stationCode="S16" locationCode="" channelCode=""></waveformID>
        <phaseHint>P</phaseHint>
        <comment id="smi:nakamura81/pick/comment/S16/05620">
          <text>noisy data</text>
        </comment>
        <ns1:bulow_moonquake>A256</ns1:bulow_moonquake>
      </pick>
      <amplitude publicID="smi:nakamura81/amplitude/S16/05620">
        <genericAmplitude>
          <value>4.0</value>
        </genericAmplitude>
        <type>A</type>
        <unit>other</unit>
        <pickID>smi:nakamura81/pick/S16/05620</pickID>
      </amplitude>
      <ns0:moon_event_type>deep moonquake</ns0:moon_event_type>
    </event>
    <event publicID="smi:nakamura81/event/05635">
      <type>earthquake</type>
      <description>
        <text>deep moonquake</text>
      </description>
      <comment id="smi:nakamura81/event/comment/bulow07/05635">
        <text>bulow_moonquake: A8</text>
      </comment>
      <pick publicID="smi:nakamura81/pick/S16/05635">
        <time>
          <value>1973-01-02T21:56:00.000000Z</value>
          <uncertainty>60.0</uncertainty>
        </time>
        <waveformID networkCode="XA" stationCode="S16" locationCode="" channelCode=""></waveformID>
        <phaseHint>P</phaseHint>
        <comment id="smi:nakamura81/pick/comment/S16/05635">
          <text>noisy data</text>
        </comment>
        <ns1:bulow_moonquake>A8</ns1:bulow_moonquake>
      </pick>
      <amplitude publicID="smi:nakamura81/amplitude/S16/05635">
        <genericAmplitude>
          <value>3.0</value>
        </genericAmplitude>
        <type>A</type>
        <unit>other</unit>
        <pickID>smi:nakamura81/pick/S16/05635</pickID>
      </amplitude>
      <ns0:moon_event_type>deep moonquake</ns0:moon_event_type>
    </event>
    <event publicID="smi:nakamura81/event/05637">
      <type>earthquake</type>
      <description>
        <text>deep moonquake</text>
      </description>
      <comment id="smi:nakamura81/event/comment/bulow07/05637">
        <text>bulow_moonquake: A8</text>
      </comment>
      <pick publicID="smi:nakamura81/pick/S16/05637">
        <time>
          <value>1973-01-02T23:42:00.000000Z</value>
          <uncertainty>60.0</uncertainty>
        </time>
        <waveformID networkCode="XA" stationCode="S16" locationCode="" channelCode=""></waveformID>
        <phaseHint>P</phaseHint>
        <comment id="smi:nakamura81/pick/comment/S16/05637">
          <text>noisy data</text>
        </comment>
        <ns1:bulow_moonquake>A8</ns1:bulow_moonquake>
      </pick>
      <amplitude publicID="smi:nakamura81/amplitude/S16/05637">
        <genericAmplitude>
          <value>4.0</value>
        </genericAmplitude>
        <type>A</type>
        <unit>other</unit>
        <pickID>smi:nakamura81/pick/S16/05637</pickID>
      </amplitude>
      <ns0:moon_event_type>deep moonquake</ns0:moon_event_type>
    </event>
    <event publicID="smi:nakamura81/event/05638">
      <type>earthquake</type>
      <description>
        <text>deep moonquake</text>
      </description>
      <comment id="smi:nakamura81/event/comment/bulow07/05638">
        <text>bulow_moonquake: A20</text>
      </comment>
      <pick publicID="smi:nakamura81/pick/S16/05638">
        <time>
          <value>1973-01-03T01:00:00.000000Z</value>
          <uncertainty>60.0</uncertainty>
        </time>
        <waveformID networkCode="XA" stationCode="S16" locationCode="" channelCode=""></waveformID>
        <phaseHint>P</phaseHint>
        <ns1:bulow_moonquake>A20</ns1:bulow_moonquake>
      </pick>
      <amplitude publicID="smi:nakamura81/amplitude/S16/05638">
        <genericAmplitude>
          <value>-1.0</value>
        </genericAmplitude>
        <type>A</type>
        <unit>other</unit>
        <pickID>smi:nakamura81/pick/S16/05638</pickID>
      </amplitude>
      <ns0:moon_event_type>deep moonquake</ns0:moon_event_type>
    </event>
    <event publicID="smi:nakamura81/event/05639">
      <type>earthquake</type>
      <description>
        <text>deep moonquake</text>
      </description>
      <comment id="smi:nakamura81/event/comment/nakamura81/05639">
        <text/>
      </comment>
      <comment id="smi:nakamura81/event/comment/bulow07/05639">
        <text>bulow_moonquake: A33</text>
      </comment>
      <pick publicID="smi:nakamura81/pick/S16/05639">
        <time>
          <value>1973-01-03T02:44:00.000000Z</value>
          <uncertainty>60.0</uncertainty>
        </time>
        <waveformID networkCode="XA" stationCode="S16" locationCode="" channelCode=""></waveformID>
        <phaseHint>P</phaseHint>
        <comment id="smi:nakamura81/pick/comment/S16/05639">
          <text>noisy data</text>
        </comment>
        <ns1:bulow_moonquake>A33</ns1:bulow_moonquake>
        <ns1:nakamura_moonquake>A33</ns1:nakamura_moonquake>
      </pick>
      <amplitude publicID="smi:nakamura81/amplitude/S16/05639">
        <genericAmplitude>
          <value>8.0</value>
        </genericAmplitude>
        <type>A</type>
        <unit>other</unit>
        <pickID>smi:nakamura81/pick/S16/05639</pickID>
      </amplitude>
      <ns0:moon_event_type>deep moonquake</ns0:moon_event_type>
    </event>
    <event publicID="smi:nakamura81/event/05642">
      <type>earthquake</type>
      <description>
        <text>deep moonquake</text>
      </description>
      <comment id="smi:nakamura81/event/comment/bulow07/05642">
        <text>bulow_moonquake: A18</text>
      </comment>
      <pick publicID="smi:nakamura81/pick/S16/05642">
        <time>
          <value>1973-01-03T12:03:00.000000Z</value>
          <uncertainty>60.0</uncertainty>
        </time>
        <waveformID networkCode="XA" stationCode="S16" locationCode="" channelCode=""></waveformID>
        <phaseHint>P</phaseHint>
        <ns1:bulow_moonquake>A18</ns1:bulow_moonquake>
      </pick>
      <amplitude publicID="smi:nakamura81/amplitude/S16/05642">
        <genericAmplitude>
          <value>-1.0</value>
        </genericAmplitude>
        <type>A</type>
        <unit>other</unit>
        <pickID>smi:nakamura81/pick/S16/05642</pickID>
      </amplitude>
      <ns0:moon_event_type>deep moonquake</ns0:moon_event_type>
    </event>
    <event publicID="smi:nakamura81/event/05643">
      <type>earthquake</type>
      <description>
        <text>deep moonquake</text>
      </description>
      <comment id="smi:nakamura81/event/comment/bulow07/05643">
        <text>bulow_moonquake: A104</text>
      </comment>
      <pick publicID="smi:nakamura81/pick/S16/05643">
        <time>
          <value>1973-01-03T15:48:00.000000Z</value>
          <uncertainty>60.0</uncertainty>
        </time>
        <waveformID networkCode="XA" stationCode="S16" locationCode="" channelCode=""></waveformID>
        <phaseHint>P</phaseHint>
        <comment id="smi:nakamura81/pick/comment/S16/05643">
          <text>noisy data</text>
        </comment>
        <ns1:bulow_moonquake>A104</ns1:bulow_moonquake>
      </pick>
      <amplitude publicID="smi:nakamura81/amplitude/S16/05643">
        <genericAmplitude>
          <value>5.5</value>
        </genericAmplitude>
        <type>A</type>
        <unit>other</unit>
        <pickID>smi:nakamura81/pick/S16/05643</pickID>
      </amplitude>
      <ns0:moon_event_type>deep moonquake</ns0:moon_event_type>
    </event>
    <event publicID="smi:nakamura81/event/05644">
      <type>earthquake</type>
      <description>
        <text>deep moonquake</text>
      </description>
      <comment id="smi:nakamura81/event/comment/bulow07/05644">
        <text>bulow_moonquake: A100</text>
      </comment>
      <pick publicID="smi:nakamura81/pick/S16/05644">
        <time>
          <value>1973-01-03T16:47:00.000000Z</value>
          <uncertainty>60.0</uncertainty>
        </time>
        <waveformID networkCode="XA" stationCode="S16" locationCode="" channelCode=""></waveformID>
        <phaseHint>P</phaseHint>
        <comment id="smi:nakamura81/pick/comment/S16/05644">
          <text>noisy data</text>
        </comment>
        <ns1:bulow_moonquake>A100</ns1:bulow_moonquake>
      </pick>
      <amplitude publicID="smi:nakamura81/amplitude/S16/05644">
        <genericAmplitude>
          <value>4.5</value>
        </genericAmplitude>
        <type>A</type>
        <unit>other</unit>
        <pickID>smi:nakamura81/pick/S16/05644</pickID>
      </amplitude>
      <ns0:moon_event_type>deep moonquake</ns0:moon_event_type>
    </event>
    <event publicID="smi:nakamura81/event/05645">
      <type>earthquake</type>
      <description>
        <text>deep moonquake</text>
      </description>
      <comment id="smi:nakamura81/event/comment/bulow07/05645">
        <text>bulow_moonquake: A51</text>
      </comment>
      <pick publicID="smi:nakamura81/pick/S16/05645">
        <time>
          <value>1973-01-03T18:16:00.000000Z</value>
          <uncertainty>60.0</uncertainty>
        </time>
        <waveformID networkCode="XA" stationCode="S16" locationCode="" channelCode=""></waveformID>
        <phaseHint>P</phaseHint>
        <comment id="smi:nakamura81/pick/comment/S16/05645">
          <text>noisy data</text>
        </comment>
        <ns1:bulow_moonquake>A51</ns1:bulow_moonquake>
      </pick>
      <amplitude publicID="smi:nakamura81/amplitude/S16/05645">
        <genericAmplitude>
          <value>3.8</value>
        </genericAmplitude>
        <type>A</type>
        <unit>other</unit>
        <pickID>smi:nakamura81/pick/S16/05645</pickID>
      </amplitude>
      <ns0:moon_event_type>deep moonquake</ns0:moon_event_type>
    </event>
    <event publicID="smi:nakamura81/event/05646">
      <type>earthquake</type>
      <description>
        <text>deep moonquake</text>
      </description>
      <comment id="smi:nakamura81/event/comment/bulow07/05646">
        <text>bulow_moonquake: A44</text>
      </comment>
      <pick publicID="smi:nakamura81/pick/S16/05646">
        <time>
          <value>1973-01-03T19:05:00.000000Z</value>
          <uncertainty>60.0</uncertainty>
        </time>
        <waveformID networkCode="XA" stationCode="S16" locationCode="" channelCode=""></waveformID>
        <phaseHint>P</phaseHint>
        <comment id="smi:nakamura81/pick/comment/S16/05646">
          <text>noisy data</text>
        </comment>
        <ns1:bulow_moonquake>A44</ns1:bulow_moonquake>
      </pick>
      <amplitude publicID="smi:nakamura81/amplitude/S16/05646">
        <genericAmplitude>
          <value>3.5</value>
        </genericAmplitude>
        <type>A</type>
        <unit>other</unit>
        <pickID>smi:nakamura81/pick/S16/05646</pickID>
      </amplitude>
      <ns0:moon_event_type>deep moonquake</ns0:moon_event_type>
    </event>
    <event publicID="smi:nakamura81/event/05649">
      <type>earthquake</type>
      <description>
        <text>deep moonquake</text>
      </description>
      <comment id="smi:nakamura81/event/comment/bulow07/05649">
        <text>bulow_moonquake: A424</text>
      </comment>
      <pick publicID="smi:nakamura81/pick/S16/05649">
        <time>
          <value>1973-01-04T00:28:00.000000Z</value>
          <uncertainty>60.0</uncertainty>
        </time>
        <waveformID networkCode="XA" stationCode="S16" locationCode="" channelCode=""></waveformID>
        <phaseHint>P</phaseHint>
        <comment id="smi:nakamura81/pick/comment/S16/05649">
          <text>noisy data</text>
        </comment>
        <ns1:bulow_moonquake>A424</ns1:bulow_moonquake>
      </pick>
      <amplitude publicID="smi:nakamura81/amplitude/S16/05649">
        <genericAmplitude>
          <value>3.0</value>
        </genericAmplitude>
        <type>A</type>
        <unit>other</unit>
        <pickID>smi:nakamura81/pick/S16/05649</pickID>
      </amplitude>
      <ns0:moon_event_type>deep moonquake</ns0:moon_event_type>
    </event>
    <event publicID="smi:nakamura81/event/05650">
      <type>earthquake</type>
      <description>
        <text>deep moonquake</text>
      </description>
      <comment id="smi:nakamura81/event/comment/bulow07/05650">
        <text>bulow_moonquake: A86</text>
      </comment>
      <pick publicID="smi:nakamura81/pick/S16/05650">
        <time>
          <value>1973-01-04T01:44:00.000000Z</value>
          <uncertainty>60.0</uncertainty>
        </time>
        <waveformID networkCode="XA" stationCode="S16" locationCode="" channelCode=""></waveformID>
        <phaseHint>P</phaseHint>
        <comment id="smi:nakamura81/pick/comment/S16/05650">
          <text>noisy data</text>
        </comment>
        <ns1:bulow_moonquake>A86</ns1:bulow_moonquake>
      </pick>
      <amplitude publicID="smi:nakamura81/amplitude/S16/05650">
        <genericAmplitude>
          <value>3.5</value>
        </genericAmplitude>
        <type>A</type>
        <unit>other</unit>
        <pickID>smi:nakamura81/pick/S16/05650</pickID>
      </amplitude>
      <ns0:moon_event_type>deep moonquake</ns0:moon_event_type>
    </event>
    <event publicID="smi:nakamura81/event/05652">
      <type>earthquake</type>
      <description>
        <text>deep moonquake</text>
      </description>
      <comment id="smi:nakamura81/event/comment/bulow07/05652">
        <text>bulow_moonquake: A425</text>
      </comment>
      <pick publicID="smi:nakamura81/pick/S16/05652">
        <time>
          <value>1973-01-04T04:53:00.000000Z</value>
          <uncertainty>60.0</uncertainty>
        </time>
        <waveformID networkCode="XA" stationCode="S16" locationCode="" channelCode=""></waveformID>
        <phaseHint>P</phaseHint>
        <comment id="smi:nakamura81/pick/comment/S16/05652">
          <text>noisy data</text>
        </comment>
        <ns1:bulow_moonquake>A425</ns1:bulow_moonquake>
      </pick>
      <amplitude publicID="smi:nakamura81/amplitude/S16/05652">
        <genericAmplitude>
          <value>4.0</value>
        </genericAmplitude>
        <type>A</type>
        <unit>other</unit>
        <pickID>smi:nakamura81/pick/S16/05652</pickID>
      </amplitude>
      <ns0:moon_event_type>deep moonquake</ns0:moon_event_type>
    </event>
    <event publicID="smi:nakamura81/event/05653">
      <type>earthquake</type>
      <description>
        <text>deep moonquake</text>
      </description>
      <comment id="smi:nakamura81/event/comment/bulow07/05653">
        <text>bulow_moonquake: A445</text>
      </comment>
      <pick publicID="smi:nakamura81/pick/S16/05653">
        <time>
          <value>1973-01-04T06:32:00.000000Z</value>
          <uncertainty>60.0</uncertainty>
        </time>
        <waveformID networkCode="XA" stationCode="S16" locationCode="" channelCode=""></waveformID>
        <phaseHint>P</phaseHint>
        <comment id="smi:nakamura81/pick/comment/S16/05653">
          <text>noisy data</text>
        </comment>
        <ns1:bulow_moonquake>A445</ns1:bulow_moonquake>
      </pick>
      <amplitude publicID="smi:nakamura81/amplitude/S16/05653">
        <genericAmplitude>
          <value>3.0</value>
        </genericAmplitude>
        <type>A</type>
        <unit>other</unit>
        <pickID>smi:nakamura81/pick/S16/05653</pickID>
      </amplitude>
      <ns0:moon_event_type>deep moonquake</ns0:moon_event_type>
    </event>
    <event publicID="smi:nakamura81/event/05655">
      <type>earthquake</type>
      <description>
        <text>deep moonquake</text>
      </description>
      <comment id="smi:nakamura81/event/comment/bulow07/05655">
        <text>bulow_moonquake: A8</text>
      </comment>
      <pick publicID="smi:nakamura81/pick/S16/05655">
        <time>
