<?xml version='1.0' encoding='utf-8'?>
<q:quakeml xmlns="http://quakeml.org/xmlns/bed/1.2" xmlns:q="http://quakeml.org/xmlns/quakeml/1.2" xmlns:ns0="http://some-page.de/xmlns/0.1">
  <eventParameters publicID="smi:local/898832a8-31f8-46cb-b5fb-ebbde5f1eec1">
    <event publicID="smi:nakamura81/event/05648">
      <type>meteorite</type>
      <description>
        <text>meteoroid</text>
      </description>
      <pick publicID="smi:nakamura81/pick/S16/05648">
        <time>
          <value>1973-01-03T23:48:00.000000Z</value>
          <uncertainty>60.0</uncertainty>
        </time>
        <waveformID networkCode="XA" stationCode="S16" locationCode="" channelCode=""></waveformID>
        <phaseHint>P</phaseHint>
        <comment id="smi:nakamura81/pick/comment/S16/05648">
          <text>noisy data</text>
        </comment>
      </pick>
      <amplitude publicID="smi:nakamura81/amplitude/S16/05648">
        <genericAmplitude>
          <value>0.3</value>
        </genericAmplitude>
        <type>A</type>
        <unit>other</unit>
        <pickID>smi:nakamura81/pick/S16/05648</pickID>
      </amplitude>
      <ns0:moon_event_type>meteoroid</ns0:moon_event_type>
    </event>
    <event publicID="smi:nakamura81/event/05679">
      <type>meteorite</type>
      <description>
        <text>meteoroid</text>
      </description>
      <pick publicID="smi:nakamura81/pick/S16/05679">
        <time>
          <value>1973-01-07T02:02:00.000000Z</value>
          <uncertainty>60.0</uncertainty>
        </time>
        <waveformID networkCode="XA" stationCode="S16" locationCode="" channelCode=""></waveformID>
        <phaseHint>P</phaseHint>
        <comment id="smi:nakamura81/pick/comment/S16/05679">
          <text>noisy data</text>
        </comment>
      </pick>
      <amplitude publicID="smi:nakamura81/amplitude/S16/05679">
        <genericAmplitude>
          <value>3.0</value>
        </genericAmplitude>
        <type>A</type>
        <unit>other</unit>
        <pickID>smi:nakamura81/pick/S16/05679</pickID>
      </amplitude>
      <ns0:moon_event_type>meteoroid</ns0:moon_event_type>
    </event>
    <event publicID="smi:nakamura81/event/05756">
      <type>meteorite</type>
      <description>
        <text>meteoroid</text>
      </description>
      <comment id="smi:nakamura81/event/comment/05756">
        <text>C 14SP=14</text>
      </comment>
      <pick publicID="smi:nakamura81/pick/S16/05756">
        <time>
          <value>1973-01-18T23:01:00.000000Z</value>
          <uncertainty>60.0</uncertainty>
        </time>
        <waveformID networkCode="XA" stationCode="S16" locationCode="" channelCode=""></waveformID>
        <phaseHint>P</phaseHint>
      </pick>
      <amplitude publicID="smi:nakamura81/amplitude/S16/05756">
        <genericAmplitude>
          <value>3.2</value>
        </genericAmplitude>
        <type>A</type>
        <unit>other</unit>
        <pickID>smi:nakamura81/pick/S16/05756</pickID>
      </amplitude>
      <ns0:moon_event_type>meteoroid</ns0:moon_event_type>
    </event>
    <event publicID="smi:nakamura81/event/05757">
      <type>meteorite</type>
      <description>
        <text>meteoroid</text>
      </description>
      <pick publicID="smi:nakamura81/pick/S16/05757">
        <time>
          <value>1973-01-18T23:59:00.000000Z</value>
          <uncertainty>60.0</uncertainty>
        </time>
        <waveformID networkCode="XA" stationCode="S16" locationCode="" channelCode=""></waveformID>
        <phaseHint>P</phaseHint>
      </pick>
      <amplitude publicID="smi:nakamura81/amplitude/S16/05757">
        <genericAmplitude>
          <value>6.5</value>
        </genericAmplitude>
        <type>A</type>
        <unit>other</unit>
        <pickID>smi:nakamura81/pick/S16/05757</pickID>
      </amplitude>
      <ns0:moon_event_type>meteoroid</ns0:moon_event_type>
    </event>
    <event publicID="smi:nakamura81/event/05789">
      <type>meteorite</type>
      <description>
        <text>meteoroid</text>
      </description>
      <comment id="smi:nakamura81/event/comment/05789">
        <text>C</text>
      </comment>
      <pick publicID="smi:nakamura81/pick/S16/05789">
        <time>
          <value>1973-01-25T16:11:00.000000Z</value>
          <uncertainty>60.0</uncertainty>
        </time>
        <waveformID networkCode="XA" stationCode="S16" locationCode="" channelCode=""></waveformID>
        <phaseHint>P</phaseHint>
      </pick>
      <amplitude publicID="smi:nakamura81/amplitude/S16/05789">
        <genericAmplitude>
          <value>3.0</value>
        </genericAmplitude>
        <type>A</type>
        <unit>other</unit>
        <pickID>smi:nakamura81/pick/S16/05789</pickID>
      </amplitude>
      <ns0:moon_event_type>meteoroid</ns0:moon_event_type>
    </event>
    <event publicID="smi:nakamura81/event/05790">
      <type>meteorite</type>
      <description>
        <text>meteoroid</text>
      </description>
      <comment id="smi:nakamura81/event/comment/05790">
        <text>C</text>
      </comment>
      <pick publicID="smi:nakamura81/pick/S16/05790">
        <time>
          <value>1973-01-25T23:50:00.000000Z</value>
          <uncertainty>60.0</uncertainty>
        </time>
        <waveformID networkCode="XA" stationCode="S16" locationCode="" channelCode=""></waveformID>
        <phaseHint>P</phaseHint>
      </pick>
      <amplitude publicID="smi:nakamura81/amplitude/S16/05790">
        <genericAmplitude>
          <value>1.6</value>
        </genericAmplitude>
        <type>A</type>
        <unit>other</unit>
        <pickID>smi:nakamura81/pick/S16/05790</pickID>
      </amplitude>
      <ns0:moon_event_type>meteoroid</ns0:moon_event_type>
    </event>
    <event publicID="smi:nakamura81/event/05791">
      <type>meteorite</type>
      <description>
        <text>meteoroid</text>
      </description>
      <pick publicID="smi:nakamura81/pick/S16/05791">
        <time>
          <value>1973-01-26T01:29:00.000000Z</value>
          <uncertainty>60.0</uncertainty>
        </time>
        <waveformID networkCode="XA" stationCode="S16" locationCode="" channelCode=""></waveformID>
        <phaseHint>P</phaseHint>
      </pick>
      <amplitude publicID="smi:nakamura81/amplitude/S16/05791">
        <genericAmplitude>
          <value>2.2</value>
        </genericAmplitude>
        <type>A</type>
        <unit>other</unit>
        <pickID>smi:nakamura81/pick/S16/05791</pickID>
      </amplitude>
      <ns0:moon_event_type>meteoroid</ns0:moon_event_type>
    </event>
    <event publicID="smi:nakamura81/event/05792">
      <type>meteorite</type>
      <description>
        <text>meteoroid</text>
      </description>
      <pick publicID="smi:nakamura81/pick/S16/05792">
        <time>
          <value>1973-01-26T03:07:00.000000Z</value>
          <uncertainty>60.0</uncertainty>
        </time>
        <waveformID networkCode="XA" stationCode="S16" locationCode="" channelCode=""></waveformID>
        <phaseHint>P</phaseHint>
      </pick>
      <amplitude publicID="smi:nakamura81/amplitude/S16/05792">
        <genericAmplitude>
          <value>2.8</value>
        </genericAmplitude>
        <type>A</type>
        <unit>other</unit>
        <pickID>smi:nakamura81/pick/S16/05792</pickID>
      </amplitude>
      <ns0:moon_event_type>meteoroid</ns0:moon_event_type>
    </event>
    <event publicID="smi:nakamura81/event/05818">
      <type>meteorite</type>
      <description>
        <text>meteoroid</text>
      </description>
      <pick publicID="smi:nakamura81/pick/S16/05818">
        <time>
          <value>1973-01-31T00:44:00.000000Z</value>
          <uncertainty>60.0</uncertainty>
        </time>
        <waveformID networkCode="XA" stationCode="S16" locationCode="" channelCode=""></waveformID>
        <phaseHint>P</phaseHint>
        <comment id="smi:nakamura81/pick/comment/S16/05818">
          <text>noisy data</text>
        </comment>
      </pick>
      <amplitude publicID="smi:nakamura81/amplitude/S16/05818">
        <genericAmplitude>
          <value>8.0</value>
        </genericAmplitude>
        <type>A</type>
        <unit>other</unit>
        <pickID>smi:nakamura81/pick/S16/05818</pickID>
      </amplitude>
      <ns0:moon_event_type>meteoroid</ns0:moon_event_type>
    </event>
    <event publicID="smi:nakamura81/event/05827">
      <type>meteorite</type>
      <description>
        <text>meteoroid</text>
      </description>
      <comment id="smi:nakamura81/event/comment/05827">
        <text>C</text>
      </comment>
      <pick publicID="smi:nakamura81/pick/S16/05827">
        <time>
          <value>1973-02-01T03:43:00.000000Z</value>
          <uncertainty>60.0</uncertainty>
        </time>
        <waveformID networkCode="XA" stationCode="S16" locationCode="" channelCode=""></waveformID>
        <phaseHint>P</phaseHint>
        <comment id="smi:nakamura81/pick/comment/S16/05827">
          <text>noisy data</text>
        </comment>
      </pick>
      <amplitude publicID="smi:nakamura81/amplitude/S16/05827">
        <genericAmplitude>
          <value>7.6</value>
        </genericAmplitude>
        <type>A</type>
        <unit>other</unit>
        <pickID>smi:nakamura81/pick/S16/05827</pickID>
      </amplitude>
      <ns0:moon_event_type>meteoroid</ns0:moon_event_type>
    </event>
    <event publicID="smi:nakamura81/event/05833">
      <type>meteorite</type>
      <description>
        <text>meteoroid</text>
      </description>
      <comment id="smi:nakamura81/event/comment/05833">
        <text>C</text>
      </comment>
      <pick publicID="smi:nakamura81/pick/S16/05833">
        <time>
          <value>1973-02-02T10:44:00.000000Z</value>
          <uncertainty>60.0</uncertainty>
        </time>
        <waveformID networkCode="XA" stationCode="S16" locationCode="" channelCode=""></waveformID>
        <phaseHint>P</phaseHint>
        <comment id="smi:nakamura81/pick/comment/S16/05833">
          <text>noisy data</text>
        </comment>
      </pick>
      <amplitude publicID="smi:nakamura81/amplitude/S16/05833">
        <genericAmplitude>
          <value>4.0</value>
        </genericAmplitude>
        <type>A</type>
        <unit>other</unit>
        <pickID>smi:nakamura81/pick/S16/05833</pickID>
      </amplitude>
      <ns0:moon_event_type>meteoroid</ns0:moon_event_type>
    </event>
    <event publicID="smi:nakamura81/event/05851">
      <type>meteorite</type>
      <description>
        <text>meteoroid</text>
      </description>
      <comment id="smi:nakamura81/event/comment/05851">
        <text>C</text>
      </comment>
      <pick publicID="smi:nakamura81/pick/S16/05851">
        <time>
          <value>1973-02-05T15:27:00.000000Z</value>
          <uncertainty>60.0</uncertainty>
        </time>
        <waveformID networkCode="XA" stationCode="S16" locationCode="" channelCode=""></waveformID>
        <phaseHint>P</phaseHint>
        <comment id="smi:nakamura81/pick/comment/S16/05851">
          <text>noisy data</text>
        </comment>
      </pick>
      <amplitude publicID="smi:nakamura81/amplitude/S16/05851">
        <genericAmplitude>
          <value>5.2</value>
        </genericAmplitude>
        <type>A</type>
        <unit>other</unit>
        <pickID>smi:nakamura81/pick/S16/05851</pickID>
      </amplitude>
      <ns0:moon_event_type>meteoroid</ns0:moon_event_type>
    </event>
    <event publicID="smi:nakamura81/event/05853">
      <type>meteorite</type>
      <description>
        <text>meteoroid</text>
      </description>
      <comment id="smi:nakamura81/event/comment/05853">
        <text>C</text>
      </comment>
      <pick publicID="smi:nakamura81/pick/S16/05853">
        <time>
          <value>1973-02-05T20:59:00.000000Z</value>
          <uncertainty>60.0</uncertainty>
        </time>
        <waveformID networkCode="XA" stationCode="S16" locationCode="" channelCode=""></waveformID>
        <phaseHint>P</phaseHint>
        <comment id="smi:nakamura81/pick/comment/S16/05853">
          <text>noisy data</text>
        </comment>
      </pick>
      <amplitude publicID="smi:nakamura81/amplitude/S16/05853">
        <genericAmplitude>
          <value>5.2</value>
        </genericAmplitude>
        <type>A</type>
        <unit>other</unit>
        <pickID>smi:nakamura81/pick/S16/05853</pickID>
      </amplitude>
      <ns0:moon_event_type>meteoroid</ns0:moon_event_type>
    </event>
    <event publicID="smi:nakamura81/event/05894">
      <type>meteorite</type>
      <description>
        <text>meteoroid</text>
      </description>
      <comment id="smi:nakamura81/event/comment/05894">
        <text>DIST</text>
      </comment>
      <pick publicID="smi:nakamura81/pick/S16/05894">
        <time>
          <value>1973-02-12T10:56:00.000000Z</value>
          <uncertainty>60.0</uncertainty>
        </time>
        <waveformID networkCode="XA" stationCode="S16" locationCode="" channelCode=""></waveformID>
        <phaseHint>P</phaseHint>
      </pick>
      <amplitude publicID="smi:nakamura81/amplitude/S16/05894">
        <genericAmplitude>
          <value>11.0</value>
        </genericAmplitude>
        <type>A</type>
        <unit>other</unit>
        <pickID>smi:nakamura81/pick/S16/05894</pickID>
      </amplitude>
      <ns0:moon_event_type>meteoroid</ns0:moon_event_type>
    </event>
    <event publicID="smi:nakamura81/event/05907">
      <type>meteorite</type>
      <description>
        <text>meteoroid</text>
      </description>
      <comment id="smi:nakamura81/event/comment/05907">
        <text>NEAR 16,SP&gt;&gt;LP</text>
      </comment>
      <pick publicID="smi:nakamura81/pick/S16/05907">
        <time>
          <value>1973-02-13T05:16:00.000000Z</value>
          <uncertainty>60.0</uncertainty>
        </time>
        <waveformID networkCode="XA" stationCode="S16" locationCode="" channelCode=""></waveformID>
        <phaseHint>P</phaseHint>
      </pick>
      <amplitude publicID="smi:nakamura81/amplitude/S16/05907">
        <genericAmplitude>
          <value>20.0</value>
        </genericAmplitude>
        <type>A</type>
        <unit>other</unit>
        <pickID>smi:nakamura81/pick/S16/05907</pickID>
      </amplitude>
      <ns0:moon_event_type>meteoroid</ns0:moon_event_type>
    </event>
    <event publicID="smi:nakamura81/event/05949">
      <type>meteorite</type>
      <description>
        <text>meteoroid</text>
      </description>
      <comment id="smi:nakamura81/event/comment/05949">
        <text>DIST  14 LOOKS STRANGE</text>
      </comment>
      <pick publicID="smi:nakamura81/pick/S16/05949">
        <time>
          <value>1973-02-15T23:35:00.000000Z</value>
          <uncertainty>60.0</uncertainty>
        </time>
        <waveformID networkCode="XA" stationCode="S16" locationCode="" channelCode=""></waveformID>
        <phaseHint>P</phaseHint>
      </pick>
      <amplitude publicID="smi:nakamura81/amplitude/S16/05949">
        <genericAmplitude>
          <value>10.0</value>
        </genericAmplitude>
        <type>A</type>
        <unit>other</unit>
        <pickID>smi:nakamura81/pick/S16/05949</pickID>
      </amplitude>
      <ns0:moon_event_type>meteoroid</ns0:moon_event_type>
    </event>
    <event publicID="smi:nakamura81/event/05953">
      <type>meteorite</type>
      <description>
        <text>meteoroid</text>
      </description>
      <comment id="smi:nakamura81/event/comment/05953">
        <text>NEAR 14,LP&gt;SP</text>
      </comment>
      <pick publicID="smi:nakamura81/pick/S16/05953">
        <time>
          <value>1973-02-16T06:31:00.000000Z</value>
          <uncertainty>60.0</uncertainty>
        </time>
        <waveformID networkCode="XA" stationCode="S16" locationCode="" channelCode=""></waveformID>
        <phaseHint>P</phaseHint>
      </pick>
      <amplitude publicID="smi:nakamura81/amplitude/S16/05953">
        <genericAmplitude>
          <value>1.8</value>
        </genericAmplitude>
        <type>A</type>
        <unit>other</unit>
        <pickID>smi:nakamura81/pick/S16/05953</pickID>
      </amplitude>
      <ns0:moon_event_type>meteoroid</ns0:moon_event_type>
    </event>
    <event publicID="smi:nakamura81/event/05969">
      <type>meteorite</type>
      <description>
        <text>meteoroid</text>
      </description>
      <comment id="smi:nakamura81/event/comment/05969">
        <text>NEAR 16,SP&gt;LP</text>
      </comment>
      <pick publicID="smi:nakamura81/pick/S16/05969">
        <time>
          <value>1973-02-18T04:58:00.000000Z</value>
          <uncertainty>60.0</uncertainty>
        </time>
        <waveformID networkCode="XA" stationCode="S16" locationCode="" channelCode=""></waveformID>
        <phaseHint>P</phaseHint>
      </pick>
      <amplitude publicID="smi:nakamura81/amplitude/S16/05969">
        <genericAmplitude>
          <value>2.0</value>
        </genericAmplitude>
        <type>A</type>
        <unit>other</unit>
        <pickID>smi:nakamura81/pick/S16/05969</pickID>
      </amplitude>
      <ns0:moon_event_type>meteoroid</ns0:moon_event_type>
    </event>
    <event publicID="smi:nakamura81/event/05991">
      <type>meteorite</type>
      <description>
        <text>meteoroid</text>
      </description>
      <comment id="smi:nakamura81/event/comment/05991">
        <text>DIST NO SP</text>
      </comment>
      <pick publicID="smi:nakamura81/pick/S16/05991">
        <time>
          <value>1973-02-21T09:23:00.000000Z</value>
          <uncertainty>60.0</uncertainty>
        </time>
        <waveformID networkCode="XA" stationCode="S16" locationCode="" channelCode=""></waveformID>
        <phaseHint>P</phaseHint>
        <comment id="smi:nakamura81/pick/comment/S16/05991">
          <text>noisy data</text>
        </comment>
      </pick>
      <amplitude publicID="smi:nakamura81/amplitude/S16/05991">
        <genericAmplitude>
          <value>5.0</value>
        </genericAmplitude>
        <type>A</type>
        <unit>other</unit>
        <pickID>smi:nakamura81/pick/S16/05991</pickID>
      </amplitude>
      <ns0:moon_event_type>meteoroid</ns0:moon_event_type>
    </event>
    <event publicID="smi:nakamura81/event/06000">
      <type>meteorite</type>
      <description>
        <text>meteoroid</text>
      </description>
      <comment id="smi:nakamura81/event/comment/06000">
        <text>C DIST</text>
      </comment>
      <pick publicID="smi:nakamura81/pick/S16/06000">
        <time>
          <value>1973-02-24T06:22:00.000000Z</value>
          <uncertainty>60.0</uncertainty>
        </time>
        <waveformID networkCode="XA" stationCode="S16" locationCode="" channelCode=""></waveformID>
        <phaseHint>P</phaseHint>
      </pick>
      <amplitude publicID="smi:nakamura81/amplitude/S16/06000">
        <genericAmplitude>
          <value>3.0</value>
        </genericAmplitude>
        <type>A</type>
        <unit>other</unit>
        <pickID>smi:nakamura81/pick/S16/06000</pickID>
      </amplitude>
      <ns0:moon_event_type>meteoroid</ns0:moon_event_type>
    </event>
    <event publicID="smi:nakamura81/event/06033">
      <type>meteorite</type>
      <description>
        <text>meteoroid</text>
      </description>
      <comment id="smi:nakamura81/event/comment/06033">
        <text>C</text>
      </comment>
      <pick publicID="smi:nakamura81/pick/S16/06033">
        <time>
          <value>1973-03-07T08:54:00.000000Z</value>
          <uncertainty>60.0</uncertainty>
        </time>
        <waveformID networkCode="XA" stationCode="S16" locationCode="" channelCode=""></waveformID>
        <phaseHint>P</phaseHint>
      </pick>
      <amplitude publicID="smi:nakamura81/amplitude/S16/06033">
        <genericAmplitude>
          <value>9.0</value>
        </genericAmplitude>
        <type>A</type>
        <unit>other</unit>
        <pickID>smi:nakamura81/pick/S16/06033</pickID>
      </amplitude>
      <ns0:moon_event_type>meteoroid</ns0:moon_event_type>
    </event>
