<?xml version='1.0' encoding='utf-8'?>
<q:quakeml xmlns="http://quakeml.org/xmlns/bed/1.2" xmlns:q="http://quakeml.org/xmlns/quakeml/1.2" xmlns:ns0="http://some-page.de/xmlns/0.1">
  <eventParameters publicID="smi:local/acb3f553-7276-4b1c-9f45-e933255e3cfe">
    <event publicID="smi:nakamura81/event/05648">
      <type>meteorite</type>
      <description>
        <text>meteoroid</text>
      </description>
      <pick publicID="smi:nakamura81/pick/S12/05648">
        <time>
          <value>1973-01-03T23:48:00.000000Z</value>
          <uncertainty>60.0</uncertainty>
        </time>
        <waveformID networkCode="XA" stationCode="S12" locationCode="" channelCode=""></waveformID>
        <phaseHint>P</phaseHint>
      </pick>
      <amplitude publicID="smi:nakamura81/amplitude/S12/05648">
        <genericAmplitude>
          <value>0.5</value>
        </genericAmplitude>
        <type>A</type>
        <unit>other</unit>
        <pickID>smi:nakamura81/pick/S12/05648</pickID>
      </amplitude>
      <ns0:moon_event_type>meteoroid</ns0:moon_event_type>
    </event>
    <event publicID="smi:nakamura81/event/05679">
      <type>meteorite</type>
      <description>
        <text>meteoroid</text>
      </description>
      <pick publicID="smi:nakamura81/pick/S12/05679">
        <time>
          <value>1973-01-07T02:02:00.000000Z</value>
          <uncertainty>60.0</uncertainty>
        </time>
        <waveformID networkCode="XA" stationCode="S12" locationCode="" channelCode=""></waveformID>
        <phaseHint>P</phaseHint>
      </pick>
      <amplitude publicID="smi:nakamura81/amplitude/S12/05679">
        <genericAmplitude>
          <value>1.0</value>
        </genericAmplitude>
        <type>A</type>
        <unit>other</unit>
        <pickID>smi:nakamura81/pick/S12/05679</pickID>
      </amplitude>
      <ns0:moon_event_type>meteoroid</ns0:moon_event_type>
    </event>
    <event publicID="smi:nakamura81/event/05756">
      <type>meteorite</type>
      <description>
        <text>meteoroid</text>
      </description>
      <comment id="smi:nakamura81/event/comment/05756">
        <text>C 14SP=14</text>
      </comment>
      <pick publicID="smi:nakamura81/pick/S12/05756">
        <time>
          <value>1973-01-18T23:01:00.000000Z</value>
          <uncertainty>60.0</uncertainty>
        </time>
        <waveformID networkCode="XA" stationCode="S12" locationCode="" channelCode=""></waveformID>
        <phaseHint>P</phaseHint>
      </pick>
      <amplitude publicID="smi:nakamura81/amplitude/S12/05756">
        <genericAmplitude>
          <value>3.1</value>
        </genericAmplitude>
        <type>A</type>
        <unit>other</unit>
        <pickID>smi:nakamura81/pick/S12/05756</pickID>
      </amplitude>
      <ns0:moon_event_type>meteoroid</ns0:moon_event_type>
    </event>
    <event publicID="smi:nakamura81/event/05757">
      <type>meteorite</type>
      <description>
        <text>meteoroid</text>
      </description>
      <pick publicID="smi:nakamura81/pick/S12/05757">
        <time>
          <value>1973-01-18T23:59:00.000000Z</value>
          <uncertainty>60.0</uncertainty>
        </time>
        <waveformID networkCode="XA" stationCode="S12" locationCode="" channelCode=""></waveformID>
        <phaseHint>P</phaseHint>
      </pick>
      <amplitude publicID="smi:nakamura81/amplitude/S12/05757">
        <genericAmplitude>
          <value>2.1</value>
        </genericAmplitude>
        <type>A</type>
        <unit>other</unit>
        <pickID>smi:nakamura81/pick/S12/05757</pickID>
      </amplitude>
      <ns0:moon_event_type>meteoroid</ns0:moon_event_type>
    </event>
    <event publicID="smi:nakamura81/event/05788">
      <type>meteorite</type>
      <description>
        <text>meteoroid</text>
      </description>
      <comment id="smi:nakamura81/event/comment/05788">
        <text>C</text>
      </comment>
      <pick publicID="smi:nakamura81/pick/S12/05788">
        <time>
          <value>1973-01-24T23:43:00.000000Z</value>
          <uncertainty>60.0</uncertainty>
        </time>
        <waveformID networkCode="XA" stationCode="S12" locationCode="" channelCode=""></waveformID>
        <phaseHint>P</phaseHint>
      </pick>
      <amplitude publicID="smi:nakamura81/amplitude/S12/05788">
        <genericAmplitude>
          <value>1.2</value>
        </genericAmplitude>
        <type>A</type>
        <unit>other</unit>
        <pickID>smi:nakamura81/pick/S12/05788</pickID>
      </amplitude>
      <ns0:moon_event_type>meteoroid</ns0:moon_event_type>
    </event>
    <event publicID="smi:nakamura81/event/05790">
      <type>meteorite</type>
      <description>
        <text>meteoroid</text>
      </description>
      <comment id="smi:nakamura81/event/comment/05790">
        <text>C</text>
      </comment>
      <pick publicID="smi:nakamura81/pick/S12/05790">
        <time>
          <value>1973-01-25T23:50:00.000000Z</value>
          <uncertainty>60.0</uncertainty>
        </time>
        <waveformID networkCode="XA" stationCode="S12" locationCode="" channelCode=""></waveformID>
        <phaseHint>P</phaseHint>
      </pick>
      <amplitude publicID="smi:nakamura81/amplitude/S12/05790">
        <genericAmplitude>
          <value>1.0</value>
        </genericAmplitude>
        <type>A</type>
        <unit>other</unit>
        <pickID>smi:nakamura81/pick/S12/05790</pickID>
      </amplitude>
      <ns0:moon_event_type>meteoroid</ns0:moon_event_type>
    </event>
    <event publicID="smi:nakamura81/event/05809">
      <type>meteorite</type>
      <description>
        <text>meteoroid</text>
      </description>
      <comment id="smi:nakamura81/event/comment/05809">
        <text>DIST NO SP</text>
      </comment>
      <pick publicID="smi:nakamura81/pick/S12/05809">
        <time>
          <value>1973-01-29T11:27:00.000000Z</value>
          <uncertainty>60.0</uncertainty>
        </time>
        <waveformID networkCode="XA" stationCode="S12" locationCode="" channelCode=""></waveformID>
        <phaseHint>P</phaseHint>
      </pick>
      <amplitude publicID="smi:nakamura81/amplitude/S12/05809">
        <genericAmplitude>
          <value>1.2</value>
        </genericAmplitude>
        <type>A</type>
        <unit>other</unit>
        <pickID>smi:nakamura81/pick/S12/05809</pickID>
      </amplitude>
      <ns0:moon_event_type>meteoroid</ns0:moon_event_type>
    </event>
    <event publicID="smi:nakamura81/event/05818">
      <type>meteorite</type>
      <description>
        <text>meteoroid</text>
      </description>
      <pick publicID="smi:nakamura81/pick/S12/05818">
        <time>
          <value>1973-01-31T00:44:00.000000Z</value>
          <uncertainty>60.0</uncertainty>
        </time>
        <waveformID networkCode="XA" stationCode="S12" locationCode="" channelCode=""></waveformID>
        <phaseHint>P</phaseHint>
      </pick>
      <amplitude publicID="smi:nakamura81/amplitude/S12/05818">
        <genericAmplitude>
          <value>3.0</value>
        </genericAmplitude>
        <type>A</type>
        <unit>other</unit>
        <pickID>smi:nakamura81/pick/S12/05818</pickID>
      </amplitude>
      <ns0:moon_event_type>meteoroid</ns0:moon_event_type>
    </event>
    <event publicID="smi:nakamura81/event/05827">
      <type>meteorite</type>
      <description>
        <text>meteoroid</text>
      </description>
      <comment id="smi:nakamura81/event/comment/05827">
        <text>C</text>
      </comment>
      <pick publicID="smi:nakamura81/pick/S12/05827">
        <time>
          <value>1973-02-01T03:43:00.000000Z</value>
          <uncertainty>60.0</uncertainty>
        </time>
        <waveformID networkCode="XA" stationCode="S12" locationCode="" channelCode=""></waveformID>
        <phaseHint>P</phaseHint>
      </pick>
      <amplitude publicID="smi:nakamura81/amplitude/S12/05827">
        <genericAmplitude>
          <value>0.8</value>
        </genericAmplitude>
        <type>A</type>
        <unit>other</unit>
        <pickID>smi:nakamura81/pick/S12/05827</pickID>
      </amplitude>
      <ns0:moon_event_type>meteoroid</ns0:moon_event_type>
    </event>
    <event publicID="smi:nakamura81/event/05833">
      <type>meteorite</type>
      <description>
        <text>meteoroid</text>
      </description>
      <comment id="smi:nakamura81/event/comment/05833">
        <text>C</text>
      </comment>
      <pick publicID="smi:nakamura81/pick/S12/05833">
        <time>
          <value>1973-02-02T10:44:00.000000Z</value>
          <uncertainty>60.0</uncertainty>
        </time>
        <waveformID networkCode="XA" stationCode="S12" locationCode="" channelCode=""></waveformID>
        <phaseHint>P</phaseHint>
      </pick>
      <amplitude publicID="smi:nakamura81/amplitude/S12/05833">
        <genericAmplitude>
          <value>1.1</value>
        </genericAmplitude>
        <type>A</type>
        <unit>other</unit>
        <pickID>smi:nakamura81/pick/S12/05833</pickID>
      </amplitude>
      <ns0:moon_event_type>meteoroid</ns0:moon_event_type>
    </event>
    <event publicID="smi:nakamura81/event/05851">
      <type>meteorite</type>
      <description>
        <text>meteoroid</text>
      </description>
      <comment id="smi:nakamura81/event/comment/05851">
        <text>C</text>
      </comment>
      <pick publicID="smi:nakamura81/pick/S12/05851">
        <time>
          <value>1973-02-05T15:27:00.000000Z</value>
          <uncertainty>60.0</uncertainty>
        </time>
        <waveformID networkCode="XA" stationCode="S12" locationCode="" channelCode=""></waveformID>
        <phaseHint>P</phaseHint>
      </pick>
      <amplitude publicID="smi:nakamura81/amplitude/S12/05851">
        <genericAmplitude>
          <value>0.9</value>
        </genericAmplitude>
        <type>A</type>
        <unit>other</unit>
        <pickID>smi:nakamura81/pick/S12/05851</pickID>
      </amplitude>
      <ns0:moon_event_type>meteoroid</ns0:moon_event_type>
    </event>
    <event publicID="smi:nakamura81/event/05853">
      <type>meteorite</type>
      <description>
        <text>meteoroid</text>
      </description>
      <comment id="smi:nakamura81/event/comment/05853">
        <text>C</text>
      </comment>
      <pick publicID="smi:nakamura81/pick/S12/05853">
        <time>
          <value>1973-02-05T20:59:00.000000Z</value>
          <uncertainty>60.0</uncertainty>
        </time>
        <waveformID networkCode="XA" stationCode="S12" locationCode="" channelCode=""></waveformID>
        <phaseHint>P</phaseHint>
      </pick>
      <amplitude publicID="smi:nakamura81/amplitude/S12/05853">
        <genericAmplitude>
          <value>2.1</value>
        </genericAmplitude>
        <type>A</type>
        <unit>other</unit>
        <pickID>smi:nakamura81/pick/S12/05853</pickID>
      </amplitude>
      <ns0:moon_event_type>meteoroid</ns0:moon_event_type>
    </event>
    <event publicID="smi:nakamura81/event/05863">
      <type>meteorite</type>
      <description>
        <text>meteoroid</text>
      </description>
      <comment id="smi:nakamura81/event/comment/05863">
        <text>SP=2</text>
      </comment>
      <pick publicID="smi:nakamura81/pick/S12/05863">
        <time>
          <value>1973-02-09T12:28:00.000000Z</value>
          <uncertainty>60.0</uncertainty>
        </time>
        <waveformID networkCode="XA" stationCode="S12" locationCode="" channelCode=""></waveformID>
        <phaseHint>P</phaseHint>
      </pick>
      <amplitude publicID="smi:nakamura81/amplitude/S12/05863">
        <genericAmplitude>
          <value>1.5</value>
        </genericAmplitude>
        <type>A</type>
        <unit>other</unit>
        <pickID>smi:nakamura81/pick/S12/05863</pickID>
      </amplitude>
      <ns0:moon_event_type>meteoroid</ns0:moon_event_type>
    </event>
    <event publicID="smi:nakamura81/event/05889">
      <type>meteorite</type>
      <description>
        <text>meteoroid</text>
      </description>
      <comment id="smi:nakamura81/event/comment/05889">
        <text>DIST</text>
      </comment>
      <pick publicID="smi:nakamura81/pick/S12/05889">
        <time>
          <value>1973-02-11T18:42:00.000000Z</value>
          <uncertainty>60.0</uncertainty>
        </time>
        <waveformID networkCode="XA" stationCode="S12" locationCode="" channelCode=""></waveformID>
        <phaseHint>P</phaseHint>
      </pick>
      <amplitude publicID="smi:nakamura81/amplitude/S12/05889">
        <genericAmplitude>
          <value>1.0</value>
        </genericAmplitude>
        <type>A</type>
        <unit>other</unit>
        <pickID>smi:nakamura81/pick/S12/05889</pickID>
      </amplitude>
      <ns0:moon_event_type>meteoroid</ns0:moon_event_type>
    </event>
    <event publicID="smi:nakamura81/event/05894">
      <type>meteorite</type>
      <description>
        <text>meteoroid</text>
      </description>
      <comment id="smi:nakamura81/event/comment/05894">
        <text>DIST</text>
      </comment>
      <pick publicID="smi:nakamura81/pick/S12/05894">
        <time>
          <value>1973-02-12T10:56:00.000000Z</value>
          <uncertainty>60.0</uncertainty>
        </time>
        <waveformID networkCode="XA" stationCode="S12" locationCode="" channelCode=""></waveformID>
        <phaseHint>P</phaseHint>
      </pick>
      <amplitude publicID="smi:nakamura81/amplitude/S12/05894">
        <genericAmplitude>
          <value>2.0</value>
        </genericAmplitude>
        <type>A</type>
        <unit>other</unit>
        <pickID>smi:nakamura81/pick/S12/05894</pickID>
      </amplitude>
      <ns0:moon_event_type>meteoroid</ns0:moon_event_type>
    </event>
    <event publicID="smi:nakamura81/event/05949">
      <type>meteorite</type>
      <description>
        <text>meteoroid</text>
      </description>
      <comment id="smi:nakamura81/event/comment/05949">
        <text>DIST  14 LOOKS STRANGE</text>
      </comment>
      <pick publicID="smi:nakamura81/pick/S12/05949">
        <time>
          <value>1973-02-15T23:35:00.000000Z</value>
          <uncertainty>60.0</uncertainty>
        </time>
        <waveformID networkCode="XA" stationCode="S12" locationCode="" channelCode=""></waveformID>
        <phaseHint>P</phaseHint>
        <comment id="smi:nakamura81/pick/comment/S12/05949">
          <text>the time recorded with the data is computer-generated, and thus is not exact</text>
        </comment>
      </pick>
      <amplitude publicID="smi:nakamura81/amplitude/S12/05949">
        <genericAmplitude>
          <value>2.0</value>
        </genericAmplitude>
        <type>A</type>
        <unit>other</unit>
        <pickID>smi:nakamura81/pick/S12/05949</pickID>
      </amplitude>
      <ns0:moon_event_type>meteoroid</ns0:moon_event_type>
    </event>
    <event publicID="smi:nakamura81/event/05953">
      <type>meteorite</type>
      <description>
        <text>meteoroid</text>
      </description>
      <comment id="smi:nakamura81/event/comment/05953">
        <text>NEAR 14,LP&gt;SP</text>
      </comment>
      <pick publicID="smi:nakamura81/pick/S12/05953">
        <time>
          <value>1973-02-16T06:31:00.000000Z</value>
          <uncertainty>60.0</uncertainty>
        </time>
        <waveformID networkCode="XA" stationCode="S12" locationCode="" channelCode=""></waveformID>
        <phaseHint>P</phaseHint>
      </pick>
      <amplitude publicID="smi:nakamura81/amplitude/S12/05953">
        <genericAmplitude>
          <value>3.0</value>
        </genericAmplitude>
        <type>A</type>
        <unit>other</unit>
        <pickID>smi:nakamura81/pick/S12/05953</pickID>
      </amplitude>
      <ns0:moon_event_type>meteoroid</ns0:moon_event_type>
    </event>
    <event publicID="smi:nakamura81/event/05991">
      <type>meteorite</type>
      <description>
        <text>meteoroid</text>
      </description>
      <comment id="smi:nakamura81/event/comment/05991">
        <text>DIST NO SP</text>
      </comment>
      <pick publicID="smi:nakamura81/pick/S12/05991">
        <time>
          <value>1973-02-21T09:23:00.000000Z</value>
          <uncertainty>60.0</uncertainty>
        </time>
        <waveformID networkCode="XA" stationCode="S12" locationCode="" channelCode=""></waveformID>
        <phaseHint>P</phaseHint>
      </pick>
      <amplitude publicID="smi:nakamura81/amplitude/S12/05991">
        <genericAmplitude>
          <value>2.0</value>
        </genericAmplitude>
        <type>A</type>
        <unit>other</unit>
        <pickID>smi:nakamura81/pick/S12/05991</pickID>
      </amplitude>
      <ns0:moon_event_type>meteoroid</ns0:moon_event_type>
    </event>
    <event publicID="smi:nakamura81/event/06000">
      <type>meteorite</type>
      <description>
        <text>meteoroid</text>
      </description>
      <comment id="smi:nakamura81/event/comment/06000">
        <text>C DIST</text>
      </comment>
      <pick publicID="smi:nakamura81/pick/S12/06000">
        <time>
          <value>1973-02-24T06:22:00.000000Z</value>
          <uncertainty>60.0</uncertainty>
        </time>
        <waveformID networkCode="XA" stationCode="S12" locationCode="" channelCode=""></waveformID>
        <phaseHint>P</phaseHint>
      </pick>
      <amplitude publicID="smi:nakamura81/amplitude/S12/06000">
        <genericAmplitude>
          <value>1.5</value>
        </genericAmplitude>
        <type>A</type>
        <unit>other</unit>
        <pickID>smi:nakamura81/pick/S12/06000</pickID>
      </amplitude>
      <ns0:moon_event_type>meteoroid</ns0:moon_event_type>
    </event>
    <event publicID="smi:nakamura81/event/06033">
      <type>meteorite</type>
      <description>
        <text>meteoroid</text>
      </description>
      <comment id="smi:nakamura81/event/comment/06033">
        <text>C</text>
      </comment>
      <pick publicID="smi:nakamura81/pick/S12/06033">
        <time>
          <value>1973-03-07T08:54:00.000000Z</value>
          <uncertainty>60.0</uncertainty>
        </time>
        <waveformID networkCode="XA" stationCode="S12" locationCode="" channelCode=""></waveformID>
        <phaseHint>P</phaseHint>
      </pick>
      <amplitude publicID="smi:nakamura81/amplitude/S12/06033">
        <genericAmplitude>
          <value>1.2</value>
        </genericAmplitude>
        <type>A</type>
        <unit>other</unit>
        <pickID>smi:nakamura81/pick/S12/06033</pickID>
      </amplitude>
      <ns0:moon_event_type>meteoroid</ns0:moon_event_type>
    </event>
    <event publicID="smi:nakamura81/event/06042">
      <type>meteorite</type>
      <description>
        <text>meteoroid</text>
      </description>
      <pick publicID="smi:nakamura81/pick/S12/06042">
        <time>
          <value>1973-03-11T21:11:00.000000Z</value>
          <uncertainty>60.0</uncertainty>
        </time>
        <waveformID networkCode="XA" stationCode="S12" locationCode="" channelCode=""></waveformID>
        <phaseHint>P</phaseHint>
      </pick>
      <amplitude publicID="smi:nakamura81/amplitude/S12/06042">
        <genericAmplitude>
          <value>0.6</value>
        </genericAmplitude>
        <type>A</type>
        <unit>other</unit>
        <pickID>smi:nakamura81/pick/S12/06042</pickID>
      </amplitude>
      <ns0:moon_event_type>meteoroid</ns0:moon_event_type>
    </event>
    <event publicID="smi:nakamura81/event/06048">
      <type>meteorite</type>
      <description>
        <text>meteoroid</text>
      </description>
      <pick publicID="smi:nakamura81/pick/S12/06048">
        <time>
          <value>1973-03-12T20:40:00.000000Z</value>
          <uncertainty>60.0</uncertainty>
        </time>
        <waveformID networkCode="XA" stationCode="S12" locationCode="" channelCode=""></waveformID>
        <phaseHint>P</phaseHint>
      </pick>
      <amplitude publicID="smi:nakamura81/amplitude/S12/06048">
        <genericAmplitude>
          <value>5.0</value>
        </genericAmplitude>
        <type>A</type>
        <unit>other</unit>
