<?xml version='1.0' encoding='utf-8'?>
<q:quakeml xmlns="http://quakeml.org/xmlns/bed/1.2" xmlns:q="http://quakeml.org/xmlns/quakeml/1.2" xmlns:ns0="http://some-page.de/xmlns/0.1" xmlns:ns1="http://some-page.de/xmlns/1.0">
  <eventParameters publicID="smi:local/60b4e960-c87c-4ddc-95fb-e8a966a39d67">
    <event publicID="smi:nakamura81/event/05616">
      <type>earthquake</type>
      <description>
        <text>deep moonquake</text>
      </description>
      <comment id="smi:nakamura81/event/comment/bulow07/05616">
        <text>bulow_moonquake: A17</text>
      </comment>
      <pick publicID="smi:nakamura81/pick/S14/05616">
        <time>
          <value>1973-01-01T05:15:00.000000Z</value>
          <uncertainty>60.0</uncertainty>
        </time>
        <waveformID networkCode="XA" stationCode="S14" locationCode="" channelCode=""></waveformID>
        <phaseHint>P</phaseHint>
        <ns1:bulow_moonquake>A17</ns1:bulow_moonquake>
      </pick>
      <amplitude publicID="smi:nakamura81/amplitude/S14/05616">
        <genericAmplitude>
          <value>3.0</value>
        </genericAmplitude>
        <type>A</type>
        <unit>other</unit>
        <pickID>smi:nakamura81/pick/S14/05616</pickID>
      </amplitude>
      <ns0:moon_event_type>deep moonquake</ns0:moon_event_type>
    </event>
    <event publicID="smi:nakamura81/event/05617">
      <type>earthquake</type>
      <description>
        <text>deep moonquake</text>
      </description>
      <comment id="smi:nakamura81/event/comment/bulow07/05617">
        <text>bulow_moonquake: A57</text>
      </comment>
      <pick publicID="smi:nakamura81/pick/S14/05617">
        <time>
          <value>1973-01-01T06:35:00.000000Z</value>
          <uncertainty>60.0</uncertainty>
        </time>
        <waveformID networkCode="XA" stationCode="S14" locationCode="" channelCode=""></waveformID>
        <phaseHint>P</phaseHint>
        <ns1:bulow_moonquake>A57</ns1:bulow_moonquake>
      </pick>
      <amplitude publicID="smi:nakamura81/amplitude/S14/05617">
        <genericAmplitude>
          <value>3.0</value>
        </genericAmplitude>
        <type>A</type>
        <unit>other</unit>
        <pickID>smi:nakamura81/pick/S14/05617</pickID>
      </amplitude>
      <ns0:moon_event_type>deep moonquake</ns0:moon_event_type>
    </event>
    <event publicID="smi:nakamura81/event/05619">
      <type>earthquake</type>
      <description>
        <text>deep moonquake</text>
      </description>
      <comment id="smi:nakamura81/event/comment/05619">
        <text>15A ESTIMATED</text>
      </comment>
      <comment id="smi:nakamura81/event/comment/nakamura81/05619">
        <text/>
      </comment>
      <comment id="smi:nakamura81/event/comment/bulow07/05619">
        <text>bulow_moonquake: A17</text>
      </comment>
      <pick publicID="smi:nakamura81/pick/S14/05619">
        <time>
          <value>1973-01-01T11:32:00.000000Z</value>
          <uncertainty>60.0</uncertainty>
        </time>
        <waveformID networkCode="XA" stationCode="S14" locationCode="" channelCode=""></waveformID>
        <phaseHint>P</phaseHint>
        <ns1:bulow_moonquake>A17</ns1:bulow_moonquake>
        <ns1:nakamura_moonquake>A17</ns1:nakamura_moonquake>
      </pick>
      <amplitude publicID="smi:nakamura81/amplitude/S14/05619">
        <genericAmplitude>
          <value>5.5</value>
        </genericAmplitude>
        <type>A</type>
        <unit>other</unit>
        <pickID>smi:nakamura81/pick/S14/05619</pickID>
      </amplitude>
      <ns0:moon_event_type>deep moonquake</ns0:moon_event_type>
    </event>
    <event publicID="smi:nakamura81/event/05623">
      <type>earthquake</type>
      <description>
        <text>deep moonquake</text>
      </description>
      <comment id="smi:nakamura81/event/comment/bulow07/05623">
        <text>bulow_moonquake: A53</text>
      </comment>
      <pick publicID="smi:nakamura81/pick/S14/05623">
        <time>
          <value>1973-01-01T20:22:00.000000Z</value>
          <uncertainty>60.0</uncertainty>
        </time>
        <waveformID networkCode="XA" stationCode="S14" locationCode="" channelCode=""></waveformID>
        <phaseHint>P</phaseHint>
        <ns1:bulow_moonquake>A53</ns1:bulow_moonquake>
      </pick>
      <amplitude publicID="smi:nakamura81/amplitude/S14/05623">
        <genericAmplitude>
          <value>3.0</value>
        </genericAmplitude>
        <type>A</type>
        <unit>other</unit>
        <pickID>smi:nakamura81/pick/S14/05623</pickID>
      </amplitude>
      <ns0:moon_event_type>deep moonquake</ns0:moon_event_type>
    </event>
    <event publicID="smi:nakamura81/event/05624">
      <type>earthquake</type>
      <description>
        <text>deep moonquake</text>
      </description>
      <comment id="smi:nakamura81/event/comment/bulow07/05624">
        <text>bulow_moonquake: A3</text>
      </comment>
      <pick publicID="smi:nakamura81/pick/S14/05624">
        <time>
          <value>1973-01-01T22:42:00.000000Z</value>
          <uncertainty>60.0</uncertainty>
        </time>
        <waveformID networkCode="XA" stationCode="S14" locationCode="" channelCode=""></waveformID>
        <phaseHint>P</phaseHint>
        <ns1:bulow_moonquake>A3</ns1:bulow_moonquake>
      </pick>
      <amplitude publicID="smi:nakamura81/amplitude/S14/05624">
        <genericAmplitude>
          <value>2.8</value>
        </genericAmplitude>
        <type>A</type>
        <unit>other</unit>
        <pickID>smi:nakamura81/pick/S14/05624</pickID>
      </amplitude>
      <ns0:moon_event_type>deep moonquake</ns0:moon_event_type>
    </event>
    <event publicID="smi:nakamura81/event/05625">
      <type>earthquake</type>
      <description>
        <text>deep moonquake</text>
      </description>
      <comment id="smi:nakamura81/event/comment/bulow07/05625">
        <text>bulow_moonquake: A386</text>
      </comment>
      <pick publicID="smi:nakamura81/pick/S14/05625">
        <time>
          <value>1973-01-02T03:51:00.000000Z</value>
          <uncertainty>60.0</uncertainty>
        </time>
        <waveformID networkCode="XA" stationCode="S14" locationCode="" channelCode=""></waveformID>
        <phaseHint>P</phaseHint>
        <ns1:bulow_moonquake>A386</ns1:bulow_moonquake>
      </pick>
      <amplitude publicID="smi:nakamura81/amplitude/S14/05625">
        <genericAmplitude>
          <value>2.8</value>
        </genericAmplitude>
        <type>A</type>
        <unit>other</unit>
        <pickID>smi:nakamura81/pick/S14/05625</pickID>
      </amplitude>
      <ns0:moon_event_type>deep moonquake</ns0:moon_event_type>
    </event>
    <event publicID="smi:nakamura81/event/05633">
      <type>earthquake</type>
      <description>
        <text>deep moonquake</text>
      </description>
      <comment id="smi:nakamura81/event/comment/bulow07/05633">
        <text>bulow_moonquake: A49</text>
      </comment>
      <pick publicID="smi:nakamura81/pick/S14/05633">
        <time>
          <value>1973-01-02T16:32:00.000000Z</value>
          <uncertainty>60.0</uncertainty>
        </time>
        <waveformID networkCode="XA" stationCode="S14" locationCode="" channelCode=""></waveformID>
        <phaseHint>P</phaseHint>
        <ns1:bulow_moonquake>A49</ns1:bulow_moonquake>
      </pick>
      <amplitude publicID="smi:nakamura81/amplitude/S14/05633">
        <genericAmplitude>
          <value>3.5</value>
        </genericAmplitude>
        <type>A</type>
        <unit>other</unit>
        <pickID>smi:nakamura81/pick/S14/05633</pickID>
      </amplitude>
      <ns0:moon_event_type>deep moonquake</ns0:moon_event_type>
    </event>
    <event publicID="smi:nakamura81/event/05634">
      <type>earthquake</type>
      <description>
        <text>deep moonquake</text>
      </description>
      <comment id="smi:nakamura81/event/comment/bulow07/05634">
        <text>bulow_moonquake: A43</text>
      </comment>
      <pick publicID="smi:nakamura81/pick/S14/05634">
        <time>
          <value>1973-01-02T17:48:00.000000Z</value>
          <uncertainty>60.0</uncertainty>
        </time>
        <waveformID networkCode="XA" stationCode="S14" locationCode="" channelCode=""></waveformID>
        <phaseHint>P</phaseHint>
        <ns1:bulow_moonquake>A43</ns1:bulow_moonquake>
      </pick>
      <amplitude publicID="smi:nakamura81/amplitude/S14/05634">
        <genericAmplitude>
          <value>3.0</value>
        </genericAmplitude>
        <type>A</type>
        <unit>other</unit>
        <pickID>smi:nakamura81/pick/S14/05634</pickID>
      </amplitude>
      <ns0:moon_event_type>deep moonquake</ns0:moon_event_type>
    </event>
    <event publicID="smi:nakamura81/event/05638">
      <type>earthquake</type>
      <description>
        <text>deep moonquake</text>
      </description>
      <comment id="smi:nakamura81/event/comment/bulow07/05638">
        <text>bulow_moonquake: A20</text>
      </comment>
      <pick publicID="smi:nakamura81/pick/S14/05638">
        <time>
          <value>1973-01-03T01:00:00.000000Z</value>
          <uncertainty>60.0</uncertainty>
        </time>
        <waveformID networkCode="XA" stationCode="S14" locationCode="" channelCode=""></waveformID>
        <phaseHint>P</phaseHint>
        <ns1:bulow_moonquake>A20</ns1:bulow_moonquake>
      </pick>
      <amplitude publicID="smi:nakamura81/amplitude/S14/05638">
        <genericAmplitude>
          <value>-1.0</value>
        </genericAmplitude>
        <type>A</type>
        <unit>other</unit>
        <pickID>smi:nakamura81/pick/S14/05638</pickID>
      </amplitude>
      <ns0:moon_event_type>deep moonquake</ns0:moon_event_type>
    </event>
    <event publicID="smi:nakamura81/event/05639">
      <type>earthquake</type>
      <description>
        <text>deep moonquake</text>
      </description>
      <comment id="smi:nakamura81/event/comment/nakamura81/05639">
        <text/>
      </comment>
      <comment id="smi:nakamura81/event/comment/bulow07/05639">
        <text>bulow_moonquake: A33</text>
      </comment>
      <pick publicID="smi:nakamura81/pick/S14/05639">
        <time>
          <value>1973-01-03T02:44:00.000000Z</value>
          <uncertainty>60.0</uncertainty>
        </time>
        <waveformID networkCode="XA" stationCode="S14" locationCode="" channelCode=""></waveformID>
        <phaseHint>P</phaseHint>
        <ns1:bulow_moonquake>A33</ns1:bulow_moonquake>
        <ns1:nakamura_moonquake>A33</ns1:nakamura_moonquake>
      </pick>
      <amplitude publicID="smi:nakamura81/amplitude/S14/05639">
        <genericAmplitude>
          <value>2.6</value>
        </genericAmplitude>
        <type>A</type>
        <unit>other</unit>
        <pickID>smi:nakamura81/pick/S14/05639</pickID>
      </amplitude>
      <ns0:moon_event_type>deep moonquake</ns0:moon_event_type>
    </event>
    <event publicID="smi:nakamura81/event/05640">
      <type>earthquake</type>
      <description>
        <text>deep moonquake</text>
      </description>
      <comment id="smi:nakamura81/event/comment/bulow07/05640">
        <text>bulow_moonquake: A18</text>
      </comment>
      <pick publicID="smi:nakamura81/pick/S14/05640">
        <time>
          <value>1973-01-03T07:07:00.000000Z</value>
          <uncertainty>60.0</uncertainty>
        </time>
        <waveformID networkCode="XA" stationCode="S14" locationCode="" channelCode=""></waveformID>
        <phaseHint>P</phaseHint>
        <ns1:bulow_moonquake>A18</ns1:bulow_moonquake>
      </pick>
      <amplitude publicID="smi:nakamura81/amplitude/S14/05640">
        <genericAmplitude>
          <value>2.0</value>
        </genericAmplitude>
        <type>A</type>
        <unit>other</unit>
        <pickID>smi:nakamura81/pick/S14/05640</pickID>
      </amplitude>
      <ns0:moon_event_type>deep moonquake</ns0:moon_event_type>
    </event>
    <event publicID="smi:nakamura81/event/05641">
      <type>earthquake</type>
      <description>
        <text>deep moonquake</text>
      </description>
      <comment id="smi:nakamura81/event/comment/bulow07/05641">
        <text>bulow_moonquake: A8</text>
      </comment>
      <pick publicID="smi:nakamura81/pick/S14/05641">
        <time>
          <value>1973-01-03T10:38:00.000000Z</value>
          <uncertainty>60.0</uncertainty>
        </time>
        <waveformID networkCode="XA" stationCode="S14" locationCode="" channelCode=""></waveformID>
        <phaseHint>P</phaseHint>
        <ns1:bulow_moonquake>A8</ns1:bulow_moonquake>
      </pick>
      <amplitude publicID="smi:nakamura81/amplitude/S14/05641">
        <genericAmplitude>
          <value>2.0</value>
        </genericAmplitude>
        <type>A</type>
        <unit>other</unit>
        <pickID>smi:nakamura81/pick/S14/05641</pickID>
      </amplitude>
      <ns0:moon_event_type>deep moonquake</ns0:moon_event_type>
    </event>
    <event publicID="smi:nakamura81/event/05643">
      <type>earthquake</type>
      <description>
        <text>deep moonquake</text>
      </description>
      <comment id="smi:nakamura81/event/comment/bulow07/05643">
        <text>bulow_moonquake: A104</text>
      </comment>
      <pick publicID="smi:nakamura81/pick/S14/05643">
        <time>
          <value>1973-01-03T15:48:00.000000Z</value>
          <uncertainty>60.0</uncertainty>
        </time>
        <waveformID networkCode="XA" stationCode="S14" locationCode="" channelCode=""></waveformID>
        <phaseHint>P</phaseHint>
        <ns1:bulow_moonquake>A104</ns1:bulow_moonquake>
      </pick>
      <amplitude publicID="smi:nakamura81/amplitude/S14/05643">
        <genericAmplitude>
          <value>1.6</value>
        </genericAmplitude>
        <type>A</type>
        <unit>other</unit>
        <pickID>smi:nakamura81/pick/S14/05643</pickID>
      </amplitude>
      <ns0:moon_event_type>deep moonquake</ns0:moon_event_type>
    </event>
    <event publicID="smi:nakamura81/event/05652">
      <type>earthquake</type>
      <description>
        <text>deep moonquake</text>
      </description>
      <comment id="smi:nakamura81/event/comment/bulow07/05652">
        <text>bulow_moonquake: A425</text>
      </comment>
      <pick publicID="smi:nakamura81/pick/S14/05652">
        <time>
          <value>1973-01-04T04:53:00.000000Z</value>
          <uncertainty>60.0</uncertainty>
        </time>
        <waveformID networkCode="XA" stationCode="S14" locationCode="" channelCode=""></waveformID>
        <phaseHint>P</phaseHint>
        <ns1:bulow_moonquake>A425</ns1:bulow_moonquake>
      </pick>
      <amplitude publicID="smi:nakamura81/amplitude/S14/05652">
        <genericAmplitude>
          <value>2.0</value>
        </genericAmplitude>
        <type>A</type>
        <unit>other</unit>
        <pickID>smi:nakamura81/pick/S14/05652</pickID>
      </amplitude>
      <ns0:moon_event_type>deep moonquake</ns0:moon_event_type>
    </event>
    <event publicID="smi:nakamura81/event/05653">
      <type>earthquake</type>
      <description>
        <text>deep moonquake</text>
      </description>
      <comment id="smi:nakamura81/event/comment/bulow07/05653">
        <text>bulow_moonquake: A445</text>
      </comment>
      <pick publicID="smi:nakamura81/pick/S14/05653">
        <time>
          <value>1973-01-04T06:32:00.000000Z</value>
          <uncertainty>60.0</uncertainty>
        </time>
        <waveformID networkCode="XA" stationCode="S14" locationCode="" channelCode=""></waveformID>
        <phaseHint>P</phaseHint>
        <ns1:bulow_moonquake>A445</ns1:bulow_moonquake>
      </pick>
      <amplitude publicID="smi:nakamura81/amplitude/S14/05653">
        <genericAmplitude>
          <value>2.0</value>
        </genericAmplitude>
        <type>A</type>
        <unit>other</unit>
        <pickID>smi:nakamura81/pick/S14/05653</pickID>
      </amplitude>
      <ns0:moon_event_type>deep moonquake</ns0:moon_event_type>
    </event>
    <event publicID="smi:nakamura81/event/05655">
      <type>earthquake</type>
      <description>
        <text>deep moonquake</text>
      </description>
      <comment id="smi:nakamura81/event/comment/bulow07/05655">
        <text>bulow_moonquake: A8</text>
      </comment>
      <pick publicID="smi:nakamura81/pick/S14/05655">
        <time>
          <value>1973-01-04T08:58:00.000000Z</value>
          <uncertainty>60.0</uncertainty>
        </time>
        <waveformID networkCode="XA" stationCode="S14" locationCode="" channelCode=""></waveformID>
        <phaseHint>P</phaseHint>
        <ns1:bulow_moonquake>A8</ns1:bulow_moonquake>
      </pick>
      <amplitude publicID="smi:nakamura81/amplitude/S14/05655">
        <genericAmplitude>
          <value>1.8</value>
        </genericAmplitude>
        <type>A</type>
        <unit>other</unit>
        <pickID>smi:nakamura81/pick/S14/05655</pickID>
      </amplitude>
      <ns0:moon_event_type>deep moonquake</ns0:moon_event_type>
    </event>
    <event publicID="smi:nakamura81/event/05657">
      <type>earthquake</type>
      <description>
        <text>deep moonquake</text>
      </description>
      <comment id="smi:nakamura81/event/comment/bulow07/05657">
        <text>bulow_moonquake: A6</text>
      </comment>
      <pick publicID="smi:nakamura81/pick/S14/05657">
        <time>
          <value>1973-01-04T15:10:00.000000Z</value>
          <uncertainty>60.0</uncertainty>
        </time>
        <waveformID networkCode="XA" stationCode="S14" locationCode="" channelCode=""></waveformID>
        <phaseHint>P</phaseHint>
        <ns1:bulow_moonquake>A6</ns1:bulow_moonquake>
      </pick>
      <amplitude publicID="smi:nakamura81/amplitude/S14/05657">
        <genericAmplitude>
          <value>2.0</value>
        </genericAmplitude>
        <type>A</type>
        <unit>other</unit>
        <pickID>smi:nakamura81/pick/S14/05657</pickID>
      </amplitude>
      <ns0:moon_event_type>deep moonquake</ns0:moon_event_type>
    </event>
    <event publicID="smi:nakamura81/event/05660">
      <type>earthquake</type>
      <description>
        <text>deep moonquake</text>
      </description>
      <comment id="smi:nakamura81/event/comment/nakamura81/05660">
        <text/>
      </comment>
      <comment id="smi:nakamura81/event/comment/bulow07/05660">
        <text>bulow_moonquake: A21</text>
      </comment>
      <pick publicID="smi:nakamura81/pick/S14/05660">
        <time>
          <value>1973-01-04T23:55:00.000000Z</value>
          <uncertainty>60.0</uncertainty>
        </time>
        <waveformID networkCode="XA" stationCode="S14" locationCode="" channelCode=""></waveformID>
        <phaseHint>P</phaseHint>
        <ns1:bulow_moonquake>A21</ns1:bulow_moonquake>
        <ns1:nakamura_moonquake>A21</ns1:nakamura_moonquake>
      </pick>
      <amplitude publicID="smi:nakamura81/amplitude/S14/05660">
        <genericAmplitude>
          <value>2.9</value>
        </genericAmplitude>
        <type>A</type>
        <unit>other</unit>
        <pickID>smi:nakamura81/pick/S14/05660</pickID>
      </amplitude>
      <ns0:moon_event_type>deep moonquake</ns0:moon_event_type>
    </event>
    <event publicID="smi:nakamura81/event/05661">
      <type>earthquake</type>
      <description>
        <text>deep moonquake</text>
      </description>
      <comment id="smi:nakamura81/event/comment/bulow07/05661">
        <text>bulow_moonquake: A284</text>
      </comment>
      <pick publicID="smi:nakamura81/pick/S14/05661">
        <time>
          <value>1973-01-05T02:00:00.000000Z</value>
          <uncertainty>60.0</uncertainty>
        </time>
        <waveformID networkCode="XA" stationCode="S14" locationCode="" channelCode=""></waveformID>
        <phaseHint>P</phaseHint>
        <ns1:bulow_moonquake>A284</ns1:bulow_moonquake>
      </pick>
      <amplitude publicID="smi:nakamura81/amplitude/S14/05661">
        <genericAmplitude>
          <value>1.1</value>
        </genericAmplitude>
        <type>A</type>
        <unit>other</unit>
