<?xml version='1.0' encoding='utf-8'?>
<q:quakeml xmlns="http://quakeml.org/xmlns/bed/1.2" xmlns:q="http://quakeml.org/xmlns/quakeml/1.2" xmlns:ns0="http://some-page.de/xmlns/0.1">
  <eventParameters publicID="smi:local/45ff230e-952c-406d-987e-c508cbf4726e">
    <event publicID="smi:nakamura81/event/05647">
      <type>meteorite</type>
      <description>
        <text>meteoroid</text>
      </description>
      <comment id="smi:nakamura81/event/comment/05647">
        <text>SP=6</text>
      </comment>
      <pick publicID="smi:nakamura81/pick/S14/05647">
        <time>
          <value>1973-01-03T21:33:00.000000Z</value>
          <uncertainty>60.0</uncertainty>
        </time>
        <waveformID networkCode="XA" stationCode="S14" locationCode="" channelCode=""></waveformID>
        <phaseHint>P</phaseHint>
      </pick>
      <amplitude publicID="smi:nakamura81/amplitude/S14/05647">
        <genericAmplitude>
          <value>1.8</value>
        </genericAmplitude>
        <type>A</type>
        <unit>other</unit>
        <pickID>smi:nakamura81/pick/S14/05647</pickID>
      </amplitude>
      <ns0:moon_event_type>meteoroid</ns0:moon_event_type>
    </event>
    <event publicID="smi:nakamura81/event/05648">
      <type>meteorite</type>
      <description>
        <text>meteoroid</text>
      </description>
      <pick publicID="smi:nakamura81/pick/S14/05648">
        <time>
          <value>1973-01-03T23:48:00.000000Z</value>
          <uncertainty>60.0</uncertainty>
        </time>
        <waveformID networkCode="XA" stationCode="S14" locationCode="" channelCode=""></waveformID>
        <phaseHint>P</phaseHint>
      </pick>
      <amplitude publicID="smi:nakamura81/amplitude/S14/05648">
        <genericAmplitude>
          <value>2.0</value>
        </genericAmplitude>
        <type>A</type>
        <unit>other</unit>
        <pickID>smi:nakamura81/pick/S14/05648</pickID>
      </amplitude>
      <ns0:moon_event_type>meteoroid</ns0:moon_event_type>
    </event>
    <event publicID="smi:nakamura81/event/05679">
      <type>meteorite</type>
      <description>
        <text>meteoroid</text>
      </description>
      <pick publicID="smi:nakamura81/pick/S14/05679">
        <time>
          <value>1973-01-07T02:02:00.000000Z</value>
          <uncertainty>60.0</uncertainty>
        </time>
        <waveformID networkCode="XA" stationCode="S14" locationCode="" channelCode=""></waveformID>
        <phaseHint>P</phaseHint>
      </pick>
      <amplitude publicID="smi:nakamura81/amplitude/S14/05679">
        <genericAmplitude>
          <value>2.0</value>
        </genericAmplitude>
        <type>A</type>
        <unit>other</unit>
        <pickID>smi:nakamura81/pick/S14/05679</pickID>
      </amplitude>
      <ns0:moon_event_type>meteoroid</ns0:moon_event_type>
    </event>
    <event publicID="smi:nakamura81/event/05694">
      <type>meteorite</type>
      <description>
        <text>meteoroid</text>
      </description>
      <comment id="smi:nakamura81/event/comment/05694">
        <text>SP=2</text>
      </comment>
      <pick publicID="smi:nakamura81/pick/S14/05694">
        <time>
          <value>1973-01-11T08:47:00.000000Z</value>
          <uncertainty>60.0</uncertainty>
        </time>
        <waveformID networkCode="XA" stationCode="S14" locationCode="" channelCode=""></waveformID>
        <phaseHint>P</phaseHint>
      </pick>
      <amplitude publicID="smi:nakamura81/amplitude/S14/05694">
        <genericAmplitude>
          <value>4.8</value>
        </genericAmplitude>
        <type>A</type>
        <unit>other</unit>
        <pickID>smi:nakamura81/pick/S14/05694</pickID>
      </amplitude>
      <ns0:moon_event_type>meteoroid</ns0:moon_event_type>
    </event>
    <event publicID="smi:nakamura81/event/05756">
      <type>meteorite</type>
      <description>
        <text>meteoroid</text>
      </description>
      <comment id="smi:nakamura81/event/comment/05756">
        <text>C 14SP=14</text>
      </comment>
      <pick publicID="smi:nakamura81/pick/S14/05756">
        <time>
          <value>1973-01-18T23:01:00.000000Z</value>
          <uncertainty>60.0</uncertainty>
        </time>
        <waveformID networkCode="XA" stationCode="S14" locationCode="" channelCode=""></waveformID>
        <phaseHint>P</phaseHint>
        <comment id="smi:nakamura81/pick/comment/S14/05756">
          <text>compressed plot is clipped (original digital data may not be clipped)</text>
        </comment>
      </pick>
      <amplitude publicID="smi:nakamura81/amplitude/S14/05756">
        <genericAmplitude>
          <value>51.0</value>
        </genericAmplitude>
        <type>A</type>
        <unit>other</unit>
        <pickID>smi:nakamura81/pick/S14/05756</pickID>
      </amplitude>
      <ns0:moon_event_type>meteoroid</ns0:moon_event_type>
    </event>
    <event publicID="smi:nakamura81/event/05757">
      <type>meteorite</type>
      <description>
        <text>meteoroid</text>
      </description>
      <pick publicID="smi:nakamura81/pick/S14/05757">
        <time>
          <value>1973-01-18T23:59:00.000000Z</value>
          <uncertainty>60.0</uncertainty>
        </time>
        <waveformID networkCode="XA" stationCode="S14" locationCode="" channelCode=""></waveformID>
        <phaseHint>P</phaseHint>
      </pick>
      <amplitude publicID="smi:nakamura81/amplitude/S14/05757">
        <genericAmplitude>
          <value>7.5</value>
        </genericAmplitude>
        <type>A</type>
        <unit>other</unit>
        <pickID>smi:nakamura81/pick/S14/05757</pickID>
      </amplitude>
      <ns0:moon_event_type>meteoroid</ns0:moon_event_type>
    </event>
    <event publicID="smi:nakamura81/event/05789">
      <type>meteorite</type>
      <description>
        <text>meteoroid</text>
      </description>
      <comment id="smi:nakamura81/event/comment/05789">
        <text>C</text>
      </comment>
      <pick publicID="smi:nakamura81/pick/S14/05789">
        <time>
          <value>1973-01-25T16:11:00.000000Z</value>
          <uncertainty>60.0</uncertainty>
        </time>
        <waveformID networkCode="XA" stationCode="S14" locationCode="" channelCode=""></waveformID>
        <phaseHint>P</phaseHint>
      </pick>
      <amplitude publicID="smi:nakamura81/amplitude/S14/05789">
        <genericAmplitude>
          <value>1.1</value>
        </genericAmplitude>
        <type>A</type>
        <unit>other</unit>
        <pickID>smi:nakamura81/pick/S14/05789</pickID>
      </amplitude>
      <ns0:moon_event_type>meteoroid</ns0:moon_event_type>
    </event>
    <event publicID="smi:nakamura81/event/05791">
      <type>meteorite</type>
      <description>
        <text>meteoroid</text>
      </description>
      <pick publicID="smi:nakamura81/pick/S14/05791">
        <time>
          <value>1973-01-26T01:29:00.000000Z</value>
          <uncertainty>60.0</uncertainty>
        </time>
        <waveformID networkCode="XA" stationCode="S14" locationCode="" channelCode=""></waveformID>
        <phaseHint>P</phaseHint>
        <comment id="smi:nakamura81/pick/comment/S14/05791">
          <text>noisy data</text>
        </comment>
      </pick>
      <amplitude publicID="smi:nakamura81/amplitude/S14/05791">
        <genericAmplitude>
          <value>1.9</value>
        </genericAmplitude>
        <type>A</type>
        <unit>other</unit>
        <pickID>smi:nakamura81/pick/S14/05791</pickID>
      </amplitude>
      <ns0:moon_event_type>meteoroid</ns0:moon_event_type>
    </event>
    <event publicID="smi:nakamura81/event/05792">
      <type>meteorite</type>
      <description>
        <text>meteoroid</text>
      </description>
      <pick publicID="smi:nakamura81/pick/S14/05792">
        <time>
          <value>1973-01-26T03:07:00.000000Z</value>
          <uncertainty>60.0</uncertainty>
        </time>
        <waveformID networkCode="XA" stationCode="S14" locationCode="" channelCode=""></waveformID>
        <phaseHint>P</phaseHint>
        <comment id="smi:nakamura81/pick/comment/S14/05792">
          <text>noisy data</text>
        </comment>
      </pick>
      <amplitude publicID="smi:nakamura81/amplitude/S14/05792">
        <genericAmplitude>
          <value>1.5</value>
        </genericAmplitude>
        <type>A</type>
        <unit>other</unit>
        <pickID>smi:nakamura81/pick/S14/05792</pickID>
      </amplitude>
      <ns0:moon_event_type>meteoroid</ns0:moon_event_type>
    </event>
    <event publicID="smi:nakamura81/event/05809">
      <type>meteorite</type>
      <description>
        <text>meteoroid</text>
      </description>
      <comment id="smi:nakamura81/event/comment/05809">
        <text>DIST NO SP</text>
      </comment>
      <pick publicID="smi:nakamura81/pick/S14/05809">
        <time>
          <value>1973-01-29T11:27:00.000000Z</value>
          <uncertainty>60.0</uncertainty>
        </time>
        <waveformID networkCode="XA" stationCode="S14" locationCode="" channelCode=""></waveformID>
        <phaseHint>P</phaseHint>
      </pick>
      <amplitude publicID="smi:nakamura81/amplitude/S14/05809">
        <genericAmplitude>
          <value>3.5</value>
        </genericAmplitude>
        <type>A</type>
        <unit>other</unit>
        <pickID>smi:nakamura81/pick/S14/05809</pickID>
      </amplitude>
      <ns0:moon_event_type>meteoroid</ns0:moon_event_type>
    </event>
    <event publicID="smi:nakamura81/event/05818">
      <type>meteorite</type>
      <description>
        <text>meteoroid</text>
      </description>
      <pick publicID="smi:nakamura81/pick/S14/05818">
        <time>
          <value>1973-01-31T00:44:00.000000Z</value>
          <uncertainty>60.0</uncertainty>
        </time>
        <waveformID networkCode="XA" stationCode="S14" locationCode="" channelCode=""></waveformID>
        <phaseHint>P</phaseHint>
      </pick>
      <amplitude publicID="smi:nakamura81/amplitude/S14/05818">
        <genericAmplitude>
          <value>11.0</value>
        </genericAmplitude>
        <type>A</type>
        <unit>other</unit>
        <pickID>smi:nakamura81/pick/S14/05818</pickID>
      </amplitude>
      <ns0:moon_event_type>meteoroid</ns0:moon_event_type>
    </event>
    <event publicID="smi:nakamura81/event/05827">
      <type>meteorite</type>
      <description>
        <text>meteoroid</text>
      </description>
      <comment id="smi:nakamura81/event/comment/05827">
        <text>C</text>
      </comment>
      <pick publicID="smi:nakamura81/pick/S14/05827">
        <time>
          <value>1973-02-01T03:43:00.000000Z</value>
          <uncertainty>60.0</uncertainty>
        </time>
        <waveformID networkCode="XA" stationCode="S14" locationCode="" channelCode=""></waveformID>
        <phaseHint>P</phaseHint>
      </pick>
      <amplitude publicID="smi:nakamura81/amplitude/S14/05827">
        <genericAmplitude>
          <value>2.9</value>
        </genericAmplitude>
        <type>A</type>
        <unit>other</unit>
        <pickID>smi:nakamura81/pick/S14/05827</pickID>
      </amplitude>
      <ns0:moon_event_type>meteoroid</ns0:moon_event_type>
    </event>
    <event publicID="smi:nakamura81/event/05833">
      <type>meteorite</type>
      <description>
        <text>meteoroid</text>
      </description>
      <comment id="smi:nakamura81/event/comment/05833">
        <text>C</text>
      </comment>
      <pick publicID="smi:nakamura81/pick/S14/05833">
        <time>
          <value>1973-02-02T10:44:00.000000Z</value>
          <uncertainty>60.0</uncertainty>
        </time>
        <waveformID networkCode="XA" stationCode="S14" locationCode="" channelCode=""></waveformID>
        <phaseHint>P</phaseHint>
      </pick>
      <amplitude publicID="smi:nakamura81/amplitude/S14/05833">
        <genericAmplitude>
          <value>3.9</value>
        </genericAmplitude>
        <type>A</type>
        <unit>other</unit>
        <pickID>smi:nakamura81/pick/S14/05833</pickID>
      </amplitude>
      <ns0:moon_event_type>meteoroid</ns0:moon_event_type>
    </event>
    <event publicID="smi:nakamura81/event/05851">
      <type>meteorite</type>
      <description>
        <text>meteoroid</text>
      </description>
      <comment id="smi:nakamura81/event/comment/05851">
        <text>C</text>
      </comment>
      <pick publicID="smi:nakamura81/pick/S14/05851">
        <time>
          <value>1973-02-05T15:27:00.000000Z</value>
          <uncertainty>60.0</uncertainty>
        </time>
        <waveformID networkCode="XA" stationCode="S14" locationCode="" channelCode=""></waveformID>
        <phaseHint>P</phaseHint>
      </pick>
      <amplitude publicID="smi:nakamura81/amplitude/S14/05851">
        <genericAmplitude>
          <value>2.5</value>
        </genericAmplitude>
        <type>A</type>
        <unit>other</unit>
        <pickID>smi:nakamura81/pick/S14/05851</pickID>
      </amplitude>
      <ns0:moon_event_type>meteoroid</ns0:moon_event_type>
    </event>
    <event publicID="smi:nakamura81/event/05853">
      <type>meteorite</type>
      <description>
        <text>meteoroid</text>
      </description>
      <comment id="smi:nakamura81/event/comment/05853">
        <text>C</text>
      </comment>
      <pick publicID="smi:nakamura81/pick/S14/05853">
        <time>
          <value>1973-02-05T20:59:00.000000Z</value>
          <uncertainty>60.0</uncertainty>
        </time>
        <waveformID networkCode="XA" stationCode="S14" locationCode="" channelCode=""></waveformID>
        <phaseHint>P</phaseHint>
      </pick>
      <amplitude publicID="smi:nakamura81/amplitude/S14/05853">
        <genericAmplitude>
          <value>10.0</value>
        </genericAmplitude>
        <type>A</type>
        <unit>other</unit>
        <pickID>smi:nakamura81/pick/S14/05853</pickID>
      </amplitude>
      <ns0:moon_event_type>meteoroid</ns0:moon_event_type>
    </event>
    <event publicID="smi:nakamura81/event/05863">
      <type>meteorite</type>
      <description>
        <text>meteoroid</text>
      </description>
      <comment id="smi:nakamura81/event/comment/05863">
        <text>SP=2</text>
      </comment>
      <pick publicID="smi:nakamura81/pick/S14/05863">
        <time>
          <value>1973-02-09T12:28:00.000000Z</value>
          <uncertainty>60.0</uncertainty>
        </time>
        <waveformID networkCode="XA" stationCode="S14" locationCode="" channelCode=""></waveformID>
        <phaseHint>P</phaseHint>
      </pick>
      <amplitude publicID="smi:nakamura81/amplitude/S14/05863">
        <genericAmplitude>
          <value>3.6</value>
        </genericAmplitude>
        <type>A</type>
        <unit>other</unit>
        <pickID>smi:nakamura81/pick/S14/05863</pickID>
      </amplitude>
      <ns0:moon_event_type>meteoroid</ns0:moon_event_type>
    </event>
    <event publicID="smi:nakamura81/event/05889">
      <type>meteorite</type>
      <description>
        <text>meteoroid</text>
      </description>
      <comment id="smi:nakamura81/event/comment/05889">
        <text>DIST</text>
      </comment>
      <pick publicID="smi:nakamura81/pick/S14/05889">
        <time>
          <value>1973-02-11T18:42:00.000000Z</value>
          <uncertainty>60.0</uncertainty>
        </time>
        <waveformID networkCode="XA" stationCode="S14" locationCode="" channelCode=""></waveformID>
        <phaseHint>P</phaseHint>
      </pick>
      <amplitude publicID="smi:nakamura81/amplitude/S14/05889">
        <genericAmplitude>
          <value>1.1</value>
        </genericAmplitude>
        <type>A</type>
        <unit>other</unit>
        <pickID>smi:nakamura81/pick/S14/05889</pickID>
      </amplitude>
      <ns0:moon_event_type>meteoroid</ns0:moon_event_type>
    </event>
    <event publicID="smi:nakamura81/event/05894">
      <type>meteorite</type>
      <description>
        <text>meteoroid</text>
      </description>
      <comment id="smi:nakamura81/event/comment/05894">
        <text>DIST</text>
      </comment>
      <pick publicID="smi:nakamura81/pick/S14/05894">
        <time>
          <value>1973-02-12T10:56:00.000000Z</value>
          <uncertainty>60.0</uncertainty>
        </time>
        <waveformID networkCode="XA" stationCode="S14" locationCode="" channelCode=""></waveformID>
        <phaseHint>P</phaseHint>
        <comment id="smi:nakamura81/pick/comment/S14/05894">
          <text>noisy data</text>
        </comment>
      </pick>
      <amplitude publicID="smi:nakamura81/amplitude/S14/05894">
        <genericAmplitude>
          <value>9.0</value>
        </genericAmplitude>
        <type>A</type>
        <unit>other</unit>
        <pickID>smi:nakamura81/pick/S14/05894</pickID>
      </amplitude>
      <ns0:moon_event_type>meteoroid</ns0:moon_event_type>
    </event>
    <event publicID="smi:nakamura81/event/05897">
      <type>meteorite</type>
      <description>
        <text>meteoroid</text>
      </description>
      <comment id="smi:nakamura81/event/comment/05897">
        <text>NEAR 14 SP&gt;LP</text>
      </comment>
      <pick publicID="smi:nakamura81/pick/S14/05897">
        <time>
          <value>1973-02-12T14:14:00.000000Z</value>
          <uncertainty>60.0</uncertainty>
        </time>
        <waveformID networkCode="XA" stationCode="S14" locationCode="" channelCode=""></waveformID>
        <phaseHint>P</phaseHint>
        <comment id="smi:nakamura81/pick/comment/S14/05897">
          <text>noisy data</text>
        </comment>
      </pick>
      <amplitude publicID="smi:nakamura81/amplitude/S14/05897">
        <genericAmplitude>
          <value>11.0</value>
        </genericAmplitude>
        <type>A</type>
        <unit>other</unit>
        <pickID>smi:nakamura81/pick/S14/05897</pickID>
      </amplitude>
      <ns0:moon_event_type>meteoroid</ns0:moon_event_type>
    </event>
    <event publicID="smi:nakamura81/event/05949">
      <type>meteorite</type>
      <description>
        <text>meteoroid</text>
      </description>
      <comment id="smi:nakamura81/event/comment/05949">
        <text>DIST  14 LOOKS STRANGE</text>
      </comment>
      <pick publicID="smi:nakamura81/pick/S14/05949">
        <time>
          <value>1973-02-15T23:35:00.000000Z</value>
          <uncertainty>60.0</uncertainty>
        </time>
        <waveformID networkCode="XA" stationCode="S14" locationCode="" channelCode=""></waveformID>
        <phaseHint>P</phaseHint>
      </pick>
      <amplitude publicID="smi:nakamura81/amplitude/S14/05949">
        <genericAmplitude>
          <value>10.0</value>
        </genericAmplitude>
        <type>A</type>
        <unit>other</unit>
        <pickID>smi:nakamura81/pick/S14/05949</pickID>
      </amplitude>
      <ns0:moon_event_type>meteoroid</ns0:moon_event_type>
    </event>
    <event publicID="smi:nakamura81/event/05953">
      <type>meteorite</type>
      <description>
        <text>meteoroid</text>
      </description>
      <comment id="smi:nakamura81/event/comment/05953">
        <text>NEAR 14,LP&gt;SP</text>
      </comment>
      <pick publicID="smi:nakamura81/pick/S14/05953">
        <time>
          <value>1973-02-16T06:31:00.000000Z</value>
          <uncertainty>60.0</uncertainty>
        </time>
        <waveformID networkCode="XA" stationCode="S14" locationCode="" channelCode=""></waveformID>
        <phaseHint>P</phaseHint>
      </pick>
      <amplitude publicID="smi:nakamura81/amplitude/S14/05953">
        <genericAmplitude>
          <value>50.0</value>
        </genericAmplitude>
        <type>A</type>
        <unit>other</unit>
        <pickID>smi:nakamura81/pick/S14/05953</pickID>
      </amplitude>
      <ns0:moon_event_type>meteoroid</ns0:moon_event_type>
    </event>
    <event publicID="smi:nakamura81/event/05966">
      <type>meteorite</type>
      <description>
        <text>meteoroid</text>
      </description>
      <comment id="smi:nakamura81/event/comment/05966">
        <text>C SP=1.5</text>
      </comment>
      <pick publicID="smi:nakamura81/pick/S14/05966">
