<?xml version='1.0' encoding='utf-8'?>
<q:quakeml xmlns="http://quakeml.org/xmlns/bed/1.2" xmlns:q="http://quakeml.org/xmlns/quakeml/1.2" xmlns:ns0="http://some-page.de/xmlns/0.1">
  <eventParameters publicID="smi:local/341ee984-f24e-492d-8ab2-7b8973fa86e9">
    <event publicID="smi:nakamura81/event/05685">
      <type>not reported</type>
      <description>
        <text>unclassified</text>
      </description>
      <pick publicID="smi:nakamura81/pick/S15/05685">
        <time>
          <value>1973-01-08T02:08:00.000000Z</value>
          <uncertainty>60.0</uncertainty>
        </time>
        <waveformID networkCode="XA" stationCode="S15" locationCode="" channelCode=""></waveformID>
        <phaseHint>P</phaseHint>
      </pick>
      <amplitude publicID="smi:nakamura81/amplitude/S15/05685">
        <genericAmplitude>
          <value>1.0</value>
        </genericAmplitude>
        <type>A</type>
        <unit>other</unit>
        <pickID>smi:nakamura81/pick/S15/05685</pickID>
      </amplitude>
      <ns0:moon_event_type>unclassified</ns0:moon_event_type>
    </event>
    <event publicID="smi:nakamura81/event/05686">
      <type>not reported</type>
      <description>
        <text>unclassified</text>
      </description>
      <pick publicID="smi:nakamura81/pick/S15/05686">
        <time>
          <value>1973-01-08T06:13:00.000000Z</value>
          <uncertainty>60.0</uncertainty>
        </time>
        <waveformID networkCode="XA" stationCode="S15" locationCode="" channelCode=""></waveformID>
        <phaseHint>P</phaseHint>
      </pick>
      <amplitude publicID="smi:nakamura81/amplitude/S15/05686">
        <genericAmplitude>
          <value>1.8</value>
        </genericAmplitude>
        <type>A</type>
        <unit>other</unit>
        <pickID>smi:nakamura81/pick/S15/05686</pickID>
      </amplitude>
      <ns0:moon_event_type>unclassified</ns0:moon_event_type>
    </event>
    <event publicID="smi:nakamura81/event/05689">
      <type>not reported</type>
      <description>
        <text>unclassified</text>
      </description>
      <comment id="smi:nakamura81/event/comment/05689">
        <text>STRONG SP @15</text>
      </comment>
      <pick publicID="smi:nakamura81/pick/S15/05689">
        <time>
          <value>1973-01-09T04:29:00.000000Z</value>
          <uncertainty>60.0</uncertainty>
        </time>
        <waveformID networkCode="XA" stationCode="S15" locationCode="" channelCode=""></waveformID>
        <phaseHint>P</phaseHint>
      </pick>
      <amplitude publicID="smi:nakamura81/amplitude/S15/05689">
        <genericAmplitude>
          <value>2.3</value>
        </genericAmplitude>
        <type>A</type>
        <unit>other</unit>
        <pickID>smi:nakamura81/pick/S15/05689</pickID>
      </amplitude>
      <ns0:moon_event_type>unclassified</ns0:moon_event_type>
    </event>
    <event publicID="smi:nakamura81/event/05721">
      <type>not reported</type>
      <description>
        <text>unclassified</text>
      </description>
      <pick publicID="smi:nakamura81/pick/S15/05721">
        <time>
          <value>1973-01-14T14:06:00.000000Z</value>
          <uncertainty>60.0</uncertainty>
        </time>
        <waveformID networkCode="XA" stationCode="S15" locationCode="" channelCode=""></waveformID>
        <phaseHint>P</phaseHint>
      </pick>
      <amplitude publicID="smi:nakamura81/amplitude/S15/05721">
        <genericAmplitude>
          <value>1.0</value>
        </genericAmplitude>
        <type>A</type>
        <unit>other</unit>
        <pickID>smi:nakamura81/pick/S15/05721</pickID>
      </amplitude>
      <ns0:moon_event_type>unclassified</ns0:moon_event_type>
    </event>
    <event publicID="smi:nakamura81/event/05740">
      <type>not reported</type>
      <description>
        <text>unclassified</text>
      </description>
      <pick publicID="smi:nakamura81/pick/S15/05740">
        <time>
          <value>1973-01-16T09:48:00.000000Z</value>
          <uncertainty>60.0</uncertainty>
        </time>
        <waveformID networkCode="XA" stationCode="S15" locationCode="" channelCode=""></waveformID>
        <phaseHint>P</phaseHint>
      </pick>
      <amplitude publicID="smi:nakamura81/amplitude/S15/05740">
        <genericAmplitude>
          <value>2.4</value>
        </genericAmplitude>
        <type>A</type>
        <unit>other</unit>
        <pickID>smi:nakamura81/pick/S15/05740</pickID>
      </amplitude>
      <ns0:moon_event_type>unclassified</ns0:moon_event_type>
    </event>
    <event publicID="smi:nakamura81/event/05747">
      <type>not reported</type>
      <description>
        <text>unclassified</text>
      </description>
      <pick publicID="smi:nakamura81/pick/S15/05747">
        <time>
          <value>1973-01-17T07:03:00.000000Z</value>
          <uncertainty>60.0</uncertainty>
        </time>
        <waveformID networkCode="XA" stationCode="S15" locationCode="" channelCode=""></waveformID>
        <phaseHint>P</phaseHint>
      </pick>
      <amplitude publicID="smi:nakamura81/amplitude/S15/05747">
        <genericAmplitude>
          <value>0.9</value>
        </genericAmplitude>
        <type>A</type>
        <unit>other</unit>
        <pickID>smi:nakamura81/pick/S15/05747</pickID>
      </amplitude>
      <ns0:moon_event_type>unclassified</ns0:moon_event_type>
    </event>
    <event publicID="smi:nakamura81/event/05755">
      <type>not reported</type>
      <description>
        <text>unclassified</text>
      </description>
      <pick publicID="smi:nakamura81/pick/S15/05755">
        <time>
          <value>1973-01-18T18:15:00.000000Z</value>
          <uncertainty>60.0</uncertainty>
        </time>
        <waveformID networkCode="XA" stationCode="S15" locationCode="" channelCode=""></waveformID>
        <phaseHint>P</phaseHint>
      </pick>
      <amplitude publicID="smi:nakamura81/amplitude/S15/05755">
        <genericAmplitude>
          <value>2.9</value>
        </genericAmplitude>
        <type>A</type>
        <unit>other</unit>
        <pickID>smi:nakamura81/pick/S15/05755</pickID>
      </amplitude>
      <ns0:moon_event_type>unclassified</ns0:moon_event_type>
    </event>
    <event publicID="smi:nakamura81/event/05770">
      <type>not reported</type>
      <description>
        <text>unclassified</text>
      </description>
      <pick publicID="smi:nakamura81/pick/S15/05770">
        <time>
          <value>1973-01-20T07:39:00.000000Z</value>
          <uncertainty>60.0</uncertainty>
        </time>
        <waveformID networkCode="XA" stationCode="S15" locationCode="" channelCode=""></waveformID>
        <phaseHint>P</phaseHint>
      </pick>
      <amplitude publicID="smi:nakamura81/amplitude/S15/05770">
        <genericAmplitude>
          <value>2.5</value>
        </genericAmplitude>
        <type>A</type>
        <unit>other</unit>
        <pickID>smi:nakamura81/pick/S15/05770</pickID>
      </amplitude>
      <ns0:moon_event_type>unclassified</ns0:moon_event_type>
    </event>
    <event publicID="smi:nakamura81/event/05785">
      <type>not reported</type>
      <description>
        <text>unclassified</text>
      </description>
      <pick publicID="smi:nakamura81/pick/S15/05785">
        <time>
          <value>1973-01-23T06:11:00.000000Z</value>
          <uncertainty>60.0</uncertainty>
        </time>
        <waveformID networkCode="XA" stationCode="S15" locationCode="" channelCode=""></waveformID>
        <phaseHint>P</phaseHint>
      </pick>
      <amplitude publicID="smi:nakamura81/amplitude/S15/05785">
        <genericAmplitude>
          <value>1.7</value>
        </genericAmplitude>
        <type>A</type>
        <unit>other</unit>
        <pickID>smi:nakamura81/pick/S15/05785</pickID>
      </amplitude>
      <ns0:moon_event_type>unclassified</ns0:moon_event_type>
    </event>
    <event publicID="smi:nakamura81/event/05787">
      <type>not reported</type>
      <description>
        <text>unclassified</text>
      </description>
      <comment id="smi:nakamura81/event/comment/05787">
        <text>NO SP</text>
      </comment>
      <pick publicID="smi:nakamura81/pick/S15/05787">
        <time>
          <value>1973-01-23T17:35:00.000000Z</value>
          <uncertainty>60.0</uncertainty>
        </time>
        <waveformID networkCode="XA" stationCode="S15" locationCode="" channelCode=""></waveformID>
        <phaseHint>P</phaseHint>
      </pick>
      <amplitude publicID="smi:nakamura81/amplitude/S15/05787">
        <genericAmplitude>
          <value>5.5</value>
        </genericAmplitude>
        <type>A</type>
        <unit>other</unit>
        <pickID>smi:nakamura81/pick/S15/05787</pickID>
      </amplitude>
      <ns0:moon_event_type>unclassified</ns0:moon_event_type>
    </event>
    <event publicID="smi:nakamura81/event/05896">
      <type>not reported</type>
      <description>
        <text>unclassified</text>
      </description>
      <pick publicID="smi:nakamura81/pick/S15/05896">
        <time>
          <value>1973-02-12T13:27:00.000000Z</value>
          <uncertainty>60.0</uncertainty>
        </time>
        <waveformID networkCode="XA" stationCode="S15" locationCode="" channelCode=""></waveformID>
        <phaseHint>P</phaseHint>
      </pick>
      <amplitude publicID="smi:nakamura81/amplitude/S15/05896">
        <genericAmplitude>
          <value>1.7</value>
        </genericAmplitude>
        <type>A</type>
        <unit>other</unit>
        <pickID>smi:nakamura81/pick/S15/05896</pickID>
      </amplitude>
      <ns0:moon_event_type>unclassified</ns0:moon_event_type>
    </event>
    <event publicID="smi:nakamura81/event/05908">
      <type>not reported</type>
      <description>
        <text>unclassified</text>
      </description>
      <comment id="smi:nakamura81/event/comment/05908">
        <text>Z @15</text>
      </comment>
      <pick publicID="smi:nakamura81/pick/S15/05908">
        <time>
          <value>1973-02-13T05:47:00.000000Z</value>
          <uncertainty>60.0</uncertainty>
        </time>
        <waveformID networkCode="XA" stationCode="S15" locationCode="" channelCode=""></waveformID>
        <phaseHint>P</phaseHint>
        <comment id="smi:nakamura81/pick/comment/S15/05908">
          <text>see comments</text>
        </comment>
      </pick>
      <amplitude publicID="smi:nakamura81/amplitude/S15/05908">
        <genericAmplitude>
          <value>2.0</value>
        </genericAmplitude>
        <type>A</type>
        <unit>other</unit>
        <pickID>smi:nakamura81/pick/S15/05908</pickID>
      </amplitude>
      <ns0:moon_event_type>unclassified</ns0:moon_event_type>
    </event>
    <event publicID="smi:nakamura81/event/05928">
      <type>not reported</type>
      <description>
        <text>unclassified</text>
      </description>
      <pick publicID="smi:nakamura81/pick/S15/05928">
        <time>
          <value>1973-02-14T21:56:00.000000Z</value>
          <uncertainty>60.0</uncertainty>
        </time>
        <waveformID networkCode="XA" stationCode="S15" locationCode="" channelCode=""></waveformID>
        <phaseHint>P</phaseHint>
      </pick>
      <amplitude publicID="smi:nakamura81/amplitude/S15/05928">
        <genericAmplitude>
          <value>2.7</value>
        </genericAmplitude>
        <type>A</type>
        <unit>other</unit>
        <pickID>smi:nakamura81/pick/S15/05928</pickID>
      </amplitude>
      <ns0:moon_event_type>unclassified</ns0:moon_event_type>
    </event>
    <event publicID="smi:nakamura81/event/05934">
      <type>not reported</type>
      <description>
        <text>unclassified</text>
      </description>
      <comment id="smi:nakamura81/event/comment/05934">
        <text>C 15?</text>
      </comment>
      <pick publicID="smi:nakamura81/pick/S15/05934">
        <time>
          <value>1973-02-15T07:40:00.000000Z</value>
          <uncertainty>60.0</uncertainty>
        </time>
        <waveformID networkCode="XA" stationCode="S15" locationCode="" channelCode=""></waveformID>
        <phaseHint>P</phaseHint>
      </pick>
      <amplitude publicID="smi:nakamura81/amplitude/S15/05934">
        <genericAmplitude>
          <value>1.0</value>
        </genericAmplitude>
        <type>A</type>
        <unit>other</unit>
        <pickID>smi:nakamura81/pick/S15/05934</pickID>
      </amplitude>
      <ns0:moon_event_type>unclassified</ns0:moon_event_type>
    </event>
    <event publicID="smi:nakamura81/event/05965">
      <type>not reported</type>
      <description>
        <text>unclassified</text>
      </description>
      <pick publicID="smi:nakamura81/pick/S15/05965">
        <time>
          <value>1973-02-17T16:38:00.000000Z</value>
          <uncertainty>60.0</uncertainty>
        </time>
        <waveformID networkCode="XA" stationCode="S15" locationCode="" channelCode=""></waveformID>
        <phaseHint>P</phaseHint>
      </pick>
      <amplitude publicID="smi:nakamura81/amplitude/S15/05965">
        <genericAmplitude>
          <value>2.0</value>
        </genericAmplitude>
        <type>A</type>
        <unit>other</unit>
        <pickID>smi:nakamura81/pick/S15/05965</pickID>
      </amplitude>
      <ns0:moon_event_type>unclassified</ns0:moon_event_type>
    </event>
    <event publicID="smi:nakamura81/event/05992">
      <type>not reported</type>
      <description>
        <text>unclassified</text>
      </description>
      <pick publicID="smi:nakamura81/pick/S15/05992">
        <time>
          <value>1973-02-21T12:08:00.000000Z</value>
          <uncertainty>60.0</uncertainty>
        </time>
        <waveformID networkCode="XA" stationCode="S15" locationCode="" channelCode=""></waveformID>
        <phaseHint>P</phaseHint>
      </pick>
      <amplitude publicID="smi:nakamura81/amplitude/S15/05992">
        <genericAmplitude>
          <value>2.0</value>
        </genericAmplitude>
        <type>A</type>
        <unit>other</unit>
        <pickID>smi:nakamura81/pick/S15/05992</pickID>
      </amplitude>
      <ns0:moon_event_type>unclassified</ns0:moon_event_type>
    </event>
    <event publicID="smi:nakamura81/event/05994">
      <type>not reported</type>
      <description>
        <text>unclassified</text>
      </description>
      <comment id="smi:nakamura81/event/comment/05994">
        <text>C? UNUSUAL  NO SP</text>
      </comment>
      <pick publicID="smi:nakamura81/pick/S15/05994">
        <time>
          <value>1973-02-22T06:52:00.000000Z</value>
          <uncertainty>60.0</uncertainty>
        </time>
        <waveformID networkCode="XA" stationCode="S15" locationCode="" channelCode=""></waveformID>
        <phaseHint>P</phaseHint>
      </pick>
      <amplitude publicID="smi:nakamura81/amplitude/S15/05994">
        <genericAmplitude>
          <value>5.0</value>
        </genericAmplitude>
        <type>A</type>
        <unit>other</unit>
        <pickID>smi:nakamura81/pick/S15/05994</pickID>
      </amplitude>
      <ns0:moon_event_type>unclassified</ns0:moon_event_type>
    </event>
    <event publicID="smi:nakamura81/event/06043">
      <type>not reported</type>
      <description>
        <text>unclassified</text>
      </description>
      <pick publicID="smi:nakamura81/pick/S15/06043">
        <time>
          <value>1973-03-11T23:50:00.000000Z</value>
          <uncertainty>60.0</uncertainty>
        </time>
        <waveformID networkCode="XA" stationCode="S15" locationCode="" channelCode=""></waveformID>
        <phaseHint>P</phaseHint>
      </pick>
      <amplitude publicID="smi:nakamura81/amplitude/S15/06043">
        <genericAmplitude>
          <value>1.0</value>
        </genericAmplitude>
        <type>A</type>
        <unit>other</unit>
        <pickID>smi:nakamura81/pick/S15/06043</pickID>
      </amplitude>
      <ns0:moon_event_type>unclassified</ns0:moon_event_type>
    </event>
    <event publicID="smi:nakamura81/event/06125">
      <type>not reported</type>
      <description>
        <text>unclassified</text>
      </description>
      <pick publicID="smi:nakamura81/pick/S15/06125">
        <time>
          <value>1973-03-21T10:02:00.000000Z</value>
          <uncertainty>60.0</uncertainty>
        </time>
        <waveformID networkCode="XA" stationCode="S15" locationCode="" channelCode=""></waveformID>
        <phaseHint>P</phaseHint>
      </pick>
      <amplitude publicID="smi:nakamura81/amplitude/S15/06125">
        <genericAmplitude>
          <value>1.2</value>
        </genericAmplitude>
        <type>A</type>
        <unit>other</unit>
        <pickID>smi:nakamura81/pick/S15/06125</pickID>
      </amplitude>
      <ns0:moon_event_type>unclassified</ns0:moon_event_type>
    </event>
    <event publicID="smi:nakamura81/event/06130">
      <type>not reported</type>
      <description>
        <text>unclassified</text>
      </description>
      <pick publicID="smi:nakamura81/pick/S15/06130">
        <time>
          <value>1973-03-22T17:03:00.000000Z</value>
          <uncertainty>60.0</uncertainty>
        </time>
        <waveformID networkCode="XA" stationCode="S15" locationCode="" channelCode=""></waveformID>
        <phaseHint>P</phaseHint>
      </pick>
      <amplitude publicID="smi:nakamura81/amplitude/S15/06130">
        <genericAmplitude>
          <value>2.0</value>
        </genericAmplitude>
        <type>A</type>
        <unit>other</unit>
        <pickID>smi:nakamura81/pick/S15/06130</pickID>
      </amplitude>
      <ns0:moon_event_type>unclassified</ns0:moon_event_type>
    </event>
    <event publicID="smi:nakamura81/event/06133">
      <type>not reported</type>
      <description>
        <text>unclassified</text>
      </description>
      <pick publicID="smi:nakamura81/pick/S15/06133">
        <time>
          <value>1973-03-23T03:22:00.000000Z</value>
          <uncertainty>60.0</uncertainty>
        </time>
        <waveformID networkCode="XA" stationCode="S15" locationCode="" channelCode=""></waveformID>
        <phaseHint>P</phaseHint>
      </pick>
      <amplitude publicID="smi:nakamura81/amplitude/S15/06133">
        <genericAmplitude>
          <value>2.0</value>
        </genericAmplitude>
        <type>A</type>
        <unit>other</unit>
        <pickID>smi:nakamura81/pick/S15/06133</pickID>
      </amplitude>
      <ns0:moon_event_type>unclassified</ns0:moon_event_type>
    </event>
    <event publicID="smi:nakamura81/event/06172">
      <type>not reported</type>
      <description>
        <text>unclassified</text>
      </description>
      <pick publicID="smi:nakamura81/pick/S15/06172">
        <time>
          <value>1973-03-28T05:33:00.000000Z</value>
          <uncertainty>60.0</uncertainty>
        </time>
        <waveformID networkCode="XA" stationCode="S15" locationCode="" channelCode=""></waveformID>
        <phaseHint>P</phaseHint>
      </pick>
      <amplitude publicID="smi:nakamura81/amplitude/S15/06172">
        <genericAmplitude>
          <value>1.0</value>
        </genericAmplitude>
        <type>A</type>
        <unit>other</unit>
        <pickID>smi:nakamura81/pick/S15/06172</pickID>
      </amplitude>
      <ns0:moon_event_type>unclassified</ns0:moon_event_type>
    </event>
    <event publicID="smi:nakamura81/event/06234">
      <type>not reported</type>
      <description>
        <text>unclassified</text>
      </description>
      <pick publicID="smi:nakamura81/pick/S15/06234">
        <time>
          <value>1973-04-07T20:37:00.000000Z</value>
          <uncertainty>60.0</uncertainty>
        </time>
        <waveformID networkCode="XA" stationCode="S15" locationCode="" channelCode=""></waveformID>
        <phaseHint>P</phaseHint>
      </pick>
      <amplitude publicID="smi:nakamura81/amplitude/S15/06234">
        <genericAmplitude>
          <value>1.5</value>
        </genericAmplitude>
        <type>A</type>
        <unit>other</unit>
        <pickID>smi:nakamura81/pick/S15/06234</pickID>
      </amplitude>
      <ns0:moon_event_type>unclassified</ns0:moon_event_type>
