<?xml version='1.0' encoding='utf-8'?>
<q:quakeml xmlns="http://quakeml.org/xmlns/bed/1.2" xmlns:q="http://quakeml.org/xmlns/quakeml/1.2" xmlns:ns0="http://some-page.de/xmlns/0.1">
  <eventParameters publicID="smi:local/050f9a50-7611-4a20-a643-0b5a8cb03ced">
    <event publicID="smi:nakamura81/event/05654">
      <type>not reported</type>
      <description>
        <text>unclassified</text>
      </description>
      <pick publicID="smi:nakamura81/pick/S12/05654">
        <time>
          <value>1973-01-04T07:25:00.000000Z</value>
          <uncertainty>60.0</uncertainty>
        </time>
        <waveformID networkCode="XA" stationCode="S12" locationCode="" channelCode=""></waveformID>
        <phaseHint>P</phaseHint>
      </pick>
      <amplitude publicID="smi:nakamura81/amplitude/S12/05654">
        <genericAmplitude>
          <value>0.7</value>
        </genericAmplitude>
        <type>A</type>
        <unit>other</unit>
        <pickID>smi:nakamura81/pick/S12/05654</pickID>
      </amplitude>
      <ns0:moon_event_type>unclassified</ns0:moon_event_type>
    </event>
    <event publicID="smi:nakamura81/event/05740">
      <type>not reported</type>
      <description>
        <text>unclassified</text>
      </description>
      <pick publicID="smi:nakamura81/pick/S12/05740">
        <time>
          <value>1973-01-16T09:48:00.000000Z</value>
          <uncertainty>60.0</uncertainty>
        </time>
        <waveformID networkCode="XA" stationCode="S12" locationCode="" channelCode=""></waveformID>
        <phaseHint>P</phaseHint>
      </pick>
      <amplitude publicID="smi:nakamura81/amplitude/S12/05740">
        <genericAmplitude>
          <value>1.2</value>
        </genericAmplitude>
        <type>A</type>
        <unit>other</unit>
        <pickID>smi:nakamura81/pick/S12/05740</pickID>
      </amplitude>
      <ns0:moon_event_type>unclassified</ns0:moon_event_type>
    </event>
    <event publicID="smi:nakamura81/event/05755">
      <type>not reported</type>
      <description>
        <text>unclassified</text>
      </description>
      <pick publicID="smi:nakamura81/pick/S12/05755">
        <time>
          <value>1973-01-18T18:15:00.000000Z</value>
          <uncertainty>60.0</uncertainty>
        </time>
        <waveformID networkCode="XA" stationCode="S12" locationCode="" channelCode=""></waveformID>
        <phaseHint>P</phaseHint>
      </pick>
      <amplitude publicID="smi:nakamura81/amplitude/S12/05755">
        <genericAmplitude>
          <value>1.3</value>
        </genericAmplitude>
        <type>A</type>
        <unit>other</unit>
        <pickID>smi:nakamura81/pick/S12/05755</pickID>
      </amplitude>
      <ns0:moon_event_type>unclassified</ns0:moon_event_type>
    </event>
    <event publicID="smi:nakamura81/event/05770">
      <type>not reported</type>
      <description>
        <text>unclassified</text>
      </description>
      <pick publicID="smi:nakamura81/pick/S12/05770">
        <time>
          <value>1973-01-20T07:39:00.000000Z</value>
          <uncertainty>60.0</uncertainty>
        </time>
        <waveformID networkCode="XA" stationCode="S12" locationCode="" channelCode=""></waveformID>
        <phaseHint>P</phaseHint>
      </pick>
      <amplitude publicID="smi:nakamura81/amplitude/S12/05770">
        <genericAmplitude>
          <value>1.2</value>
        </genericAmplitude>
        <type>A</type>
        <unit>other</unit>
        <pickID>smi:nakamura81/pick/S12/05770</pickID>
      </amplitude>
      <ns0:moon_event_type>unclassified</ns0:moon_event_type>
    </event>
    <event publicID="smi:nakamura81/event/05772">
      <type>not reported</type>
      <description>
        <text>unclassified</text>
      </description>
      <pick publicID="smi:nakamura81/pick/S12/05772">
        <time>
          <value>1973-01-20T11:33:00.000000Z</value>
          <uncertainty>60.0</uncertainty>
        </time>
        <waveformID networkCode="XA" stationCode="S12" locationCode="" channelCode=""></waveformID>
        <phaseHint>P</phaseHint>
      </pick>
      <amplitude publicID="smi:nakamura81/amplitude/S12/05772">
        <genericAmplitude>
          <value>1.0</value>
        </genericAmplitude>
        <type>A</type>
        <unit>other</unit>
        <pickID>smi:nakamura81/pick/S12/05772</pickID>
      </amplitude>
      <ns0:moon_event_type>unclassified</ns0:moon_event_type>
    </event>
    <event publicID="smi:nakamura81/event/05781">
      <type>not reported</type>
      <description>
        <text>unclassified</text>
      </description>
      <pick publicID="smi:nakamura81/pick/S12/05781">
        <time>
          <value>1973-01-22T11:08:00.000000Z</value>
          <uncertainty>60.0</uncertainty>
        </time>
        <waveformID networkCode="XA" stationCode="S12" locationCode="" channelCode=""></waveformID>
        <phaseHint>P</phaseHint>
      </pick>
      <amplitude publicID="smi:nakamura81/amplitude/S12/05781">
        <genericAmplitude>
          <value>1.3</value>
        </genericAmplitude>
        <type>A</type>
        <unit>other</unit>
        <pickID>smi:nakamura81/pick/S12/05781</pickID>
      </amplitude>
      <ns0:moon_event_type>unclassified</ns0:moon_event_type>
    </event>
    <event publicID="smi:nakamura81/event/05782">
      <type>not reported</type>
      <description>
        <text>unclassified</text>
      </description>
      <pick publicID="smi:nakamura81/pick/S12/05782">
        <time>
          <value>1973-01-22T14:28:00.000000Z</value>
          <uncertainty>60.0</uncertainty>
        </time>
        <waveformID networkCode="XA" stationCode="S12" locationCode="" channelCode=""></waveformID>
        <phaseHint>P</phaseHint>
      </pick>
      <amplitude publicID="smi:nakamura81/amplitude/S12/05782">
        <genericAmplitude>
          <value>1.2</value>
        </genericAmplitude>
        <type>A</type>
        <unit>other</unit>
        <pickID>smi:nakamura81/pick/S12/05782</pickID>
      </amplitude>
      <ns0:moon_event_type>unclassified</ns0:moon_event_type>
    </event>
    <event publicID="smi:nakamura81/event/05785">
      <type>not reported</type>
      <description>
        <text>unclassified</text>
      </description>
      <pick publicID="smi:nakamura81/pick/S12/05785">
        <time>
          <value>1973-01-23T06:11:00.000000Z</value>
          <uncertainty>60.0</uncertainty>
        </time>
        <waveformID networkCode="XA" stationCode="S12" locationCode="" channelCode=""></waveformID>
        <phaseHint>P</phaseHint>
      </pick>
      <amplitude publicID="smi:nakamura81/amplitude/S12/05785">
        <genericAmplitude>
          <value>1.4</value>
        </genericAmplitude>
        <type>A</type>
        <unit>other</unit>
        <pickID>smi:nakamura81/pick/S12/05785</pickID>
      </amplitude>
      <ns0:moon_event_type>unclassified</ns0:moon_event_type>
    </event>
    <event publicID="smi:nakamura81/event/05843">
      <type>not reported</type>
      <description>
        <text>unclassified</text>
      </description>
      <pick publicID="smi:nakamura81/pick/S12/05843">
        <time>
          <value>1973-02-03T15:33:00.000000Z</value>
          <uncertainty>60.0</uncertainty>
        </time>
        <waveformID networkCode="XA" stationCode="S12" locationCode="" channelCode=""></waveformID>
        <phaseHint>P</phaseHint>
      </pick>
      <amplitude publicID="smi:nakamura81/amplitude/S12/05843">
        <genericAmplitude>
          <value>0.7</value>
        </genericAmplitude>
        <type>A</type>
        <unit>other</unit>
        <pickID>smi:nakamura81/pick/S12/05843</pickID>
      </amplitude>
      <ns0:moon_event_type>unclassified</ns0:moon_event_type>
    </event>
    <event publicID="smi:nakamura81/event/05865">
      <type>not reported</type>
      <description>
        <text>unclassified</text>
      </description>
      <pick publicID="smi:nakamura81/pick/S12/05865">
        <time>
          <value>1973-02-09T15:09:00.000000Z</value>
          <uncertainty>60.0</uncertainty>
        </time>
        <waveformID networkCode="XA" stationCode="S12" locationCode="" channelCode=""></waveformID>
        <phaseHint>P</phaseHint>
      </pick>
      <amplitude publicID="smi:nakamura81/amplitude/S12/05865">
        <genericAmplitude>
          <value>1.1</value>
        </genericAmplitude>
        <type>A</type>
        <unit>other</unit>
        <pickID>smi:nakamura81/pick/S12/05865</pickID>
      </amplitude>
      <ns0:moon_event_type>unclassified</ns0:moon_event_type>
    </event>
    <event publicID="smi:nakamura81/event/05883">
      <type>not reported</type>
      <description>
        <text>unclassified</text>
      </description>
      <pick publicID="smi:nakamura81/pick/S12/05883">
        <time>
          <value>1973-02-10T21:48:00.000000Z</value>
          <uncertainty>60.0</uncertainty>
        </time>
        <waveformID networkCode="XA" stationCode="S12" locationCode="" channelCode=""></waveformID>
        <phaseHint>P</phaseHint>
      </pick>
      <amplitude publicID="smi:nakamura81/amplitude/S12/05883">
        <genericAmplitude>
          <value>1.0</value>
        </genericAmplitude>
        <type>A</type>
        <unit>other</unit>
        <pickID>smi:nakamura81/pick/S12/05883</pickID>
      </amplitude>
      <ns0:moon_event_type>unclassified</ns0:moon_event_type>
    </event>
    <event publicID="smi:nakamura81/event/06114">
      <type>not reported</type>
      <description>
        <text>unclassified</text>
      </description>
      <pick publicID="smi:nakamura81/pick/S12/06114">
        <time>
          <value>1973-03-19T03:38:00.000000Z</value>
          <uncertainty>60.0</uncertainty>
        </time>
        <waveformID networkCode="XA" stationCode="S12" locationCode="" channelCode=""></waveformID>
        <phaseHint>P</phaseHint>
      </pick>
      <amplitude publicID="smi:nakamura81/amplitude/S12/06114">
        <genericAmplitude>
          <value>1.2</value>
        </genericAmplitude>
        <type>A</type>
        <unit>other</unit>
        <pickID>smi:nakamura81/pick/S12/06114</pickID>
      </amplitude>
      <ns0:moon_event_type>unclassified</ns0:moon_event_type>
    </event>
    <event publicID="smi:nakamura81/event/06130">
      <type>not reported</type>
      <description>
        <text>unclassified</text>
      </description>
      <pick publicID="smi:nakamura81/pick/S12/06130">
        <time>
          <value>1973-03-22T17:03:00.000000Z</value>
          <uncertainty>60.0</uncertainty>
        </time>
        <waveformID networkCode="XA" stationCode="S12" locationCode="" channelCode=""></waveformID>
        <phaseHint>P</phaseHint>
      </pick>
      <amplitude publicID="smi:nakamura81/amplitude/S12/06130">
        <genericAmplitude>
          <value>1.0</value>
        </genericAmplitude>
        <type>A</type>
        <unit>other</unit>
        <pickID>smi:nakamura81/pick/S12/06130</pickID>
      </amplitude>
      <ns0:moon_event_type>unclassified</ns0:moon_event_type>
    </event>
    <event publicID="smi:nakamura81/event/06131">
      <type>not reported</type>
      <description>
        <text>unclassified</text>
      </description>
      <pick publicID="smi:nakamura81/pick/S12/06131">
        <time>
          <value>1973-03-22T19:48:00.000000Z</value>
          <uncertainty>60.0</uncertainty>
        </time>
        <waveformID networkCode="XA" stationCode="S12" locationCode="" channelCode=""></waveformID>
        <phaseHint>P</phaseHint>
      </pick>
      <amplitude publicID="smi:nakamura81/amplitude/S12/06131">
        <genericAmplitude>
          <value>1.0</value>
        </genericAmplitude>
        <type>A</type>
        <unit>other</unit>
        <pickID>smi:nakamura81/pick/S12/06131</pickID>
      </amplitude>
      <ns0:moon_event_type>unclassified</ns0:moon_event_type>
    </event>
    <event publicID="smi:nakamura81/event/06133">
      <type>not reported</type>
      <description>
        <text>unclassified</text>
      </description>
      <pick publicID="smi:nakamura81/pick/S12/06133">
        <time>
          <value>1973-03-23T03:22:00.000000Z</value>
          <uncertainty>60.0</uncertainty>
        </time>
        <waveformID networkCode="XA" stationCode="S12" locationCode="" channelCode=""></waveformID>
        <phaseHint>P</phaseHint>
      </pick>
      <amplitude publicID="smi:nakamura81/amplitude/S12/06133">
        <genericAmplitude>
          <value>1.2</value>
        </genericAmplitude>
        <type>A</type>
        <unit>other</unit>
        <pickID>smi:nakamura81/pick/S12/06133</pickID>
      </amplitude>
      <ns0:moon_event_type>unclassified</ns0:moon_event_type>
    </event>
    <event publicID="smi:nakamura81/event/06334">
      <type>not reported</type>
      <description>
        <text>unclassified</text>
      </description>
      <pick publicID="smi:nakamura81/pick/S12/06334">
        <time>
          <value>1973-05-02T23:10:00.000000Z</value>
          <uncertainty>60.0</uncertainty>
        </time>
        <waveformID networkCode="XA" stationCode="S12" locationCode="" channelCode=""></waveformID>
        <phaseHint>P</phaseHint>
      </pick>
      <amplitude publicID="smi:nakamura81/amplitude/S12/06334">
        <genericAmplitude>
          <value>1.0</value>
        </genericAmplitude>
        <type>A</type>
        <unit>other</unit>
        <pickID>smi:nakamura81/pick/S12/06334</pickID>
      </amplitude>
      <ns0:moon_event_type>unclassified</ns0:moon_event_type>
    </event>
    <event publicID="smi:nakamura81/event/06416">
      <type>not reported</type>
      <description>
        <text>unclassified</text>
      </description>
      <pick publicID="smi:nakamura81/pick/S12/06416">
        <time>
          <value>1973-05-17T04:10:00.000000Z</value>
          <uncertainty>60.0</uncertainty>
        </time>
        <waveformID networkCode="XA" stationCode="S12" locationCode="" channelCode=""></waveformID>
        <phaseHint>P</phaseHint>
      </pick>
      <amplitude publicID="smi:nakamura81/amplitude/S12/06416">
        <genericAmplitude>
          <value>1.0</value>
        </genericAmplitude>
        <type>A</type>
        <unit>other</unit>
        <pickID>smi:nakamura81/pick/S12/06416</pickID>
      </amplitude>
      <ns0:moon_event_type>unclassified</ns0:moon_event_type>
    </event>
    <event publicID="smi:nakamura81/event/06432">
      <type>not reported</type>
      <description>
        <text>unclassified</text>
      </description>
      <pick publicID="smi:nakamura81/pick/S12/06432">
        <time>
          <value>1973-05-20T15:51:00.000000Z</value>
          <uncertainty>60.0</uncertainty>
        </time>
        <waveformID networkCode="XA" stationCode="S12" locationCode="" channelCode=""></waveformID>
        <phaseHint>P</phaseHint>
      </pick>
      <amplitude publicID="smi:nakamura81/amplitude/S12/06432">
        <genericAmplitude>
          <value>0.8</value>
        </genericAmplitude>
        <type>A</type>
        <unit>other</unit>
        <pickID>smi:nakamura81/pick/S12/06432</pickID>
      </amplitude>
      <ns0:moon_event_type>unclassified</ns0:moon_event_type>
    </event>
    <event publicID="smi:nakamura81/event/06480">
      <type>not reported</type>
      <description>
        <text>unclassified</text>
      </description>
      <pick publicID="smi:nakamura81/pick/S12/06480">
        <time>
          <value>1973-05-29T04:17:00.000000Z</value>
          <uncertainty>60.0</uncertainty>
        </time>
        <waveformID networkCode="XA" stationCode="S12" locationCode="" channelCode=""></waveformID>
        <phaseHint>P</phaseHint>
      </pick>
      <amplitude publicID="smi:nakamura81/amplitude/S12/06480">
        <genericAmplitude>
          <value>0.5</value>
        </genericAmplitude>
        <type>A</type>
        <unit>other</unit>
        <pickID>smi:nakamura81/pick/S12/06480</pickID>
      </amplitude>
      <ns0:moon_event_type>unclassified</ns0:moon_event_type>
    </event>
    <event publicID="smi:nakamura81/event/06510">
      <type>not reported</type>
      <description>
        <text>unclassified</text>
      </description>
      <pick publicID="smi:nakamura81/pick/S12/06510">
        <time>
          <value>1973-06-02T04:52:00.000000Z</value>
          <uncertainty>60.0</uncertainty>
        </time>
        <waveformID networkCode="XA" stationCode="S12" locationCode="" channelCode=""></waveformID>
        <phaseHint>P</phaseHint>
      </pick>
      <amplitude publicID="smi:nakamura81/amplitude/S12/06510">
        <genericAmplitude>
          <value>1.0</value>
        </genericAmplitude>
        <type>A</type>
        <unit>other</unit>
        <pickID>smi:nakamura81/pick/S12/06510</pickID>
      </amplitude>
      <ns0:moon_event_type>unclassified</ns0:moon_event_type>
    </event>
    <event publicID="smi:nakamura81/event/06643">
      <type>not reported</type>
      <description>
        <text>unclassified</text>
      </description>
      <pick publicID="smi:nakamura81/pick/S12/06643">
        <time>
          <value>1973-07-01T00:56:00.000000Z</value>
          <uncertainty>60.0</uncertainty>
        </time>
        <waveformID networkCode="XA" stationCode="S12" locationCode="" channelCode=""></waveformID>
        <phaseHint>P</phaseHint>
      </pick>
      <amplitude publicID="smi:nakamura81/amplitude/S12/06643">
        <genericAmplitude>
          <value>0.2</value>
        </genericAmplitude>
        <type>A</type>
        <unit>other</unit>
        <pickID>smi:nakamura81/pick/S12/06643</pickID>
      </amplitude>
      <ns0:moon_event_type>unclassified</ns0:moon_event_type>
    </event>
    <event publicID="smi:nakamura81/event/06644">
      <type>not reported</type>
      <description>
        <text>unclassified</text>
      </description>
      <pick publicID="smi:nakamura81/pick/S12/06644">
        <time>
          <value>1973-07-01T01:21:00.000000Z</value>
          <uncertainty>60.0</uncertainty>
        </time>
        <waveformID networkCode="XA" stationCode="S12" locationCode="" channelCode=""></waveformID>
        <phaseHint>P</phaseHint>
      </pick>
      <amplitude publicID="smi:nakamura81/amplitude/S12/06644">
        <genericAmplitude>
          <value>0.3</value>
        </genericAmplitude>
        <type>A</type>
        <unit>other</unit>
        <pickID>smi:nakamura81/pick/S12/06644</pickID>
      </amplitude>
      <ns0:moon_event_type>unclassified</ns0:moon_event_type>
    </event>
    <event publicID="smi:nakamura81/event/06645">
      <type>not reported</type>
      <description>
        <text>unclassified</text>
      </description>
      <pick publicID="smi:nakamura81/pick/S12/06645">
        <time>
          <value>1973-07-01T02:20:00.000000Z</value>
          <uncertainty>60.0</uncertainty>
        </time>
        <waveformID networkCode="XA" stationCode="S12" locationCode="" channelCode=""></waveformID>
        <phaseHint>P</phaseHint>
      </pick>
      <amplitude publicID="smi:nakamura81/amplitude/S12/06645">
        <genericAmplitude>
          <value>0.2</value>
        </genericAmplitude>
        <type>A</type>
        <unit>other</unit>
        <pickID>smi:nakamura81/pick/S12/06645</pickID>
      </amplitude>
      <ns0:moon_event_type>unclassified</ns0:moon_event_type>
    </event>
    <event publicID="smi:nakamura81/event/06696">
      <type>not reported</type>
      <description>
        <text>unclassified</text>
      </description>
      <pick publicID="smi:nakamura81/pick/S12/06696">
        <time>
          <value>1973-07-11T17:18:00.000000Z</value>
          <uncertainty>60.0</uncertainty>
        </time>
        <waveformID networkCode="XA" stationCode="S12" locationCode="" channelCode=""></waveformID>
        <phaseHint>P</phaseHint>
      </pick>
      <amplitude publicID="smi:nakamura81/amplitude/S12/06696">
        <genericAmplitude>
          <value>1.0</value>
