<?xml version='1.0' encoding='utf-8'?>
<q:quakeml xmlns="http://quakeml.org/xmlns/bed/1.2" xmlns:q="http://quakeml.org/xmlns/quakeml/1.2" xmlns:ns0="http://some-page.de/xmlns/0.1">
  <eventParameters publicID="smi:local/1f2f267b-5927-4390-9c6c-be10b15dbd97">
    <event publicID="smi:nakamura81/event/05622">
      <type>not reported</type>
      <description>
        <text>unclassified</text>
      </description>
      <pick publicID="smi:nakamura81/pick/S14/05622">
        <time>
          <value>1973-01-01T19:09:00.000000Z</value>
          <uncertainty>60.0</uncertainty>
        </time>
        <waveformID networkCode="XA" stationCode="S14" locationCode="" channelCode=""></waveformID>
        <phaseHint>P</phaseHint>
      </pick>
      <amplitude publicID="smi:nakamura81/amplitude/S14/05622">
        <genericAmplitude>
          <value>2.0</value>
        </genericAmplitude>
        <type>A</type>
        <unit>other</unit>
        <pickID>smi:nakamura81/pick/S14/05622</pickID>
      </amplitude>
      <ns0:moon_event_type>unclassified</ns0:moon_event_type>
    </event>
    <event publicID="smi:nakamura81/event/05626">
      <type>not reported</type>
      <description>
        <text>unclassified</text>
      </description>
      <pick publicID="smi:nakamura81/pick/S14/05626">
        <time>
          <value>1973-01-02T04:30:00.000000Z</value>
          <uncertainty>60.0</uncertainty>
        </time>
        <waveformID networkCode="XA" stationCode="S14" locationCode="" channelCode=""></waveformID>
        <phaseHint>P</phaseHint>
      </pick>
      <amplitude publicID="smi:nakamura81/amplitude/S14/05626">
        <genericAmplitude>
          <value>2.0</value>
        </genericAmplitude>
        <type>A</type>
        <unit>other</unit>
        <pickID>smi:nakamura81/pick/S14/05626</pickID>
      </amplitude>
      <ns0:moon_event_type>unclassified</ns0:moon_event_type>
    </event>
    <event publicID="smi:nakamura81/event/05627">
      <type>not reported</type>
      <description>
        <text>unclassified</text>
      </description>
      <pick publicID="smi:nakamura81/pick/S14/05627">
        <time>
          <value>1973-01-02T05:22:00.000000Z</value>
          <uncertainty>60.0</uncertainty>
        </time>
        <waveformID networkCode="XA" stationCode="S14" locationCode="" channelCode=""></waveformID>
        <phaseHint>P</phaseHint>
      </pick>
      <amplitude publicID="smi:nakamura81/amplitude/S14/05627">
        <genericAmplitude>
          <value>2.0</value>
        </genericAmplitude>
        <type>A</type>
        <unit>other</unit>
        <pickID>smi:nakamura81/pick/S14/05627</pickID>
      </amplitude>
      <ns0:moon_event_type>unclassified</ns0:moon_event_type>
    </event>
    <event publicID="smi:nakamura81/event/05628">
      <type>not reported</type>
      <description>
        <text>unclassified</text>
      </description>
      <pick publicID="smi:nakamura81/pick/S14/05628">
        <time>
          <value>1973-01-02T07:00:00.000000Z</value>
          <uncertainty>60.0</uncertainty>
        </time>
        <waveformID networkCode="XA" stationCode="S14" locationCode="" channelCode=""></waveformID>
        <phaseHint>P</phaseHint>
      </pick>
      <amplitude publicID="smi:nakamura81/amplitude/S14/05628">
        <genericAmplitude>
          <value>2.0</value>
        </genericAmplitude>
        <type>A</type>
        <unit>other</unit>
        <pickID>smi:nakamura81/pick/S14/05628</pickID>
      </amplitude>
      <ns0:moon_event_type>unclassified</ns0:moon_event_type>
    </event>
    <event publicID="smi:nakamura81/event/05629">
      <type>not reported</type>
      <description>
        <text>unclassified</text>
      </description>
      <pick publicID="smi:nakamura81/pick/S14/05629">
        <time>
          <value>1973-01-02T08:53:00.000000Z</value>
          <uncertainty>60.0</uncertainty>
        </time>
        <waveformID networkCode="XA" stationCode="S14" locationCode="" channelCode=""></waveformID>
        <phaseHint>P</phaseHint>
      </pick>
      <amplitude publicID="smi:nakamura81/amplitude/S14/05629">
        <genericAmplitude>
          <value>2.0</value>
        </genericAmplitude>
        <type>A</type>
        <unit>other</unit>
        <pickID>smi:nakamura81/pick/S14/05629</pickID>
      </amplitude>
      <ns0:moon_event_type>unclassified</ns0:moon_event_type>
    </event>
    <event publicID="smi:nakamura81/event/05630">
      <type>not reported</type>
      <description>
        <text>unclassified</text>
      </description>
      <pick publicID="smi:nakamura81/pick/S14/05630">
        <time>
          <value>1973-01-02T11:33:00.000000Z</value>
          <uncertainty>60.0</uncertainty>
        </time>
        <waveformID networkCode="XA" stationCode="S14" locationCode="" channelCode=""></waveformID>
        <phaseHint>P</phaseHint>
      </pick>
      <amplitude publicID="smi:nakamura81/amplitude/S14/05630">
        <genericAmplitude>
          <value>2.5</value>
        </genericAmplitude>
        <type>A</type>
        <unit>other</unit>
        <pickID>smi:nakamura81/pick/S14/05630</pickID>
      </amplitude>
      <ns0:moon_event_type>unclassified</ns0:moon_event_type>
    </event>
    <event publicID="smi:nakamura81/event/05631">
      <type>not reported</type>
      <description>
        <text>unclassified</text>
      </description>
      <pick publicID="smi:nakamura81/pick/S14/05631">
        <time>
          <value>1973-01-02T12:43:00.000000Z</value>
          <uncertainty>60.0</uncertainty>
        </time>
        <waveformID networkCode="XA" stationCode="S14" locationCode="" channelCode=""></waveformID>
        <phaseHint>P</phaseHint>
      </pick>
      <amplitude publicID="smi:nakamura81/amplitude/S14/05631">
        <genericAmplitude>
          <value>2.1</value>
        </genericAmplitude>
        <type>A</type>
        <unit>other</unit>
        <pickID>smi:nakamura81/pick/S14/05631</pickID>
      </amplitude>
      <ns0:moon_event_type>unclassified</ns0:moon_event_type>
    </event>
    <event publicID="smi:nakamura81/event/05632">
      <type>not reported</type>
      <description>
        <text>unclassified</text>
      </description>
      <pick publicID="smi:nakamura81/pick/S14/05632">
        <time>
          <value>1973-01-02T14:35:00.000000Z</value>
          <uncertainty>60.0</uncertainty>
        </time>
        <waveformID networkCode="XA" stationCode="S14" locationCode="" channelCode=""></waveformID>
        <phaseHint>P</phaseHint>
      </pick>
      <amplitude publicID="smi:nakamura81/amplitude/S14/05632">
        <genericAmplitude>
          <value>2.0</value>
        </genericAmplitude>
        <type>A</type>
        <unit>other</unit>
        <pickID>smi:nakamura81/pick/S14/05632</pickID>
      </amplitude>
      <ns0:moon_event_type>unclassified</ns0:moon_event_type>
    </event>
    <event publicID="smi:nakamura81/event/05636">
      <type>not reported</type>
      <description>
        <text>unclassified</text>
      </description>
      <pick publicID="smi:nakamura81/pick/S14/05636">
        <time>
          <value>1973-01-02T23:09:00.000000Z</value>
          <uncertainty>60.0</uncertainty>
        </time>
        <waveformID networkCode="XA" stationCode="S14" locationCode="" channelCode=""></waveformID>
        <phaseHint>P</phaseHint>
      </pick>
      <amplitude publicID="smi:nakamura81/amplitude/S14/05636">
        <genericAmplitude>
          <value>1.7</value>
        </genericAmplitude>
        <type>A</type>
        <unit>other</unit>
        <pickID>smi:nakamura81/pick/S14/05636</pickID>
      </amplitude>
      <ns0:moon_event_type>unclassified</ns0:moon_event_type>
    </event>
    <event publicID="smi:nakamura81/event/05654">
      <type>not reported</type>
      <description>
        <text>unclassified</text>
      </description>
      <pick publicID="smi:nakamura81/pick/S14/05654">
        <time>
          <value>1973-01-04T07:25:00.000000Z</value>
          <uncertainty>60.0</uncertainty>
        </time>
        <waveformID networkCode="XA" stationCode="S14" locationCode="" channelCode=""></waveformID>
        <phaseHint>P</phaseHint>
      </pick>
      <amplitude publicID="smi:nakamura81/amplitude/S14/05654">
        <genericAmplitude>
          <value>1.5</value>
        </genericAmplitude>
        <type>A</type>
        <unit>other</unit>
        <pickID>smi:nakamura81/pick/S14/05654</pickID>
      </amplitude>
      <ns0:moon_event_type>unclassified</ns0:moon_event_type>
    </event>
    <event publicID="smi:nakamura81/event/05678">
      <type>not reported</type>
      <description>
        <text>unclassified</text>
      </description>
      <pick publicID="smi:nakamura81/pick/S14/05678">
        <time>
          <value>1973-01-06T21:12:00.000000Z</value>
          <uncertainty>60.0</uncertainty>
        </time>
        <waveformID networkCode="XA" stationCode="S14" locationCode="" channelCode=""></waveformID>
        <phaseHint>P</phaseHint>
      </pick>
      <amplitude publicID="smi:nakamura81/amplitude/S14/05678">
        <genericAmplitude>
          <value>1.7</value>
        </genericAmplitude>
        <type>A</type>
        <unit>other</unit>
        <pickID>smi:nakamura81/pick/S14/05678</pickID>
      </amplitude>
      <ns0:moon_event_type>unclassified</ns0:moon_event_type>
    </event>
    <event publicID="smi:nakamura81/event/05685">
      <type>not reported</type>
      <description>
        <text>unclassified</text>
      </description>
      <pick publicID="smi:nakamura81/pick/S14/05685">
        <time>
          <value>1973-01-08T02:08:00.000000Z</value>
          <uncertainty>60.0</uncertainty>
        </time>
        <waveformID networkCode="XA" stationCode="S14" locationCode="" channelCode=""></waveformID>
        <phaseHint>P</phaseHint>
      </pick>
      <amplitude publicID="smi:nakamura81/amplitude/S14/05685">
        <genericAmplitude>
          <value>1.3</value>
        </genericAmplitude>
        <type>A</type>
        <unit>other</unit>
        <pickID>smi:nakamura81/pick/S14/05685</pickID>
      </amplitude>
      <ns0:moon_event_type>unclassified</ns0:moon_event_type>
    </event>
    <event publicID="smi:nakamura81/event/05695">
      <type>not reported</type>
      <description>
        <text>unclassified</text>
      </description>
      <pick publicID="smi:nakamura81/pick/S14/05695">
        <time>
          <value>1973-01-11T11:12:00.000000Z</value>
          <uncertainty>60.0</uncertainty>
        </time>
        <waveformID networkCode="XA" stationCode="S14" locationCode="" channelCode=""></waveformID>
        <phaseHint>P</phaseHint>
      </pick>
      <amplitude publicID="smi:nakamura81/amplitude/S14/05695">
        <genericAmplitude>
          <value>1.7</value>
        </genericAmplitude>
        <type>A</type>
        <unit>other</unit>
        <pickID>smi:nakamura81/pick/S14/05695</pickID>
      </amplitude>
      <ns0:moon_event_type>unclassified</ns0:moon_event_type>
    </event>
    <event publicID="smi:nakamura81/event/05699">
      <type>not reported</type>
      <description>
        <text>unclassified</text>
      </description>
      <pick publicID="smi:nakamura81/pick/S14/05699">
        <time>
          <value>1973-01-11T23:11:00.000000Z</value>
          <uncertainty>60.0</uncertainty>
        </time>
        <waveformID networkCode="XA" stationCode="S14" locationCode="" channelCode=""></waveformID>
        <phaseHint>P</phaseHint>
      </pick>
      <amplitude publicID="smi:nakamura81/amplitude/S14/05699">
        <genericAmplitude>
          <value>1.4</value>
        </genericAmplitude>
        <type>A</type>
        <unit>other</unit>
        <pickID>smi:nakamura81/pick/S14/05699</pickID>
      </amplitude>
      <ns0:moon_event_type>unclassified</ns0:moon_event_type>
    </event>
    <event publicID="smi:nakamura81/event/05702">
      <type>not reported</type>
      <description>
        <text>unclassified</text>
      </description>
      <pick publicID="smi:nakamura81/pick/S14/05702">
        <time>
          <value>1973-01-12T08:22:00.000000Z</value>
          <uncertainty>60.0</uncertainty>
        </time>
        <waveformID networkCode="XA" stationCode="S14" locationCode="" channelCode=""></waveformID>
        <phaseHint>P</phaseHint>
      </pick>
      <amplitude publicID="smi:nakamura81/amplitude/S14/05702">
        <genericAmplitude>
          <value>1.9</value>
        </genericAmplitude>
        <type>A</type>
        <unit>other</unit>
        <pickID>smi:nakamura81/pick/S14/05702</pickID>
      </amplitude>
      <ns0:moon_event_type>unclassified</ns0:moon_event_type>
    </event>
    <event publicID="smi:nakamura81/event/05704">
      <type>not reported</type>
      <description>
        <text>unclassified</text>
      </description>
      <pick publicID="smi:nakamura81/pick/S14/05704">
        <time>
          <value>1973-01-12T11:32:00.000000Z</value>
          <uncertainty>60.0</uncertainty>
        </time>
        <waveformID networkCode="XA" stationCode="S14" locationCode="" channelCode=""></waveformID>
        <phaseHint>P</phaseHint>
      </pick>
      <amplitude publicID="smi:nakamura81/amplitude/S14/05704">
        <genericAmplitude>
          <value>1.7</value>
        </genericAmplitude>
        <type>A</type>
        <unit>other</unit>
        <pickID>smi:nakamura81/pick/S14/05704</pickID>
      </amplitude>
      <ns0:moon_event_type>unclassified</ns0:moon_event_type>
    </event>
    <event publicID="smi:nakamura81/event/05740">
      <type>not reported</type>
      <description>
        <text>unclassified</text>
      </description>
      <pick publicID="smi:nakamura81/pick/S14/05740">
        <time>
          <value>1973-01-16T09:48:00.000000Z</value>
          <uncertainty>60.0</uncertainty>
        </time>
        <waveformID networkCode="XA" stationCode="S14" locationCode="" channelCode=""></waveformID>
        <phaseHint>P</phaseHint>
      </pick>
      <amplitude publicID="smi:nakamura81/amplitude/S14/05740">
        <genericAmplitude>
          <value>3.4</value>
        </genericAmplitude>
        <type>A</type>
        <unit>other</unit>
        <pickID>smi:nakamura81/pick/S14/05740</pickID>
      </amplitude>
      <ns0:moon_event_type>unclassified</ns0:moon_event_type>
    </event>
    <event publicID="smi:nakamura81/event/05753">
      <type>not reported</type>
      <description>
        <text>unclassified</text>
      </description>
      <pick publicID="smi:nakamura81/pick/S14/05753">
        <time>
          <value>1973-01-17T13:55:00.000000Z</value>
          <uncertainty>60.0</uncertainty>
        </time>
        <waveformID networkCode="XA" stationCode="S14" locationCode="" channelCode=""></waveformID>
        <phaseHint>P</phaseHint>
        <comment id="smi:nakamura81/pick/comment/S14/05753">
          <text>noisy data</text>
        </comment>
      </pick>
      <amplitude publicID="smi:nakamura81/amplitude/S14/05753">
        <genericAmplitude>
          <value>2.0</value>
        </genericAmplitude>
        <type>A</type>
        <unit>other</unit>
        <pickID>smi:nakamura81/pick/S14/05753</pickID>
      </amplitude>
      <ns0:moon_event_type>unclassified</ns0:moon_event_type>
    </event>
    <event publicID="smi:nakamura81/event/05755">
      <type>not reported</type>
      <description>
        <text>unclassified</text>
      </description>
      <pick publicID="smi:nakamura81/pick/S14/05755">
        <time>
          <value>1973-01-18T18:15:00.000000Z</value>
          <uncertainty>60.0</uncertainty>
        </time>
        <waveformID networkCode="XA" stationCode="S14" locationCode="" channelCode=""></waveformID>
        <phaseHint>P</phaseHint>
      </pick>
      <amplitude publicID="smi:nakamura81/amplitude/S14/05755">
        <genericAmplitude>
          <value>4.2</value>
        </genericAmplitude>
        <type>A</type>
        <unit>other</unit>
        <pickID>smi:nakamura81/pick/S14/05755</pickID>
      </amplitude>
      <ns0:moon_event_type>unclassified</ns0:moon_event_type>
    </event>
    <event publicID="smi:nakamura81/event/05770">
      <type>not reported</type>
      <description>
        <text>unclassified</text>
      </description>
      <pick publicID="smi:nakamura81/pick/S14/05770">
        <time>
          <value>1973-01-20T07:39:00.000000Z</value>
          <uncertainty>60.0</uncertainty>
        </time>
        <waveformID networkCode="XA" stationCode="S14" locationCode="" channelCode=""></waveformID>
        <phaseHint>P</phaseHint>
      </pick>
      <amplitude publicID="smi:nakamura81/amplitude/S14/05770">
        <genericAmplitude>
          <value>3.5</value>
        </genericAmplitude>
        <type>A</type>
        <unit>other</unit>
        <pickID>smi:nakamura81/pick/S14/05770</pickID>
      </amplitude>
      <ns0:moon_event_type>unclassified</ns0:moon_event_type>
    </event>
    <event publicID="smi:nakamura81/event/05772">
      <type>not reported</type>
      <description>
        <text>unclassified</text>
      </description>
      <pick publicID="smi:nakamura81/pick/S14/05772">
        <time>
          <value>1973-01-20T11:33:00.000000Z</value>
          <uncertainty>60.0</uncertainty>
        </time>
        <waveformID networkCode="XA" stationCode="S14" locationCode="" channelCode=""></waveformID>
        <phaseHint>P</phaseHint>
      </pick>
      <amplitude publicID="smi:nakamura81/amplitude/S14/05772">
        <genericAmplitude>
          <value>1.9</value>
        </genericAmplitude>
        <type>A</type>
        <unit>other</unit>
        <pickID>smi:nakamura81/pick/S14/05772</pickID>
      </amplitude>
      <ns0:moon_event_type>unclassified</ns0:moon_event_type>
    </event>
    <event publicID="smi:nakamura81/event/05785">
      <type>not reported</type>
      <description>
        <text>unclassified</text>
      </description>
      <pick publicID="smi:nakamura81/pick/S14/05785">
        <time>
          <value>1973-01-23T06:11:00.000000Z</value>
          <uncertainty>60.0</uncertainty>
        </time>
        <waveformID networkCode="XA" stationCode="S14" locationCode="" channelCode=""></waveformID>
        <phaseHint>P</phaseHint>
      </pick>
      <amplitude publicID="smi:nakamura81/amplitude/S14/05785">
        <genericAmplitude>
          <value>3.8</value>
        </genericAmplitude>
        <type>A</type>
        <unit>other</unit>
        <pickID>smi:nakamura81/pick/S14/05785</pickID>
      </amplitude>
      <ns0:moon_event_type>unclassified</ns0:moon_event_type>
    </event>
    <event publicID="smi:nakamura81/event/05786">
      <type>not reported</type>
      <description>
        <text>unclassified</text>
      </description>
      <pick publicID="smi:nakamura81/pick/S14/05786">
        <time>
          <value>1973-01-23T17:25:00.000000Z</value>
          <uncertainty>60.0</uncertainty>
        </time>
        <waveformID networkCode="XA" stationCode="S14" locationCode="" channelCode=""></waveformID>
        <phaseHint>P</phaseHint>
        <comment id="smi:nakamura81/pick/comment/S14/05786">
          <text>noisy data</text>
        </comment>
      </pick>
      <amplitude publicID="smi:nakamura81/amplitude/S14/05786">
        <genericAmplitude>
          <value>2.1</value>
        </genericAmplitude>
        <type>A</type>
        <unit>other</unit>
        <pickID>smi:nakamura81/pick/S14/05786</pickID>
      </amplitude>
      <ns0:moon_event_type>unclassified</ns0:moon_event_type>
    </event>
    <event publicID="smi:nakamura81/event/05793">
      <type>not reported</type>
      <description>
        <text>unclassified</text>
      </description>
      <pick publicID="smi:nakamura81/pick/S14/05793">
        <time>
          <value>1973-01-26T04:50:00.000000Z</value>
          <uncertainty>60.0</uncertainty>
        </time>
