<?xml version='1.0' encoding='utf-8'?>
<q:quakeml xmlns="http://quakeml.org/xmlns/bed/1.2" xmlns:q="http://quakeml.org/xmlns/quakeml/1.2" xmlns:ns0="http://some-page.de/xmlns/0.1" xmlns:ns1="http://some-page.de/xmlns/1.0">
  <eventParameters publicID="smi:local/a007469a-7f80-4093-a8fc-ed6bf15278e5">
    <event publicID="smi:nakamura81/event/08625">
      <type>earthquake</type>
      <description>
        <text>deep moonquake</text>
      </description>
      <comment id="smi:nakamura81/event/comment/bulow07/08625">
        <text>bulow_moonquake: A34</text>
      </comment>
      <pick publicID="smi:nakamura81/pick/S12/08625">
        <time>
          <value>1974-10-20T23:20:00.000000Z</value>
          <uncertainty>60.0</uncertainty>
        </time>
        <waveformID networkCode="XA" stationCode="S12" locationCode="" channelCode=""></waveformID>
        <phaseHint>P</phaseHint>
        <ns1:bulow_moonquake>A34</ns1:bulow_moonquake>
      </pick>
      <amplitude publicID="smi:nakamura81/amplitude/S12/08625">
        <genericAmplitude>
          <value>0.8</value>
        </genericAmplitude>
        <type>A</type>
        <unit>other</unit>
        <pickID>smi:nakamura81/pick/S12/08625</pickID>
      </amplitude>
      <ns0:moon_event_type>deep moonquake</ns0:moon_event_type>
    </event>
    <event publicID="smi:nakamura81/event/08655">
      <type>earthquake</type>
      <description>
        <text>deep moonquake</text>
      </description>
      <comment id="smi:nakamura81/event/comment/bulow07/08655">
        <text>bulow_moonquake: A42</text>
      </comment>
      <pick publicID="smi:nakamura81/pick/S12/08655">
        <time>
          <value>1974-10-28T14:29:00.000000Z</value>
          <uncertainty>60.0</uncertainty>
        </time>
        <waveformID networkCode="XA" stationCode="S12" locationCode="" channelCode=""></waveformID>
        <phaseHint>P</phaseHint>
        <ns1:bulow_moonquake>A42</ns1:bulow_moonquake>
      </pick>
      <amplitude publicID="smi:nakamura81/amplitude/S12/08655">
        <genericAmplitude>
          <value>0.5</value>
        </genericAmplitude>
        <type>A</type>
        <unit>other</unit>
        <pickID>smi:nakamura81/pick/S12/08655</pickID>
      </amplitude>
      <ns0:moon_event_type>deep moonquake</ns0:moon_event_type>
    </event>
    <event publicID="smi:nakamura81/event/08668">
      <type>earthquake</type>
      <description>
        <text>deep moonquake</text>
      </description>
      <comment id="smi:nakamura81/event/comment/bulow07/08668">
        <text>bulow_moonquake: A9</text>
      </comment>
      <pick publicID="smi:nakamura81/pick/S12/08668">
        <time>
          <value>1974-10-30T11:23:00.000000Z</value>
          <uncertainty>60.0</uncertainty>
        </time>
        <waveformID networkCode="XA" stationCode="S12" locationCode="" channelCode=""></waveformID>
        <phaseHint>P</phaseHint>
        <ns1:bulow_moonquake>A9</ns1:bulow_moonquake>
      </pick>
      <amplitude publicID="smi:nakamura81/amplitude/S12/08668">
        <genericAmplitude>
          <value>1.0</value>
        </genericAmplitude>
        <type>A</type>
        <unit>other</unit>
        <pickID>smi:nakamura81/pick/S12/08668</pickID>
      </amplitude>
      <ns0:moon_event_type>deep moonquake</ns0:moon_event_type>
    </event>
    <event publicID="smi:nakamura81/event/08673">
      <type>earthquake</type>
      <description>
        <text>deep moonquake</text>
      </description>
      <comment id="smi:nakamura81/event/comment/bulow07/08673">
        <text>bulow_moonquake: A6</text>
      </comment>
      <pick publicID="smi:nakamura81/pick/S12/08673">
        <time>
          <value>1974-10-31T09:44:00.000000Z</value>
          <uncertainty>60.0</uncertainty>
        </time>
        <waveformID networkCode="XA" stationCode="S12" locationCode="" channelCode=""></waveformID>
        <phaseHint>P</phaseHint>
        <ns1:bulow_moonquake>A6</ns1:bulow_moonquake>
      </pick>
      <amplitude publicID="smi:nakamura81/amplitude/S12/08673">
        <genericAmplitude>
          <value>-1.0</value>
        </genericAmplitude>
        <type>A</type>
        <unit>other</unit>
        <pickID>smi:nakamura81/pick/S12/08673</pickID>
      </amplitude>
      <ns0:moon_event_type>deep moonquake</ns0:moon_event_type>
    </event>
    <event publicID="smi:nakamura81/event/08680">
      <type>earthquake</type>
      <description>
        <text>deep moonquake</text>
      </description>
      <comment id="smi:nakamura81/event/comment/bulow07/08680">
        <text>bulow_moonquake: A41</text>
      </comment>
      <pick publicID="smi:nakamura81/pick/S12/08680">
        <time>
          <value>1974-11-03T12:52:00.000000Z</value>
          <uncertainty>60.0</uncertainty>
        </time>
        <waveformID networkCode="XA" stationCode="S12" locationCode="" channelCode=""></waveformID>
        <phaseHint>P</phaseHint>
        <ns1:bulow_moonquake>A41</ns1:bulow_moonquake>
      </pick>
      <amplitude publicID="smi:nakamura81/amplitude/S12/08680">
        <genericAmplitude>
          <value>1.0</value>
        </genericAmplitude>
        <type>A</type>
        <unit>other</unit>
        <pickID>smi:nakamura81/pick/S12/08680</pickID>
      </amplitude>
      <ns0:moon_event_type>deep moonquake</ns0:moon_event_type>
    </event>
    <event publicID="smi:nakamura81/event/08682">
      <type>earthquake</type>
      <description>
        <text>deep moonquake</text>
      </description>
      <comment id="smi:nakamura81/event/comment/bulow07/08682">
        <text>bulow_moonquake: A20</text>
      </comment>
      <pick publicID="smi:nakamura81/pick/S12/08682">
        <time>
          <value>1974-11-04T00:06:00.000000Z</value>
          <uncertainty>60.0</uncertainty>
        </time>
        <waveformID networkCode="XA" stationCode="S12" locationCode="" channelCode=""></waveformID>
        <phaseHint>P</phaseHint>
        <ns1:bulow_moonquake>A20</ns1:bulow_moonquake>
      </pick>
      <amplitude publicID="smi:nakamura81/amplitude/S12/08682">
        <genericAmplitude>
          <value>1.1</value>
        </genericAmplitude>
        <type>A</type>
        <unit>other</unit>
        <pickID>smi:nakamura81/pick/S12/08682</pickID>
      </amplitude>
      <ns0:moon_event_type>deep moonquake</ns0:moon_event_type>
    </event>
    <event publicID="smi:nakamura81/event/08701">
      <type>earthquake</type>
      <description>
        <text>deep moonquake</text>
      </description>
      <comment id="smi:nakamura81/event/comment/bulow07/08701">
        <text>bulow_moonquake: A14</text>
      </comment>
      <pick publicID="smi:nakamura81/pick/S12/08701">
        <time>
          <value>1974-11-10T21:39:00.000000Z</value>
          <uncertainty>60.0</uncertainty>
        </time>
        <waveformID networkCode="XA" stationCode="S12" locationCode="" channelCode=""></waveformID>
        <phaseHint>P</phaseHint>
        <ns1:bulow_moonquake>A14</ns1:bulow_moonquake>
      </pick>
      <amplitude publicID="smi:nakamura81/amplitude/S12/08701">
        <genericAmplitude>
          <value>0.7</value>
        </genericAmplitude>
        <type>A</type>
        <unit>other</unit>
        <pickID>smi:nakamura81/pick/S12/08701</pickID>
      </amplitude>
      <ns0:moon_event_type>deep moonquake</ns0:moon_event_type>
    </event>
    <event publicID="smi:nakamura81/event/08706">
      <type>earthquake</type>
      <description>
        <text>deep moonquake</text>
      </description>
      <comment id="smi:nakamura81/event/comment/nakamura81/08706">
        <text/>
      </comment>
      <comment id="smi:nakamura81/event/comment/bulow07/08706">
        <text>bulow_moonquake: A1</text>
      </comment>
      <pick publicID="smi:nakamura81/pick/S12/08706">
        <time>
          <value>1974-11-11T12:14:00.000000Z</value>
          <uncertainty>60.0</uncertainty>
        </time>
        <waveformID networkCode="XA" stationCode="S12" locationCode="" channelCode=""></waveformID>
        <phaseHint>P</phaseHint>
        <ns1:bulow_moonquake>A1</ns1:bulow_moonquake>
        <ns1:nakamura_moonquake>A01</ns1:nakamura_moonquake>
      </pick>
      <amplitude publicID="smi:nakamura81/amplitude/S12/08706">
        <genericAmplitude>
          <value>1.5</value>
        </genericAmplitude>
        <type>A</type>
        <unit>other</unit>
        <pickID>smi:nakamura81/pick/S12/08706</pickID>
      </amplitude>
      <ns0:moon_event_type>deep moonquake</ns0:moon_event_type>
    </event>
    <event publicID="smi:nakamura81/event/08718">
      <type>earthquake</type>
      <description>
        <text>deep moonquake</text>
      </description>
      <comment id="smi:nakamura81/event/comment/nakamura81/08718">
        <text/>
      </comment>
      <comment id="smi:nakamura81/event/comment/bulow07/08718">
        <text>bulow_moonquake: A1</text>
      </comment>
      <pick publicID="smi:nakamura81/pick/S12/08718">
        <time>
          <value>1974-11-13T03:58:00.000000Z</value>
          <uncertainty>60.0</uncertainty>
        </time>
        <waveformID networkCode="XA" stationCode="S12" locationCode="" channelCode=""></waveformID>
        <phaseHint>P</phaseHint>
        <ns1:bulow_moonquake>A1</ns1:bulow_moonquake>
        <ns1:nakamura_moonquake>A01</ns1:nakamura_moonquake>
      </pick>
      <amplitude publicID="smi:nakamura81/amplitude/S12/08718">
        <genericAmplitude>
          <value>1.5</value>
        </genericAmplitude>
        <type>A</type>
        <unit>other</unit>
        <pickID>smi:nakamura81/pick/S12/08718</pickID>
      </amplitude>
      <ns0:moon_event_type>deep moonquake</ns0:moon_event_type>
    </event>
    <event publicID="smi:nakamura81/event/08747">
      <type>earthquake</type>
      <description>
        <text>deep moonquake</text>
      </description>
      <comment id="smi:nakamura81/event/comment/nakamura81/08747">
        <text/>
      </comment>
      <pick publicID="smi:nakamura81/pick/S12/08747">
        <time>
          <value>1974-11-20T06:05:00.000000Z</value>
          <uncertainty>60.0</uncertainty>
        </time>
        <waveformID networkCode="XA" stationCode="S12" locationCode="" channelCode=""></waveformID>
        <phaseHint>P</phaseHint>
        <ns1:nakamura_moonquake>A33</ns1:nakamura_moonquake>
      </pick>
      <amplitude publicID="smi:nakamura81/amplitude/S12/08747">
        <genericAmplitude>
          <value>0.6</value>
        </genericAmplitude>
        <type>A</type>
        <unit>other</unit>
        <pickID>smi:nakamura81/pick/S12/08747</pickID>
      </amplitude>
      <ns0:moon_event_type>deep moonquake</ns0:moon_event_type>
    </event>
    <event publicID="smi:nakamura81/event/08766">
      <type>earthquake</type>
      <description>
        <text>deep moonquake</text>
      </description>
      <comment id="smi:nakamura81/event/comment/bulow07/08766">
        <text>bulow_moonquake: A42</text>
      </comment>
      <pick publicID="smi:nakamura81/pick/S12/08766">
        <time>
          <value>1974-11-25T09:12:00.000000Z</value>
          <uncertainty>60.0</uncertainty>
        </time>
        <waveformID networkCode="XA" stationCode="S12" locationCode="" channelCode=""></waveformID>
        <phaseHint>P</phaseHint>
        <ns1:bulow_moonquake>A42</ns1:bulow_moonquake>
      </pick>
      <amplitude publicID="smi:nakamura81/amplitude/S12/08766">
        <genericAmplitude>
          <value>0.7</value>
        </genericAmplitude>
        <type>A</type>
        <unit>other</unit>
        <pickID>smi:nakamura81/pick/S12/08766</pickID>
      </amplitude>
      <ns0:moon_event_type>deep moonquake</ns0:moon_event_type>
    </event>
    <event publicID="smi:nakamura81/event/08769">
      <type>earthquake</type>
      <description>
        <text>deep moonquake</text>
      </description>
      <comment id="smi:nakamura81/event/comment/bulow07/08769">
        <text>bulow_moonquake: A64</text>
      </comment>
      <pick publicID="smi:nakamura81/pick/S12/08769">
        <time>
          <value>1974-11-26T23:07:00.000000Z</value>
          <uncertainty>60.0</uncertainty>
        </time>
        <waveformID networkCode="XA" stationCode="S12" locationCode="" channelCode=""></waveformID>
        <phaseHint>P</phaseHint>
        <ns1:bulow_moonquake>A64</ns1:bulow_moonquake>
      </pick>
      <amplitude publicID="smi:nakamura81/amplitude/S12/08769">
        <genericAmplitude>
          <value>0.8</value>
        </genericAmplitude>
        <type>A</type>
        <unit>other</unit>
        <pickID>smi:nakamura81/pick/S12/08769</pickID>
      </amplitude>
      <ns0:moon_event_type>deep moonquake</ns0:moon_event_type>
    </event>
    <event publicID="smi:nakamura81/event/08772">
      <type>earthquake</type>
      <description>
        <text>deep moonquake</text>
      </description>
      <comment id="smi:nakamura81/event/comment/08772">
        <text>C NO SP</text>
      </comment>
      <comment id="smi:nakamura81/event/comment/bulow07/08772">
        <text>bulow_moonquake: A60</text>
      </comment>
      <pick publicID="smi:nakamura81/pick/S12/08772">
        <time>
          <value>1974-11-27T12:42:00.000000Z</value>
          <uncertainty>60.0</uncertainty>
        </time>
        <waveformID networkCode="XA" stationCode="S12" locationCode="" channelCode=""></waveformID>
        <phaseHint>P</phaseHint>
        <ns1:bulow_moonquake>A60</ns1:bulow_moonquake>
      </pick>
      <amplitude publicID="smi:nakamura81/amplitude/S12/08772">
        <genericAmplitude>
          <value>0.7</value>
        </genericAmplitude>
        <type>A</type>
        <unit>other</unit>
        <pickID>smi:nakamura81/pick/S12/08772</pickID>
      </amplitude>
      <ns0:moon_event_type>deep moonquake</ns0:moon_event_type>
    </event>
    <event publicID="smi:nakamura81/event/08778">
      <type>earthquake</type>
      <description>
        <text>deep moonquake</text>
      </description>
      <comment id="smi:nakamura81/event/comment/nakamura81/08778">
        <text/>
      </comment>
      <comment id="smi:nakamura81/event/comment/bulow07/08778">
        <text>bulow_moonquake: A20</text>
      </comment>
      <pick publicID="smi:nakamura81/pick/S12/08778">
        <time>
          <value>1974-11-30T16:23:00.000000Z</value>
          <uncertainty>60.0</uncertainty>
        </time>
        <waveformID networkCode="XA" stationCode="S12" locationCode="" channelCode=""></waveformID>
        <phaseHint>P</phaseHint>
        <ns1:bulow_moonquake>A20</ns1:bulow_moonquake>
        <ns1:nakamura_moonquake>A20</ns1:nakamura_moonquake>
      </pick>
      <amplitude publicID="smi:nakamura81/amplitude/S12/08778">
        <genericAmplitude>
          <value>0.9</value>
        </genericAmplitude>
        <type>A</type>
        <unit>other</unit>
        <pickID>smi:nakamura81/pick/S12/08778</pickID>
      </amplitude>
      <ns0:moon_event_type>deep moonquake</ns0:moon_event_type>
    </event>
    <event publicID="smi:nakamura81/event/08792">
      <type>earthquake</type>
      <description>
        <text>deep moonquake</text>
      </description>
      <comment id="smi:nakamura81/event/comment/08792">
        <text>M</text>
      </comment>
      <comment id="smi:nakamura81/event/comment/nakamura81/08792">
        <text/>
      </comment>
      <comment id="smi:nakamura81/event/comment/bulow07/08792">
        <text>bulow_moonquake: A1</text>
      </comment>
      <pick publicID="smi:nakamura81/pick/S12/08792">
        <time>
          <value>1974-12-08T04:50:00.000000Z</value>
          <uncertainty>60.0</uncertainty>
        </time>
        <waveformID networkCode="XA" stationCode="S12" locationCode="" channelCode=""></waveformID>
        <phaseHint>P</phaseHint>
        <ns1:bulow_moonquake>A1</ns1:bulow_moonquake>
        <ns1:nakamura_moonquake>A01</ns1:nakamura_moonquake>
      </pick>
      <amplitude publicID="smi:nakamura81/amplitude/S12/08792">
        <genericAmplitude>
          <value>1.0</value>
        </genericAmplitude>
        <type>A</type>
        <unit>other</unit>
        <pickID>smi:nakamura81/pick/S12/08792</pickID>
      </amplitude>
      <ns0:moon_event_type>deep moonquake</ns0:moon_event_type>
    </event>
    <event publicID="smi:nakamura81/event/08795">
      <type>earthquake</type>
      <description>
        <text>deep moonquake</text>
      </description>
      <comment id="smi:nakamura81/event/comment/bulow07/08795">
        <text>bulow_moonquake: A218</text>
      </comment>
      <pick publicID="smi:nakamura81/pick/S12/08795">
        <time>
          <value>1974-12-08T20:13:00.000000Z</value>
          <uncertainty>60.0</uncertainty>
        </time>
        <waveformID networkCode="XA" stationCode="S12" locationCode="" channelCode=""></waveformID>
        <phaseHint>P</phaseHint>
        <ns1:bulow_moonquake>A218</ns1:bulow_moonquake>
      </pick>
      <amplitude publicID="smi:nakamura81/amplitude/S12/08795">
        <genericAmplitude>
          <value>1.0</value>
        </genericAmplitude>
        <type>A</type>
        <unit>other</unit>
        <pickID>smi:nakamura81/pick/S12/08795</pickID>
      </amplitude>
      <ns0:moon_event_type>deep moonquake</ns0:moon_event_type>
    </event>
    <event publicID="smi:nakamura81/event/08801">
      <type>earthquake</type>
      <description>
        <text>deep moonquake</text>
      </description>
      <comment id="smi:nakamura81/event/comment/bulow07/08801">
        <text>bulow_moonquake: A5</text>
      </comment>
      <pick publicID="smi:nakamura81/pick/S12/08801">
        <time>
          <value>1974-12-09T08:35:00.000000Z</value>
          <uncertainty>60.0</uncertainty>
        </time>
        <waveformID networkCode="XA" stationCode="S12" locationCode="" channelCode=""></waveformID>
        <phaseHint>P</phaseHint>
        <ns1:bulow_moonquake>A5</ns1:bulow_moonquake>
      </pick>
      <amplitude publicID="smi:nakamura81/amplitude/S12/08801">
        <genericAmplitude>
          <value>0.5</value>
        </genericAmplitude>
        <type>A</type>
        <unit>other</unit>
        <pickID>smi:nakamura81/pick/S12/08801</pickID>
      </amplitude>
      <ns0:moon_event_type>deep moonquake</ns0:moon_event_type>
    </event>
    <event publicID="smi:nakamura81/event/08806">
      <type>earthquake</type>
      <description>
        <text>deep moonquake</text>
      </description>
      <comment id="smi:nakamura81/event/comment/08806">
        <text>S @ ALL STA, OLD A46</text>
      </comment>
      <comment id="smi:nakamura81/event/comment/nakamura81/08806">
        <text/>
      </comment>
      <comment id="smi:nakamura81/event/comment/bulow07/08806">
        <text>bulow_moonquake: A1</text>
      </comment>
      <pick publicID="smi:nakamura81/pick/S12/08806">
        <time>
          <value>1974-12-09T23:46:00.000000Z</value>
          <uncertainty>60.0</uncertainty>
        </time>
        <waveformID networkCode="XA" stationCode="S12" locationCode="" channelCode=""></waveformID>
        <phaseHint>P</phaseHint>
        <ns1:bulow_moonquake>A1</ns1:bulow_moonquake>
        <ns1:nakamura_moonquake>A01</ns1:nakamura_moonquake>
      </pick>
      <amplitude publicID="smi:nakamura81/amplitude/S12/08806">
        <genericAmplitude>
          <value>1.0</value>
        </genericAmplitude>
        <type>A</type>
        <unit>other</unit>
        <pickID>smi:nakamura81/pick/S12/08806</pickID>
      </amplitude>
      <ns0:moon_event_type>deep moonquake</ns0:moon_event_type>
    </event>
    <event publicID="smi:nakamura81/event/08862">
      <type>earthquake</type>
      <description>
        <text>deep moonquake</text>
      </description>
      <comment id="smi:nakamura81/event/comment/bulow07/08862">
        <text>bulow_moonquake: A8</text>
      </comment>
      <pick publicID="smi:nakamura81/pick/S12/08862">
        <time>
          <value>1974-12-23T02:03:00.000000Z</value>
