<?xml version='1.0' encoding='utf-8'?>
<q:quakeml xmlns="http://quakeml.org/xmlns/bed/1.2" xmlns:q="http://quakeml.org/xmlns/quakeml/1.2" xmlns:ns0="http://some-page.de/xmlns/0.1">
  <eventParameters publicID="smi:local/03ee7df9-ffa0-4ce1-843f-f2866c1db57f">
    <event publicID="smi:nakamura81/event/08889">
      <type>earthquake</type>
      <description>
        <text>shallow moonquake</text>
      </description>
      <comment id="smi:nakamura81/event/comment/08889">
        <text>SPZ=200,130,90@14,15,16</text>
      </comment>
      <pick publicID="smi:nakamura81/pick/S12/08889">
        <time>
          <value>1975-01-03T01:47:00.000000Z</value>
          <uncertainty>60.0</uncertainty>
        </time>
        <waveformID networkCode="XA" stationCode="S12" locationCode="" channelCode=""></waveformID>
        <phaseHint>P</phaseHint>
      </pick>
      <amplitude publicID="smi:nakamura81/amplitude/S12/08889">
        <genericAmplitude>
          <value>70.0</value>
        </genericAmplitude>
        <type>A</type>
        <unit>other</unit>
        <pickID>smi:nakamura81/pick/S12/08889</pickID>
      </amplitude>
      <ns0:moon_event_type>shallow moonquake</ns0:moon_event_type>
    </event>
    <event publicID="smi:nakamura81/event/08913">
      <type>earthquake</type>
      <description>
        <text>shallow moonquake</text>
      </description>
      <comment id="smi:nakamura81/event/comment/08913">
        <text>SPZ=13,39,13@14,15,16</text>
      </comment>
      <pick publicID="smi:nakamura81/pick/S12/08913">
        <time>
          <value>1975-01-12T03:17:00.000000Z</value>
          <uncertainty>60.0</uncertainty>
        </time>
        <waveformID networkCode="XA" stationCode="S12" locationCode="" channelCode=""></waveformID>
        <phaseHint>P</phaseHint>
      </pick>
      <amplitude publicID="smi:nakamura81/amplitude/S12/08913">
        <genericAmplitude>
          <value>1.0</value>
        </genericAmplitude>
        <type>A</type>
        <unit>other</unit>
        <pickID>smi:nakamura81/pick/S12/08913</pickID>
      </amplitude>
      <ns0:moon_event_type>shallow moonquake</ns0:moon_event_type>
    </event>
    <event publicID="smi:nakamura81/event/08916">
      <type>earthquake</type>
      <description>
        <text>shallow moonquake</text>
      </description>
      <comment id="smi:nakamura81/event/comment/08916">
        <text>14 SPZ=17.5MM</text>
      </comment>
      <pick publicID="smi:nakamura81/pick/S12/08916">
        <time>
          <value>1975-01-13T00:28:00.000000Z</value>
          <uncertainty>60.0</uncertainty>
        </time>
        <waveformID networkCode="XA" stationCode="S12" locationCode="" channelCode=""></waveformID>
        <phaseHint>P</phaseHint>
      </pick>
      <amplitude publicID="smi:nakamura81/amplitude/S12/08916">
        <genericAmplitude>
          <value>1.0</value>
        </genericAmplitude>
        <type>A</type>
        <unit>other</unit>
        <pickID>smi:nakamura81/pick/S12/08916</pickID>
      </amplitude>
      <ns0:moon_event_type>shallow moonquake</ns0:moon_event_type>
    </event>
    <event publicID="smi:nakamura81/event/09013">
      <type>earthquake</type>
      <description>
        <text>shallow moonquake</text>
      </description>
      <comment id="smi:nakamura81/event/comment/09013">
        <text>14PS SHORT,14SPZ CLIPPED</text>
      </comment>
      <pick publicID="smi:nakamura81/pick/S12/09013">
        <time>
          <value>1975-02-13T22:05:00.000000Z</value>
          <uncertainty>60.0</uncertainty>
        </time>
        <waveformID networkCode="XA" stationCode="S12" locationCode="" channelCode=""></waveformID>
        <phaseHint>P</phaseHint>
      </pick>
      <amplitude publicID="smi:nakamura81/amplitude/S12/09013">
        <genericAmplitude>
          <value>2.7</value>
        </genericAmplitude>
        <type>A</type>
        <unit>other</unit>
        <pickID>smi:nakamura81/pick/S12/09013</pickID>
      </amplitude>
      <ns0:moon_event_type>shallow moonquake</ns0:moon_event_type>
    </event>
    <event publicID="smi:nakamura81/event/09806">
      <type>earthquake</type>
      <description>
        <text>shallow moonquake</text>
      </description>
      <comment id="smi:nakamura81/event/comment/09806">
        <text>LPZ AMP FOR 16(LPY NOISY)</text>
      </comment>
      <pick publicID="smi:nakamura81/pick/S12/09806">
        <time>
          <value>1975-11-10T07:56:00.000000Z</value>
          <uncertainty>60.0</uncertainty>
        </time>
        <waveformID networkCode="XA" stationCode="S12" locationCode="" channelCode=""></waveformID>
        <phaseHint>P</phaseHint>
      </pick>
      <amplitude publicID="smi:nakamura81/amplitude/S12/09806">
        <genericAmplitude>
          <value>1.7</value>
        </genericAmplitude>
        <type>A</type>
        <unit>other</unit>
        <pickID>smi:nakamura81/pick/S12/09806</pickID>
      </amplitude>
      <ns0:moon_event_type>shallow moonquake</ns0:moon_event_type>
    </event>
    <event publicID="smi:nakamura81/event/10171">
      <type>earthquake</type>
      <description>
        <text>shallow moonquake</text>
      </description>
      <comment id="smi:nakamura81/event/comment/10171">
        <text>17LSG=8MM,14SPZ=170MM      94</text>
      </comment>
      <pick publicID="smi:nakamura81/pick/S12/10171">
        <time>
          <value>1976-03-06T10:16:00.000000Z</value>
          <uncertainty>60.0</uncertainty>
        </time>
        <waveformID networkCode="XA" stationCode="S12" locationCode="" channelCode=""></waveformID>
        <phaseHint>P</phaseHint>
      </pick>
      <amplitude publicID="smi:nakamura81/amplitude/S12/10171">
        <genericAmplitude>
          <value>16.0</value>
        </genericAmplitude>
        <type>A</type>
        <unit>other</unit>
        <pickID>smi:nakamura81/pick/S12/10171</pickID>
      </amplitude>
      <ns0:moon_event_type>shallow moonquake</ns0:moon_event_type>
    </event>
    <event publicID="smi:nakamura81/event/10184">
      <type>earthquake</type>
      <description>
        <text>shallow moonquake</text>
      </description>
      <comment id="smi:nakamura81/event/comment/10184">
        <text>12 DATA BAD               107C</text>
      </comment>
      <pick publicID="smi:nakamura81/pick/S12/10184">
        <time>
          <value>1976-03-08T14:44:00.000000Z</value>
          <uncertainty>60.0</uncertainty>
        </time>
        <waveformID networkCode="XA" stationCode="S12" locationCode="" channelCode=""></waveformID>
        <phaseHint>P</phaseHint>
        <comment id="smi:nakamura81/pick/comment/S12/10184">
          <text>see comments</text>
        </comment>
      </pick>
      <amplitude publicID="smi:nakamura81/amplitude/S12/10184">
        <genericAmplitude>
          <value>4.0</value>
        </genericAmplitude>
        <type>A</type>
        <unit>other</unit>
        <pickID>smi:nakamura81/pick/S12/10184</pickID>
      </amplitude>
      <ns0:moon_event_type>shallow moonquake</ns0:moon_event_type>
    </event>
    <event publicID="smi:nakamura81/event/10500">
      <type>earthquake</type>
      <description>
        <text>shallow moonquake</text>
      </description>
      <comment id="smi:nakamura81/event/comment/10500">
        <text>15SPZ=25MM,15S-P=15OS     496</text>
      </comment>
      <pick publicID="smi:nakamura81/pick/S12/10500">
        <time>
          <value>1976-05-16T12:36:00.000000Z</value>
          <uncertainty>60.0</uncertainty>
        </time>
        <waveformID networkCode="XA" stationCode="S12" locationCode="" channelCode=""></waveformID>
        <phaseHint>P</phaseHint>
      </pick>
      <amplitude publicID="smi:nakamura81/amplitude/S12/10500">
        <genericAmplitude>
          <value>1.0</value>
        </genericAmplitude>
        <type>A</type>
        <unit>other</unit>
        <pickID>smi:nakamura81/pick/S12/10500</pickID>
      </amplitude>
      <ns0:moon_event_type>shallow moonquake</ns0:moon_event_type>
    </event>
  </eventParameters>
</q:quakeml>
