<?xml version='1.0' encoding='utf-8'?>
<q:quakeml xmlns="http://quakeml.org/xmlns/bed/1.2" xmlns:q="http://quakeml.org/xmlns/quakeml/1.2" xmlns:ns0="http://some-page.de/xmlns/0.1">
  <eventParameters publicID="smi:local/2641c85f-a2b7-49ba-b9e7-ffe472219acb">
    <event publicID="smi:nakamura81/event/01616">
      <type>crash</type>
      <description>
        <text>LM impact</text>
      </description>
      <comment id="smi:nakamura81/event/comment/01616">
        <text>15 LM IMP</text>
      </comment>
      <pick publicID="smi:nakamura81/pick/S15/01616">
        <time>
          <value>1971-08-03T03:07:00.000000Z</value>
          <uncertainty>60.0</uncertainty>
        </time>
        <waveformID networkCode="XA" stationCode="S15" locationCode="" channelCode=""></waveformID>
        <phaseHint>P</phaseHint>
      </pick>
      <amplitude publicID="smi:nakamura81/amplitude/S15/01616">
        <genericAmplitude>
          <value>105.0</value>
        </genericAmplitude>
        <type>A</type>
        <unit>other</unit>
        <pickID>smi:nakamura81/pick/S15/01616</pickID>
      </amplitude>
      <ns0:moon_event_type>LM impact</ns0:moon_event_type>
    </event>
    <event publicID="smi:nakamura81/event/03050">
      <type>crash</type>
      <description>
        <text>S-IVB impact</text>
      </description>
      <comment id="smi:nakamura81/event/comment/03050">
        <text>16 S4B IMP</text>
      </comment>
      <pick publicID="smi:nakamura81/pick/S15/03050">
        <time>
          <value>1972-04-19T21:03:00.000000Z</value>
          <uncertainty>60.0</uncertainty>
        </time>
        <waveformID networkCode="XA" stationCode="S15" locationCode="" channelCode=""></waveformID>
        <phaseHint>P</phaseHint>
      </pick>
      <amplitude publicID="smi:nakamura81/amplitude/S15/03050">
        <genericAmplitude>
          <value>35.0</value>
        </genericAmplitude>
        <type>A</type>
        <unit>other</unit>
        <pickID>smi:nakamura81/pick/S15/03050</pickID>
      </amplitude>
      <ns0:moon_event_type>S-IVB impact</ns0:moon_event_type>
    </event>
    <event publicID="smi:nakamura81/event/05481">
      <type>crash</type>
      <description>
        <text>S-IVB impact</text>
      </description>
      <comment id="smi:nakamura81/event/comment/05481">
        <text>17 S4B IMP</text>
      </comment>
      <pick publicID="smi:nakamura81/pick/S15/05481">
        <time>
          <value>1972-12-10T20:32:00.000000Z</value>
          <uncertainty>60.0</uncertainty>
        </time>
        <waveformID networkCode="XA" stationCode="S15" locationCode="" channelCode=""></waveformID>
        <phaseHint>P</phaseHint>
      </pick>
      <amplitude publicID="smi:nakamura81/amplitude/S15/05481">
        <genericAmplitude>
          <value>34.0</value>
        </genericAmplitude>
        <type>A</type>
        <unit>other</unit>
        <pickID>smi:nakamura81/pick/S15/05481</pickID>
      </amplitude>
      <ns0:moon_event_type>S-IVB impact</ns0:moon_event_type>
    </event>
    <event publicID="smi:nakamura81/event/05506">
      <type>crash</type>
      <description>
        <text>LM impact</text>
      </description>
      <comment id="smi:nakamura81/event/comment/05506">
        <text>17 LM IMP</text>
      </comment>
      <pick publicID="smi:nakamura81/pick/S15/05506">
        <time>
          <value>1972-12-15T06:52:00.000000Z</value>
          <uncertainty>60.0</uncertainty>
        </time>
        <waveformID networkCode="XA" stationCode="S15" locationCode="" channelCode=""></waveformID>
        <phaseHint>P</phaseHint>
      </pick>
      <amplitude publicID="smi:nakamura81/amplitude/S15/05506">
        <genericAmplitude>
          <value>10.0</value>
        </genericAmplitude>
        <type>A</type>
        <unit>other</unit>
        <pickID>smi:nakamura81/pick/S15/05506</pickID>
      </amplitude>
      <ns0:moon_event_type>LM impact</ns0:moon_event_type>
    </event>
  </eventParameters>
</q:quakeml>
