<?xml version='1.0' encoding='utf-8'?>
<q:quakeml xmlns="http://quakeml.org/xmlns/bed/1.2" xmlns:q="http://quakeml.org/xmlns/quakeml/1.2" xmlns:ns0="http://some-page.de/xmlns/1.0" xmlns:ns1="http://some-page.de/xmlns/0.1">
  <eventParameters publicID="smi:local/b73ea095-61ef-4875-89a9-b5c839170286">
    <event publicID="smi:nakamura81/event/05506">
      <type>crash</type>
      <description>
        <text>LM impact</text>
      </description>
      <comment id="smi:nakamura81/event/comment/05506">
        <text>17 LM IMP</text>
      </comment>
      <pick publicID="smi:nakamura81/pick/S12/05506">
        <time>
          <value>1972-12-15T06:52:00.000000Z</value>
          <uncertainty>60.0</uncertainty>
        </time>
        <waveformID networkCode="XA" stationCode="S12" locationCode="" channelCode=""></waveformID>
        <phaseHint>P</phaseHint>
      </pick>
      <amplitude publicID="smi:nakamura81/amplitude/S12/05506">
        <genericAmplitude>
          <value>5.2</value>
        </genericAmplitude>
        <type>A</type>
        <unit>other</unit>
        <pickID>smi:nakamura81/pick/S12/05506</pickID>
      </amplitude>
      <ns1:moon_event_type>LM impact</ns1:moon_event_type>
    </event>
    <event publicID="smi:nakamura81/event/05510">
      <type>earthquake</type>
      <description>
        <text>deep moonquake</text>
      </description>
      <comment id="smi:nakamura81/event/comment/bulow07/05510">
        <text>bulow_moonquake: A44</text>
      </comment>
      <pick publicID="smi:nakamura81/pick/S12/05510">
        <time>
          <value>1972-12-15T15:59:00.000000Z</value>
          <uncertainty>60.0</uncertainty>
        </time>
        <waveformID networkCode="XA" stationCode="S12" locationCode="" channelCode=""></waveformID>
        <phaseHint>P</phaseHint>
        <ns0:bulow_moonquake>A44</ns0:bulow_moonquake>
      </pick>
      <amplitude publicID="smi:nakamura81/amplitude/S12/05510">
        <genericAmplitude>
          <value>1.0</value>
        </genericAmplitude>
        <type>A</type>
        <unit>other</unit>
        <pickID>smi:nakamura81/pick/S12/05510</pickID>
      </amplitude>
      <ns1:moon_event_type>deep moonquake</ns1:moon_event_type>
    </event>
    <event publicID="smi:nakamura81/event/05521">
      <type>earthquake</type>
      <description>
        <text>deep moonquake</text>
      </description>
      <comment id="smi:nakamura81/event/comment/bulow07/05521">
        <text>bulow_moonquake: A6</text>
      </comment>
      <pick publicID="smi:nakamura81/pick/S12/05521">
        <time>
          <value>1972-12-16T21:58:00.000000Z</value>
          <uncertainty>60.0</uncertainty>
        </time>
        <waveformID networkCode="XA" stationCode="S12" locationCode="" channelCode=""></waveformID>
        <phaseHint>P</phaseHint>
        <ns0:bulow_moonquake>A6</ns0:bulow_moonquake>
      </pick>
      <amplitude publicID="smi:nakamura81/amplitude/S12/05521">
        <genericAmplitude>
          <value>1.5</value>
        </genericAmplitude>
        <type>A</type>
        <unit>other</unit>
        <pickID>smi:nakamura81/pick/S12/05521</pickID>
      </amplitude>
      <ns1:moon_event_type>deep moonquake</ns1:moon_event_type>
    </event>
    <event publicID="smi:nakamura81/event/05524">
      <type>meteorite</type>
      <description>
        <text>meteoroid</text>
      </description>
      <pick publicID="smi:nakamura81/pick/S12/05524">
        <time>
          <value>1972-12-17T00:41:00.000000Z</value>
          <uncertainty>60.0</uncertainty>
        </time>
        <waveformID networkCode="XA" stationCode="S12" locationCode="" channelCode=""></waveformID>
        <phaseHint>P</phaseHint>
      </pick>
      <amplitude publicID="smi:nakamura81/amplitude/S12/05524">
        <genericAmplitude>
          <value>2.1</value>
        </genericAmplitude>
        <type>A</type>
        <unit>other</unit>
        <pickID>smi:nakamura81/pick/S12/05524</pickID>
      </amplitude>
      <ns1:moon_event_type>meteoroid</ns1:moon_event_type>
    </event>
    <event publicID="smi:nakamura81/event/05528">
      <type>meteorite</type>
      <description>
        <text>meteoroid</text>
      </description>
      <pick publicID="smi:nakamura81/pick/S12/05528">
        <time>
          <value>1972-12-17T05:05:00.000000Z</value>
          <uncertainty>60.0</uncertainty>
        </time>
        <waveformID networkCode="XA" stationCode="S12" locationCode="" channelCode=""></waveformID>
        <phaseHint>P</phaseHint>
      </pick>
      <amplitude publicID="smi:nakamura81/amplitude/S12/05528">
        <genericAmplitude>
          <value>1.0</value>
        </genericAmplitude>
        <type>A</type>
        <unit>other</unit>
        <pickID>smi:nakamura81/pick/S12/05528</pickID>
      </amplitude>
      <ns1:moon_event_type>meteoroid</ns1:moon_event_type>
    </event>
    <event publicID="smi:nakamura81/event/05529">
      <type>earthquake</type>
      <description>
        <text>deep moonquake</text>
      </description>
      <comment id="smi:nakamura81/event/comment/nakamura81/05529">
        <text/>
      </comment>
      <comment id="smi:nakamura81/event/comment/bulow07/05529">
        <text>bulow_moonquake: A40</text>
      </comment>
      <pick publicID="smi:nakamura81/pick/S12/05529">
        <time>
          <value>1972-12-17T05:35:00.000000Z</value>
          <uncertainty>60.0</uncertainty>
        </time>
        <waveformID networkCode="XA" stationCode="S12" locationCode="" channelCode=""></waveformID>
        <phaseHint>P</phaseHint>
        <ns0:bulow_moonquake>A40</ns0:bulow_moonquake>
        <ns0:nakamura_moonquake>A40</ns0:nakamura_moonquake>
      </pick>
      <amplitude publicID="smi:nakamura81/amplitude/S12/05529">
        <genericAmplitude>
          <value>1.5</value>
        </genericAmplitude>
        <type>A</type>
        <unit>other</unit>
        <pickID>smi:nakamura81/pick/S12/05529</pickID>
      </amplitude>
      <ns1:moon_event_type>deep moonquake</ns1:moon_event_type>
    </event>
    <event publicID="smi:nakamura81/event/05531">
      <type>earthquake</type>
      <description>
        <text>deep moonquake</text>
      </description>
      <comment id="smi:nakamura81/event/comment/bulow07/05531">
        <text>bulow_moonquake: A212</text>
      </comment>
      <pick publicID="smi:nakamura81/pick/S12/05531">
        <time>
          <value>1972-12-17T08:32:00.000000Z</value>
          <uncertainty>60.0</uncertainty>
        </time>
        <waveformID networkCode="XA" stationCode="S12" locationCode="" channelCode=""></waveformID>
        <phaseHint>P</phaseHint>
        <ns0:bulow_moonquake>A212</ns0:bulow_moonquake>
      </pick>
      <amplitude publicID="smi:nakamura81/amplitude/S12/05531">
        <genericAmplitude>
          <value>1.2</value>
        </genericAmplitude>
        <type>A</type>
        <unit>other</unit>
        <pickID>smi:nakamura81/pick/S12/05531</pickID>
      </amplitude>
      <ns1:moon_event_type>deep moonquake</ns1:moon_event_type>
    </event>
    <event publicID="smi:nakamura81/event/05533">
      <type>not reported</type>
      <description>
        <text>unclassified</text>
      </description>
      <pick publicID="smi:nakamura81/pick/S12/05533">
        <time>
          <value>1972-12-17T11:54:00.000000Z</value>
          <uncertainty>60.0</uncertainty>
        </time>
        <waveformID networkCode="XA" stationCode="S12" locationCode="" channelCode=""></waveformID>
        <phaseHint>P</phaseHint>
      </pick>
      <amplitude publicID="smi:nakamura81/amplitude/S12/05533">
        <genericAmplitude>
          <value>0.9</value>
        </genericAmplitude>
        <type>A</type>
        <unit>other</unit>
        <pickID>smi:nakamura81/pick/S12/05533</pickID>
      </amplitude>
      <ns1:moon_event_type>unclassified</ns1:moon_event_type>
    </event>
    <event publicID="smi:nakamura81/event/05534">
      <type>not reported</type>
      <description>
        <text>unclassified</text>
      </description>
      <pick publicID="smi:nakamura81/pick/S12/05534">
        <time>
          <value>1972-12-17T13:06:00.000000Z</value>
          <uncertainty>60.0</uncertainty>
        </time>
        <waveformID networkCode="XA" stationCode="S12" locationCode="" channelCode=""></waveformID>
        <phaseHint>P</phaseHint>
      </pick>
      <amplitude publicID="smi:nakamura81/amplitude/S12/05534">
        <genericAmplitude>
          <value>0.9</value>
        </genericAmplitude>
        <type>A</type>
        <unit>other</unit>
        <pickID>smi:nakamura81/pick/S12/05534</pickID>
      </amplitude>
      <ns1:moon_event_type>unclassified</ns1:moon_event_type>
    </event>
    <event publicID="smi:nakamura81/event/05535">
      <type>earthquake</type>
      <description>
        <text>deep moonquake</text>
      </description>
      <comment id="smi:nakamura81/event/comment/nakamura81/05535">
        <text/>
      </comment>
      <comment id="smi:nakamura81/event/comment/bulow07/05535">
        <text>bulow_moonquake: A41</text>
      </comment>
      <pick publicID="smi:nakamura81/pick/S12/05535">
        <time>
          <value>1972-12-17T16:24:00.000000Z</value>
          <uncertainty>60.0</uncertainty>
        </time>
        <waveformID networkCode="XA" stationCode="S12" locationCode="" channelCode=""></waveformID>
        <phaseHint>P</phaseHint>
        <ns0:bulow_moonquake>A41</ns0:bulow_moonquake>
        <ns0:nakamura_moonquake>A41</ns0:nakamura_moonquake>
      </pick>
      <amplitude publicID="smi:nakamura81/amplitude/S12/05535">
        <genericAmplitude>
          <value>1.2</value>
        </genericAmplitude>
        <type>A</type>
        <unit>other</unit>
        <pickID>smi:nakamura81/pick/S12/05535</pickID>
      </amplitude>
      <ns1:moon_event_type>deep moonquake</ns1:moon_event_type>
    </event>
    <event publicID="smi:nakamura81/event/05536">
      <type>earthquake</type>
      <description>
        <text>deep moonquake</text>
      </description>
      <comment id="smi:nakamura81/event/comment/bulow07/05536">
        <text>bulow_moonquake: A38</text>
      </comment>
      <pick publicID="smi:nakamura81/pick/S12/05536">
        <time>
          <value>1972-12-17T19:36:00.000000Z</value>
          <uncertainty>60.0</uncertainty>
        </time>
        <waveformID networkCode="XA" stationCode="S12" locationCode="" channelCode=""></waveformID>
        <phaseHint>P</phaseHint>
        <ns0:bulow_moonquake>A38</ns0:bulow_moonquake>
      </pick>
      <amplitude publicID="smi:nakamura81/amplitude/S12/05536">
        <genericAmplitude>
          <value>1.2</value>
        </genericAmplitude>
        <type>A</type>
        <unit>other</unit>
        <pickID>smi:nakamura81/pick/S12/05536</pickID>
      </amplitude>
      <ns1:moon_event_type>deep moonquake</ns1:moon_event_type>
    </event>
    <event publicID="smi:nakamura81/event/05537">
      <type>earthquake</type>
      <description>
        <text>deep moonquake</text>
      </description>
      <comment id="smi:nakamura81/event/comment/nakamura81/05537">
        <text/>
      </comment>
      <comment id="smi:nakamura81/event/comment/bulow07/05537">
        <text>bulow_moonquake: A42</text>
      </comment>
      <pick publicID="smi:nakamura81/pick/S12/05537">
        <time>
          <value>1972-12-18T00:23:00.000000Z</value>
          <uncertainty>60.0</uncertainty>
        </time>
        <waveformID networkCode="XA" stationCode="S12" locationCode="" channelCode=""></waveformID>
        <phaseHint>P</phaseHint>
        <ns0:bulow_moonquake>A42</ns0:bulow_moonquake>
        <ns0:nakamura_moonquake>A42</ns0:nakamura_moonquake>
      </pick>
      <amplitude publicID="smi:nakamura81/amplitude/S12/05537">
        <genericAmplitude>
          <value>2.6</value>
        </genericAmplitude>
        <type>A</type>
        <unit>other</unit>
        <pickID>smi:nakamura81/pick/S12/05537</pickID>
      </amplitude>
      <ns1:moon_event_type>deep moonquake</ns1:moon_event_type>
    </event>
    <event publicID="smi:nakamura81/event/05538">
      <type>earthquake</type>
      <description>
        <text>deep moonquake</text>
      </description>
      <comment id="smi:nakamura81/event/comment/bulow07/05538">
        <text>bulow_moonquake: A236</text>
      </comment>
      <pick publicID="smi:nakamura81/pick/S12/05538">
        <time>
          <value>1972-12-18T10:38:00.000000Z</value>
          <uncertainty>60.0</uncertainty>
        </time>
        <waveformID networkCode="XA" stationCode="S12" locationCode="" channelCode=""></waveformID>
        <phaseHint>P</phaseHint>
        <ns0:bulow_moonquake>A236</ns0:bulow_moonquake>
      </pick>
      <amplitude publicID="smi:nakamura81/amplitude/S12/05538">
        <genericAmplitude>
          <value>1.1</value>
        </genericAmplitude>
        <type>A</type>
        <unit>other</unit>
        <pickID>smi:nakamura81/pick/S12/05538</pickID>
      </amplitude>
      <ns1:moon_event_type>deep moonquake</ns1:moon_event_type>
    </event>
    <event publicID="smi:nakamura81/event/05541">
      <type>earthquake</type>
      <description>
        <text>deep moonquake</text>
      </description>
      <comment id="smi:nakamura81/event/comment/05541">
        <text>GOOD S @12,14,15</text>
      </comment>
      <comment id="smi:nakamura81/event/comment/nakamura81/05541">
        <text/>
      </comment>
      <comment id="smi:nakamura81/event/comment/bulow07/05541">
        <text>bulow_moonquake: A15</text>
      </comment>
      <pick publicID="smi:nakamura81/pick/S12/05541">
        <time>
          <value>1972-12-19T21:49:00.000000Z</value>
          <uncertainty>60.0</uncertainty>
        </time>
        <waveformID networkCode="XA" stationCode="S12" locationCode="" channelCode=""></waveformID>
        <phaseHint>P</phaseHint>
        <ns0:bulow_moonquake>A15</ns0:bulow_moonquake>
        <ns0:nakamura_moonquake>A15</ns0:nakamura_moonquake>
      </pick>
      <amplitude publicID="smi:nakamura81/amplitude/S12/05541">
        <genericAmplitude>
          <value>1.7</value>
        </genericAmplitude>
        <type>A</type>
        <unit>other</unit>
        <pickID>smi:nakamura81/pick/S12/05541</pickID>
      </amplitude>
      <ns1:moon_event_type>deep moonquake</ns1:moon_event_type>
    </event>
    <event publicID="smi:nakamura81/event/05544">
      <type>earthquake</type>
      <description>
        <text>deep moonquake</text>
      </description>
      <comment id="smi:nakamura81/event/comment/nakamura81/05544">
        <text/>
      </comment>
      <comment id="smi:nakamura81/event/comment/bulow07/05544">
        <text>bulow_moonquake: A20</text>
      </comment>
      <pick publicID="smi:nakamura81/pick/S12/05544">
        <time>
          <value>1972-12-20T20:23:00.000000Z</value>
          <uncertainty>60.0</uncertainty>
        </time>
        <waveformID networkCode="XA" stationCode="S12" locationCode="" channelCode=""></waveformID>
        <phaseHint>P</phaseHint>
        <ns0:bulow_moonquake>A20</ns0:bulow_moonquake>
        <ns0:nakamura_moonquake>A20</ns0:nakamura_moonquake>
      </pick>
      <amplitude publicID="smi:nakamura81/amplitude/S12/05544">
        <genericAmplitude>
          <value>1.3</value>
        </genericAmplitude>
        <type>A</type>
        <unit>other</unit>
        <pickID>smi:nakamura81/pick/S12/05544</pickID>
      </amplitude>
      <ns1:moon_event_type>deep moonquake</ns1:moon_event_type>
    </event>
    <event publicID="smi:nakamura81/event/05546">
      <type>earthquake</type>
      <description>
        <text>deep moonquake</text>
      </description>
      <comment id="smi:nakamura81/event/comment/bulow07/05546">
        <text>bulow_moonquake: A210</text>
      </comment>
      <pick publicID="smi:nakamura81/pick/S12/05546">
        <time>
          <value>1972-12-21T00:10:00.000000Z</value>
          <uncertainty>60.0</uncertainty>
        </time>
        <waveformID networkCode="XA" stationCode="S12" locationCode="" channelCode=""></waveformID>
        <phaseHint>P</phaseHint>
        <ns0:bulow_moonquake>A210</ns0:bulow_moonquake>
      </pick>
      <amplitude publicID="smi:nakamura81/amplitude/S12/05546">
        <genericAmplitude>
          <value>1.1</value>
        </genericAmplitude>
        <type>A</type>
        <unit>other</unit>
        <pickID>smi:nakamura81/pick/S12/05546</pickID>
      </amplitude>
      <ns1:moon_event_type>deep moonquake</ns1:moon_event_type>
    </event>
    <event publicID="smi:nakamura81/event/05555">
      <type>earthquake</type>
      <description>
        <text>deep moonquake</text>
      </description>
      <comment id="smi:nakamura81/event/comment/05555">
        <text>P&amp;S @14</text>
      </comment>
      <comment id="smi:nakamura81/event/comment/nakamura81/05555">
        <text/>
      </comment>
      <comment id="smi:nakamura81/event/comment/bulow07/05555">
        <text>bulow_moonquake: A30</text>
      </comment>
      <pick publicID="smi:nakamura81/pick/S12/05555">
        <time>
          <value>1972-12-21T16:30:00.000000Z</value>
          <uncertainty>60.0</uncertainty>
        </time>
        <waveformID networkCode="XA" stationCode="S12" locationCode="" channelCode=""></waveformID>
        <phaseHint>P</phaseHint>
        <ns0:bulow_moonquake>A30</ns0:bulow_moonquake>
        <ns0:nakamura_moonquake>A30</ns0:nakamura_moonquake>
      </pick>
      <amplitude publicID="smi:nakamura81/amplitude/S12/05555">
        <genericAmplitude>
          <value>2.9</value>
        </genericAmplitude>
        <type>A</type>
        <unit>other</unit>
        <pickID>smi:nakamura81/pick/S12/05555</pickID>
      </amplitude>
      <ns1:moon_event_type>deep moonquake</ns1:moon_event_type>
    </event>
    <event publicID="smi:nakamura81/event/05559">
      <type>earthquake</type>
      <description>
        <text>deep moonquake</text>
      </description>
      <comment id="smi:nakamura81/event/comment/bulow07/05559">
        <text>bulow_moonquake: A5</text>
      </comment>
      <pick publicID="smi:nakamura81/pick/S12/05559">
        <time>
          <value>1972-12-22T02:10:00.000000Z</value>
          <uncertainty>60.0</uncertainty>
        </time>
        <waveformID networkCode="XA" stationCode="S12" locationCode="" channelCode=""></waveformID>
        <phaseHint>P</phaseHint>
        <ns0:bulow_moonquake>A5</ns0:bulow_moonquake>
      </pick>
      <amplitude publicID="smi:nakamura81/amplitude/S12/05559">
        <genericAmplitude>
          <value>1.0</value>
        </genericAmplitude>
        <type>A</type>
        <unit>other</unit>
        <pickID>smi:nakamura81/pick/S12/05559</pickID>
      </amplitude>
      <ns1:moon_event_type>deep moonquake</ns1:moon_event_type>
    </event>
    <event publicID="smi:nakamura81/event/05560">
      <type>earthquake</type>
      <description>
        <text>deep moonquake</text>
      </description>
      <comment id="smi:nakamura81/event/comment/bulow07/05560">
        <text>bulow_moonquake: A1</text>
      </comment>
      <pick publicID="smi:nakamura81/pick/S12/05560">
        <time>
          <value>1972-12-22T04:50:00.000000Z</value>
          <uncertainty>60.0</uncertainty>
        </time>
        <waveformID networkCode="XA" stationCode="S12" locationCode="" channelCode=""></waveformID>
        <phaseHint>P</phaseHint>
        <ns0:bulow_moonquake>A1</ns0:bulow_moonquake>
      </pick>
      <amplitude publicID="smi:nakamura81/amplitude/S12/05560">
        <genericAmplitude>
          <value>1.6</value>
        </genericAmplitude>
        <type>A</type>
        <unit>other</unit>
        <pickID>smi:nakamura81/pick/S12/05560</pickID>
      </amplitude>
      <ns1:moon_event_type>deep moonquake</ns1:moon_event_type>
    </event>
    <event publicID="smi:nakamura81/event/05561">
      <type>earthquake</type>
      <description>
