<?xml version='1.0' encoding='utf-8'?>
<q:quakeml xmlns="http://quakeml.org/xmlns/bed/1.2" xmlns:q="http://quakeml.org/xmlns/quakeml/1.2" xmlns:ns0="http://some-page.de/xmlns/1.0" xmlns:ns1="http://some-page.de/xmlns/0.1">
  <eventParameters publicID="smi:local/6e1088ea-8f53-47a0-a9b3-b2adaa3bed0c">
    <event publicID="smi:nakamura81/event/05506">
      <type>crash</type>
      <description>
        <text>LM impact</text>
      </description>
      <comment id="smi:nakamura81/event/comment/05506">
        <text>17 LM IMP</text>
      </comment>
      <pick publicID="smi:nakamura81/pick/S16/05506">
        <time>
          <value>1972-12-15T06:52:00.000000Z</value>
          <uncertainty>60.0</uncertainty>
        </time>
        <waveformID networkCode="XA" stationCode="S16" locationCode="" channelCode=""></waveformID>
        <phaseHint>P</phaseHint>
      </pick>
      <amplitude publicID="smi:nakamura81/amplitude/S16/05506">
        <genericAmplitude>
          <value>21.0</value>
        </genericAmplitude>
        <type>A</type>
        <unit>other</unit>
        <pickID>smi:nakamura81/pick/S16/05506</pickID>
      </amplitude>
      <ns1:moon_event_type>LM impact</ns1:moon_event_type>
    </event>
    <event publicID="smi:nakamura81/event/05507">
      <type>earthquake</type>
      <description>
        <text>deep moonquake</text>
      </description>
      <comment id="smi:nakamura81/event/comment/bulow07/05507">
        <text>bulow_moonquake: A14</text>
      </comment>
      <pick publicID="smi:nakamura81/pick/S16/05507">
        <time>
          <value>1972-12-15T07:48:00.000000Z</value>
          <uncertainty>60.0</uncertainty>
        </time>
        <waveformID networkCode="XA" stationCode="S16" locationCode="" channelCode=""></waveformID>
        <phaseHint>P</phaseHint>
        <ns0:bulow_moonquake>A14</ns0:bulow_moonquake>
      </pick>
      <amplitude publicID="smi:nakamura81/amplitude/S16/05507">
        <genericAmplitude>
          <value>-1.0</value>
        </genericAmplitude>
        <type>A</type>
        <unit>other</unit>
        <pickID>smi:nakamura81/pick/S16/05507</pickID>
      </amplitude>
      <ns1:moon_event_type>deep moonquake</ns1:moon_event_type>
    </event>
    <event publicID="smi:nakamura81/event/05508">
      <type>not reported</type>
      <description>
        <text>unclassified</text>
      </description>
      <pick publicID="smi:nakamura81/pick/S16/05508">
        <time>
          <value>1972-12-15T15:14:00.000000Z</value>
          <uncertainty>60.0</uncertainty>
        </time>
        <waveformID networkCode="XA" stationCode="S16" locationCode="" channelCode=""></waveformID>
        <phaseHint>P</phaseHint>
      </pick>
      <amplitude publicID="smi:nakamura81/amplitude/S16/05508">
        <genericAmplitude>
          <value>3.7</value>
        </genericAmplitude>
        <type>A</type>
        <unit>other</unit>
        <pickID>smi:nakamura81/pick/S16/05508</pickID>
      </amplitude>
      <ns1:moon_event_type>unclassified</ns1:moon_event_type>
    </event>
    <event publicID="smi:nakamura81/event/05510">
      <type>earthquake</type>
      <description>
        <text>deep moonquake</text>
      </description>
      <comment id="smi:nakamura81/event/comment/bulow07/05510">
        <text>bulow_moonquake: A44</text>
      </comment>
      <pick publicID="smi:nakamura81/pick/S16/05510">
        <time>
          <value>1972-12-15T15:59:00.000000Z</value>
          <uncertainty>60.0</uncertainty>
        </time>
        <waveformID networkCode="XA" stationCode="S16" locationCode="" channelCode=""></waveformID>
        <phaseHint>P</phaseHint>
        <ns0:bulow_moonquake>A44</ns0:bulow_moonquake>
      </pick>
      <amplitude publicID="smi:nakamura81/amplitude/S16/05510">
        <genericAmplitude>
          <value>5.1</value>
        </genericAmplitude>
        <type>A</type>
        <unit>other</unit>
        <pickID>smi:nakamura81/pick/S16/05510</pickID>
      </amplitude>
      <ns1:moon_event_type>deep moonquake</ns1:moon_event_type>
    </event>
    <event publicID="smi:nakamura81/event/05511">
      <type>other event</type>
      <description>
        <text>thermal moonquake</text>
      </description>
      <comment id="smi:nakamura81/event/comment/bulow07/05511">
        <text>bulow_moonquake: T503</text>
      </comment>
      <pick publicID="smi:nakamura81/pick/S16/05511">
        <time>
          <value>1972-12-15T17:25:00.000000Z</value>
          <uncertainty>60.0</uncertainty>
        </time>
        <waveformID networkCode="XA" stationCode="S16" locationCode="" channelCode=""></waveformID>
        <phaseHint>P</phaseHint>
        <ns0:bulow_moonquake>T503</ns0:bulow_moonquake>
      </pick>
      <amplitude publicID="smi:nakamura81/amplitude/S16/05511">
        <genericAmplitude>
          <value>3.2</value>
        </genericAmplitude>
        <type>A</type>
        <unit>other</unit>
        <pickID>smi:nakamura81/pick/S16/05511</pickID>
      </amplitude>
      <ns1:moon_event_type>thermal moonquake</ns1:moon_event_type>
    </event>
    <event publicID="smi:nakamura81/event/05512">
      <type>not reported</type>
      <description>
        <text>unclassified</text>
      </description>
      <pick publicID="smi:nakamura81/pick/S16/05512">
        <time>
          <value>1972-12-15T19:40:00.000000Z</value>
          <uncertainty>60.0</uncertainty>
        </time>
        <waveformID networkCode="XA" stationCode="S16" locationCode="" channelCode=""></waveformID>
        <phaseHint>P</phaseHint>
      </pick>
      <amplitude publicID="smi:nakamura81/amplitude/S16/05512">
        <genericAmplitude>
          <value>3.3</value>
        </genericAmplitude>
        <type>A</type>
        <unit>other</unit>
        <pickID>smi:nakamura81/pick/S16/05512</pickID>
      </amplitude>
      <ns1:moon_event_type>unclassified</ns1:moon_event_type>
    </event>
    <event publicID="smi:nakamura81/event/05513">
      <type>other event</type>
      <description>
        <text>thermal moonquake</text>
      </description>
      <comment id="smi:nakamura81/event/comment/bulow07/05513">
        <text>bulow_moonquake: T503</text>
      </comment>
      <pick publicID="smi:nakamura81/pick/S16/05513">
        <time>
          <value>1972-12-15T22:32:00.000000Z</value>
          <uncertainty>60.0</uncertainty>
        </time>
        <waveformID networkCode="XA" stationCode="S16" locationCode="" channelCode=""></waveformID>
        <phaseHint>P</phaseHint>
        <ns0:bulow_moonquake>T503</ns0:bulow_moonquake>
      </pick>
      <amplitude publicID="smi:nakamura81/amplitude/S16/05513">
        <genericAmplitude>
          <value>3.3</value>
        </genericAmplitude>
        <type>A</type>
        <unit>other</unit>
        <pickID>smi:nakamura81/pick/S16/05513</pickID>
      </amplitude>
      <ns1:moon_event_type>thermal moonquake</ns1:moon_event_type>
    </event>
    <event publicID="smi:nakamura81/event/05514">
      <type>not reported</type>
      <description>
        <text>unclassified</text>
      </description>
      <pick publicID="smi:nakamura81/pick/S16/05514">
        <time>
          <value>1972-12-16T04:08:00.000000Z</value>
          <uncertainty>60.0</uncertainty>
        </time>
        <waveformID networkCode="XA" stationCode="S16" locationCode="" channelCode=""></waveformID>
        <phaseHint>P</phaseHint>
      </pick>
      <amplitude publicID="smi:nakamura81/amplitude/S16/05514">
        <genericAmplitude>
          <value>4.7</value>
        </genericAmplitude>
        <type>A</type>
        <unit>other</unit>
        <pickID>smi:nakamura81/pick/S16/05514</pickID>
      </amplitude>
      <ns1:moon_event_type>unclassified</ns1:moon_event_type>
    </event>
    <event publicID="smi:nakamura81/event/05515">
      <type>other event</type>
      <description>
        <text>thermal moonquake</text>
      </description>
      <comment id="smi:nakamura81/event/comment/bulow07/05515">
        <text>bulow_moonquake: T503</text>
      </comment>
      <pick publicID="smi:nakamura81/pick/S16/05515">
        <time>
          <value>1972-12-16T05:37:00.000000Z</value>
          <uncertainty>60.0</uncertainty>
        </time>
        <waveformID networkCode="XA" stationCode="S16" locationCode="" channelCode=""></waveformID>
        <phaseHint>P</phaseHint>
        <ns0:bulow_moonquake>T503</ns0:bulow_moonquake>
      </pick>
      <amplitude publicID="smi:nakamura81/amplitude/S16/05515">
        <genericAmplitude>
          <value>3.4</value>
        </genericAmplitude>
        <type>A</type>
        <unit>other</unit>
        <pickID>smi:nakamura81/pick/S16/05515</pickID>
      </amplitude>
      <ns1:moon_event_type>thermal moonquake</ns1:moon_event_type>
    </event>
    <event publicID="smi:nakamura81/event/05516">
      <type>earthquake</type>
      <description>
        <text>deep moonquake</text>
      </description>
      <comment id="smi:nakamura81/event/comment/bulow07/05516">
        <text>bulow_moonquake: A44</text>
      </comment>
      <pick publicID="smi:nakamura81/pick/S16/05516">
        <time>
          <value>1972-12-16T07:39:00.000000Z</value>
          <uncertainty>60.0</uncertainty>
        </time>
        <waveformID networkCode="XA" stationCode="S16" locationCode="" channelCode=""></waveformID>
        <phaseHint>P</phaseHint>
        <ns0:bulow_moonquake>A44</ns0:bulow_moonquake>
      </pick>
      <amplitude publicID="smi:nakamura81/amplitude/S16/05516">
        <genericAmplitude>
          <value>6.5</value>
        </genericAmplitude>
        <type>A</type>
        <unit>other</unit>
        <pickID>smi:nakamura81/pick/S16/05516</pickID>
      </amplitude>
      <ns1:moon_event_type>deep moonquake</ns1:moon_event_type>
    </event>
    <event publicID="smi:nakamura81/event/05517">
      <type>other event</type>
      <description>
        <text>thermal moonquake</text>
      </description>
      <comment id="smi:nakamura81/event/comment/bulow07/05517">
        <text>bulow_moonquake: T503</text>
      </comment>
      <pick publicID="smi:nakamura81/pick/S16/05517">
        <time>
          <value>1972-12-16T11:03:00.000000Z</value>
          <uncertainty>60.0</uncertainty>
        </time>
        <waveformID networkCode="XA" stationCode="S16" locationCode="" channelCode=""></waveformID>
        <phaseHint>P</phaseHint>
        <ns0:bulow_moonquake>T503</ns0:bulow_moonquake>
      </pick>
      <amplitude publicID="smi:nakamura81/amplitude/S16/05517">
        <genericAmplitude>
          <value>3.0</value>
        </genericAmplitude>
        <type>A</type>
        <unit>other</unit>
        <pickID>smi:nakamura81/pick/S16/05517</pickID>
      </amplitude>
      <ns1:moon_event_type>thermal moonquake</ns1:moon_event_type>
    </event>
    <event publicID="smi:nakamura81/event/05518">
      <type>other event</type>
      <description>
        <text>thermal moonquake</text>
      </description>
      <comment id="smi:nakamura81/event/comment/bulow07/05518">
        <text>bulow_moonquake: T503</text>
      </comment>
      <pick publicID="smi:nakamura81/pick/S16/05518">
        <time>
          <value>1972-12-16T13:58:00.000000Z</value>
          <uncertainty>60.0</uncertainty>
        </time>
        <waveformID networkCode="XA" stationCode="S16" locationCode="" channelCode=""></waveformID>
        <phaseHint>P</phaseHint>
        <ns0:bulow_moonquake>T503</ns0:bulow_moonquake>
      </pick>
      <amplitude publicID="smi:nakamura81/amplitude/S16/05518">
        <genericAmplitude>
          <value>3.0</value>
        </genericAmplitude>
        <type>A</type>
        <unit>other</unit>
        <pickID>smi:nakamura81/pick/S16/05518</pickID>
      </amplitude>
      <ns1:moon_event_type>thermal moonquake</ns1:moon_event_type>
    </event>
    <event publicID="smi:nakamura81/event/05519">
      <type>other event</type>
      <description>
        <text>thermal moonquake</text>
      </description>
      <comment id="smi:nakamura81/event/comment/bulow07/05519">
        <text>bulow_moonquake: T503</text>
      </comment>
      <pick publicID="smi:nakamura81/pick/S16/05519">
        <time>
          <value>1972-12-16T17:15:00.000000Z</value>
          <uncertainty>60.0</uncertainty>
        </time>
        <waveformID networkCode="XA" stationCode="S16" locationCode="" channelCode=""></waveformID>
        <phaseHint>P</phaseHint>
        <ns0:bulow_moonquake>T503</ns0:bulow_moonquake>
      </pick>
      <amplitude publicID="smi:nakamura81/amplitude/S16/05519">
        <genericAmplitude>
          <value>3.2</value>
        </genericAmplitude>
        <type>A</type>
        <unit>other</unit>
        <pickID>smi:nakamura81/pick/S16/05519</pickID>
      </amplitude>
      <ns1:moon_event_type>thermal moonquake</ns1:moon_event_type>
    </event>
    <event publicID="smi:nakamura81/event/05520">
      <type>other event</type>
      <description>
        <text>thermal moonquake</text>
      </description>
      <comment id="smi:nakamura81/event/comment/bulow07/05520">
        <text>bulow_moonquake: T502</text>
      </comment>
      <pick publicID="smi:nakamura81/pick/S16/05520">
        <time>
          <value>1972-12-16T20:33:00.000000Z</value>
          <uncertainty>60.0</uncertainty>
        </time>
        <waveformID networkCode="XA" stationCode="S16" locationCode="" channelCode=""></waveformID>
        <phaseHint>P</phaseHint>
        <ns0:bulow_moonquake>T502</ns0:bulow_moonquake>
      </pick>
      <amplitude publicID="smi:nakamura81/amplitude/S16/05520">
        <genericAmplitude>
          <value>3.3</value>
        </genericAmplitude>
        <type>A</type>
        <unit>other</unit>
        <pickID>smi:nakamura81/pick/S16/05520</pickID>
      </amplitude>
      <ns1:moon_event_type>thermal moonquake</ns1:moon_event_type>
    </event>
    <event publicID="smi:nakamura81/event/05521">
      <type>earthquake</type>
      <description>
        <text>deep moonquake</text>
      </description>
      <comment id="smi:nakamura81/event/comment/bulow07/05521">
        <text>bulow_moonquake: A6</text>
      </comment>
      <pick publicID="smi:nakamura81/pick/S16/05521">
        <time>
          <value>1972-12-16T21:58:00.000000Z</value>
          <uncertainty>60.0</uncertainty>
        </time>
        <waveformID networkCode="XA" stationCode="S16" locationCode="" channelCode=""></waveformID>
        <phaseHint>P</phaseHint>
        <ns0:bulow_moonquake>A6</ns0:bulow_moonquake>
      </pick>
      <amplitude publicID="smi:nakamura81/amplitude/S16/05521">
        <genericAmplitude>
          <value>3.4</value>
        </genericAmplitude>
        <type>A</type>
        <unit>other</unit>
        <pickID>smi:nakamura81/pick/S16/05521</pickID>
      </amplitude>
      <ns1:moon_event_type>deep moonquake</ns1:moon_event_type>
    </event>
    <event publicID="smi:nakamura81/event/05522">
      <type>not reported</type>
      <description>
        <text>unclassified</text>
      </description>
      <pick publicID="smi:nakamura81/pick/S16/05522">
        <time>
          <value>1972-12-16T23:59:00.000000Z</value>
          <uncertainty>60.0</uncertainty>
        </time>
        <waveformID networkCode="XA" stationCode="S16" locationCode="" channelCode=""></waveformID>
        <phaseHint>P</phaseHint>
      </pick>
      <amplitude publicID="smi:nakamura81/amplitude/S16/05522">
        <genericAmplitude>
          <value>3.9</value>
        </genericAmplitude>
        <type>A</type>
        <unit>other</unit>
        <pickID>smi:nakamura81/pick/S16/05522</pickID>
      </amplitude>
      <ns1:moon_event_type>unclassified</ns1:moon_event_type>
    </event>
    <event publicID="smi:nakamura81/event/05523">
      <type>other event</type>
      <description>
        <text>thermal moonquake</text>
      </description>
      <comment id="smi:nakamura81/event/comment/bulow07/05523">
        <text>bulow_moonquake: T502</text>
      </comment>
      <pick publicID="smi:nakamura81/pick/S16/05523">
        <time>
          <value>1972-12-17T00:05:00.000000Z</value>
          <uncertainty>60.0</uncertainty>
        </time>
        <waveformID networkCode="XA" stationCode="S16" locationCode="" channelCode=""></waveformID>
        <phaseHint>P</phaseHint>
        <ns0:bulow_moonquake>T502</ns0:bulow_moonquake>
      </pick>
      <amplitude publicID="smi:nakamura81/amplitude/S16/05523">
        <genericAmplitude>
          <value>3.3</value>
        </genericAmplitude>
        <type>A</type>
        <unit>other</unit>
        <pickID>smi:nakamura81/pick/S16/05523</pickID>
      </amplitude>
      <ns1:moon_event_type>thermal moonquake</ns1:moon_event_type>
    </event>
    <event publicID="smi:nakamura81/event/05524">
      <type>meteorite</type>
      <description>
        <text>meteoroid</text>
      </description>
      <pick publicID="smi:nakamura81/pick/S16/05524">
        <time>
          <value>1972-12-17T00:41:00.000000Z</value>
          <uncertainty>60.0</uncertainty>
        </time>
        <waveformID networkCode="XA" stationCode="S16" locationCode="" channelCode=""></waveformID>
        <phaseHint>P</phaseHint>
      </pick>
      <amplitude publicID="smi:nakamura81/amplitude/S16/05524">
        <genericAmplitude>
          <value>3.1</value>
        </genericAmplitude>
        <type>A</type>
        <unit>other</unit>
        <pickID>smi:nakamura81/pick/S16/05524</pickID>
      </amplitude>
      <ns1:moon_event_type>meteoroid</ns1:moon_event_type>
    </event>
    <event publicID="smi:nakamura81/event/05526">
      <type>not reported</type>
      <description>
        <text>unclassified</text>
      </description>
      <pick publicID="smi:nakamura81/pick/S16/05526">
        <time>
          <value>1972-12-17T03:34:00.000000Z</value>
          <uncertainty>60.0</uncertainty>
        </time>
        <waveformID networkCode="XA" stationCode="S16" locationCode="" channelCode=""></waveformID>
        <phaseHint>P</phaseHint>
      </pick>
      <amplitude publicID="smi:nakamura81/amplitude/S16/05526">
        <genericAmplitude>
          <value>2.0</value>
        </genericAmplitude>
        <type>A</type>
        <unit>other</unit>
        <pickID>smi:nakamura81/pick/S16/05526</pickID>
      </amplitude>
      <ns1:moon_event_type>unclassified</ns1:moon_event_type>
    </event>
    <event publicID="smi:nakamura81/event/05527">
      <type>other event</type>
      <description>
        <text>thermal moonquake</text>
      </description>
      <comment id="smi:nakamura81/event/comment/bulow07/05527">
        <text>bulow_moonquake: T502</text>
      </comment>
      <pick publicID="smi:nakamura81/pick/S16/05527">
        <time>
          <value>1972-12-17T04:08:00.000000Z</value>
          <uncertainty>60.0</uncertainty>
        </time>
        <waveformID networkCode="XA" stationCode="S16" locationCode="" channelCode=""></waveformID>
        <phaseHint>P</phaseHint>
        <ns0:bulow_moonquake>T502</ns0:bulow_moonquake>
      </pick>
      <amplitude publicID="smi:nakamura81/amplitude/S16/05527">
        <genericAmplitude>
          <value>3.2</value>
        </genericAmplitude>
        <type>A</type>
        <unit>other</unit>
        <pickID>smi:nakamura81/pick/S16/05527</pickID>
      </amplitude>
      <ns1:moon_event_type>thermal moonquake</ns1:moon_event_type>
    </event>
    <event publicID="smi:nakamura81/event/05528">
      <type>meteorite</type>
      <description>
        <text>meteoroid</text>
      </description>
      <pick publicID="smi:nakamura81/pick/S16/05528">
        <time>
          <value>1972-12-17T05:05:00.000000Z</value>
          <uncertainty>60.0</uncertainty>
        </time>
        <waveformID networkCode="XA" stationCode="S16" locationCode="" channelCode=""></waveformID>
        <phaseHint>P</phaseHint>
      </pick>
      <amplitude publicID="smi:nakamura81/amplitude/S16/05528">
        <genericAmplitude>
