<?xml version='1.0' encoding='utf-8'?>
<q:quakeml xmlns="http://quakeml.org/xmlns/bed/1.2" xmlns:q="http://quakeml.org/xmlns/quakeml/1.2" xmlns:ns0="http://some-page.de/xmlns/1.0" xmlns:ns1="http://some-page.de/xmlns/0.1">
  <eventParameters publicID="smi:local/a33cb75e-e761-4506-9390-0862048fe90e">
    <event publicID="smi:nakamura81/event/01095">
      <type>earthquake</type>
      <description>
        <text>deep moonquake</text>
      </description>
      <comment id="smi:nakamura81/event/comment/bulow07/01095">
        <text>bulow_moonquake: A18</text>
      </comment>
      <pick publicID="smi:nakamura81/pick/S14/01095">
        <time>
          <value>1971-04-15T10:22:00.000000Z</value>
          <uncertainty>60.0</uncertainty>
        </time>
        <waveformID networkCode="XA" stationCode="S14" locationCode="" channelCode=""></waveformID>
        <phaseHint>P</phaseHint>
        <ns0:bulow_moonquake>A18</ns0:bulow_moonquake>
      </pick>
      <amplitude publicID="smi:nakamura81/amplitude/S14/01095">
        <genericAmplitude>
          <value>3.5</value>
        </genericAmplitude>
        <type>A</type>
        <unit>other</unit>
        <pickID>smi:nakamura81/pick/S14/01095</pickID>
      </amplitude>
      <ns1:moon_event_type>deep moonquake</ns1:moon_event_type>
    </event>
    <event publicID="smi:nakamura81/event/01096">
      <type>earthquake</type>
      <description>
        <text>deep moonquake</text>
      </description>
      <comment id="smi:nakamura81/event/comment/bulow07/01096">
        <text>bulow_moonquake: A251</text>
      </comment>
      <pick publicID="smi:nakamura81/pick/S14/01096">
        <time>
          <value>1971-04-15T12:22:00.000000Z</value>
          <uncertainty>60.0</uncertainty>
        </time>
        <waveformID networkCode="XA" stationCode="S14" locationCode="" channelCode=""></waveformID>
        <phaseHint>P</phaseHint>
        <ns0:bulow_moonquake>A251</ns0:bulow_moonquake>
      </pick>
      <amplitude publicID="smi:nakamura81/amplitude/S14/01096">
        <genericAmplitude>
          <value>2.2</value>
        </genericAmplitude>
        <type>A</type>
        <unit>other</unit>
        <pickID>smi:nakamura81/pick/S14/01096</pickID>
      </amplitude>
      <ns1:moon_event_type>deep moonquake</ns1:moon_event_type>
    </event>
    <event publicID="smi:nakamura81/event/01097">
      <type>earthquake</type>
      <description>
        <text>deep moonquake</text>
      </description>
      <comment id="smi:nakamura81/event/comment/bulow07/01097">
        <text>bulow_moonquake: A18</text>
      </comment>
      <pick publicID="smi:nakamura81/pick/S14/01097">
        <time>
          <value>1971-04-15T12:57:00.000000Z</value>
          <uncertainty>60.0</uncertainty>
        </time>
        <waveformID networkCode="XA" stationCode="S14" locationCode="" channelCode=""></waveformID>
        <phaseHint>P</phaseHint>
        <ns0:bulow_moonquake>A18</ns0:bulow_moonquake>
      </pick>
      <amplitude publicID="smi:nakamura81/amplitude/S14/01097">
        <genericAmplitude>
          <value>-1.0</value>
        </genericAmplitude>
        <type>A</type>
        <unit>other</unit>
        <pickID>smi:nakamura81/pick/S14/01097</pickID>
      </amplitude>
      <ns1:moon_event_type>deep moonquake</ns1:moon_event_type>
    </event>
    <event publicID="smi:nakamura81/event/01098">
      <type>earthquake</type>
      <description>
        <text>deep moonquake</text>
      </description>
      <comment id="smi:nakamura81/event/comment/01098">
        <text>14 T?</text>
      </comment>
      <comment id="smi:nakamura81/event/comment/bulow07/01098">
        <text>bulow_moonquake: A366</text>
      </comment>
      <pick publicID="smi:nakamura81/pick/S14/01098">
        <time>
          <value>1971-04-15T13:42:00.000000Z</value>
          <uncertainty>60.0</uncertainty>
        </time>
        <waveformID networkCode="XA" stationCode="S14" locationCode="" channelCode=""></waveformID>
        <phaseHint>P</phaseHint>
        <ns0:bulow_moonquake>A366</ns0:bulow_moonquake>
      </pick>
      <amplitude publicID="smi:nakamura81/amplitude/S14/01098">
        <genericAmplitude>
          <value>2.2</value>
        </genericAmplitude>
        <type>A</type>
        <unit>other</unit>
        <pickID>smi:nakamura81/pick/S14/01098</pickID>
      </amplitude>
      <ns1:moon_event_type>deep moonquake</ns1:moon_event_type>
    </event>
    <event publicID="smi:nakamura81/event/01099">
      <type>earthquake</type>
      <description>
        <text>deep moonquake</text>
      </description>
      <comment id="smi:nakamura81/event/comment/nakamura81/01099">
        <text/>
      </comment>
      <comment id="smi:nakamura81/event/comment/bulow07/01099">
        <text>bulow_moonquake: A26</text>
      </comment>
      <pick publicID="smi:nakamura81/pick/S14/01099">
        <time>
          <value>1971-04-15T15:20:00.000000Z</value>
          <uncertainty>60.0</uncertainty>
        </time>
        <waveformID networkCode="XA" stationCode="S14" locationCode="" channelCode=""></waveformID>
        <phaseHint>P</phaseHint>
        <ns0:bulow_moonquake>A26</ns0:bulow_moonquake>
        <ns0:nakamura_moonquake>A26</ns0:nakamura_moonquake>
      </pick>
      <amplitude publicID="smi:nakamura81/amplitude/S14/01099">
        <genericAmplitude>
          <value>3.7</value>
        </genericAmplitude>
        <type>A</type>
        <unit>other</unit>
        <pickID>smi:nakamura81/pick/S14/01099</pickID>
      </amplitude>
      <ns1:moon_event_type>deep moonquake</ns1:moon_event_type>
    </event>
    <event publicID="smi:nakamura81/event/01100">
      <type>earthquake</type>
      <description>
        <text>deep moonquake</text>
      </description>
      <comment id="smi:nakamura81/event/comment/bulow07/01100">
        <text>bulow_moonquake: A18</text>
      </comment>
      <pick publicID="smi:nakamura81/pick/S14/01100">
        <time>
          <value>1971-04-15T15:34:00.000000Z</value>
          <uncertainty>60.0</uncertainty>
        </time>
        <waveformID networkCode="XA" stationCode="S14" locationCode="" channelCode=""></waveformID>
        <phaseHint>P</phaseHint>
        <ns0:bulow_moonquake>A18</ns0:bulow_moonquake>
      </pick>
      <amplitude publicID="smi:nakamura81/amplitude/S14/01100">
        <genericAmplitude>
          <value>-1.0</value>
        </genericAmplitude>
        <type>A</type>
        <unit>other</unit>
        <pickID>smi:nakamura81/pick/S14/01100</pickID>
      </amplitude>
      <ns1:moon_event_type>deep moonquake</ns1:moon_event_type>
    </event>
    <event publicID="smi:nakamura81/event/01101">
      <type>earthquake</type>
      <description>
        <text>deep moonquake</text>
      </description>
      <comment id="smi:nakamura81/event/comment/bulow07/01101">
        <text>bulow_moonquake: A18</text>
      </comment>
      <pick publicID="smi:nakamura81/pick/S14/01101">
        <time>
          <value>1971-04-15T16:30:00.000000Z</value>
          <uncertainty>60.0</uncertainty>
        </time>
        <waveformID networkCode="XA" stationCode="S14" locationCode="" channelCode=""></waveformID>
        <phaseHint>P</phaseHint>
        <ns0:bulow_moonquake>A18</ns0:bulow_moonquake>
      </pick>
      <amplitude publicID="smi:nakamura81/amplitude/S14/01101">
        <genericAmplitude>
          <value>3.0</value>
        </genericAmplitude>
        <type>A</type>
        <unit>other</unit>
        <pickID>smi:nakamura81/pick/S14/01101</pickID>
      </amplitude>
      <ns1:moon_event_type>deep moonquake</ns1:moon_event_type>
    </event>
    <event publicID="smi:nakamura81/event/01102">
      <type>not reported</type>
      <description>
        <text>unclassified</text>
      </description>
      <pick publicID="smi:nakamura81/pick/S14/01102">
        <time>
          <value>1971-04-15T19:27:00.000000Z</value>
          <uncertainty>60.0</uncertainty>
        </time>
        <waveformID networkCode="XA" stationCode="S14" locationCode="" channelCode=""></waveformID>
        <phaseHint>P</phaseHint>
      </pick>
      <amplitude publicID="smi:nakamura81/amplitude/S14/01102">
        <genericAmplitude>
          <value>3.5</value>
        </genericAmplitude>
        <type>A</type>
        <unit>other</unit>
        <pickID>smi:nakamura81/pick/S14/01102</pickID>
      </amplitude>
      <ns1:moon_event_type>unclassified</ns1:moon_event_type>
    </event>
    <event publicID="smi:nakamura81/event/01103">
      <type>earthquake</type>
      <description>
        <text>deep moonquake</text>
      </description>
      <comment id="smi:nakamura81/event/comment/bulow07/01103">
        <text>bulow_moonquake: A230</text>
      </comment>
      <pick publicID="smi:nakamura81/pick/S14/01103">
        <time>
          <value>1971-04-15T21:04:00.000000Z</value>
          <uncertainty>60.0</uncertainty>
        </time>
        <waveformID networkCode="XA" stationCode="S14" locationCode="" channelCode=""></waveformID>
        <phaseHint>P</phaseHint>
        <ns0:bulow_moonquake>A230</ns0:bulow_moonquake>
      </pick>
      <amplitude publicID="smi:nakamura81/amplitude/S14/01103">
        <genericAmplitude>
          <value>2.7</value>
        </genericAmplitude>
        <type>A</type>
        <unit>other</unit>
        <pickID>smi:nakamura81/pick/S14/01103</pickID>
      </amplitude>
      <ns1:moon_event_type>deep moonquake</ns1:moon_event_type>
    </event>
    <event publicID="smi:nakamura81/event/01104">
      <type>earthquake</type>
      <description>
        <text>deep moonquake</text>
      </description>
      <comment id="smi:nakamura81/event/comment/bulow07/01104">
        <text>bulow_moonquake: A367</text>
      </comment>
      <pick publicID="smi:nakamura81/pick/S14/01104">
        <time>
          <value>1971-04-15T21:57:00.000000Z</value>
          <uncertainty>60.0</uncertainty>
        </time>
        <waveformID networkCode="XA" stationCode="S14" locationCode="" channelCode=""></waveformID>
        <phaseHint>P</phaseHint>
        <ns0:bulow_moonquake>A367</ns0:bulow_moonquake>
      </pick>
      <amplitude publicID="smi:nakamura81/amplitude/S14/01104">
        <genericAmplitude>
          <value>2.5</value>
        </genericAmplitude>
        <type>A</type>
        <unit>other</unit>
        <pickID>smi:nakamura81/pick/S14/01104</pickID>
      </amplitude>
      <ns1:moon_event_type>deep moonquake</ns1:moon_event_type>
    </event>
    <event publicID="smi:nakamura81/event/01105">
      <type>not reported</type>
      <description>
        <text>unclassified</text>
      </description>
      <pick publicID="smi:nakamura81/pick/S14/01105">
        <time>
          <value>1971-04-15T23:08:00.000000Z</value>
          <uncertainty>60.0</uncertainty>
        </time>
        <waveformID networkCode="XA" stationCode="S14" locationCode="" channelCode=""></waveformID>
        <phaseHint>P</phaseHint>
      </pick>
      <amplitude publicID="smi:nakamura81/amplitude/S14/01105">
        <genericAmplitude>
          <value>2.5</value>
        </genericAmplitude>
        <type>A</type>
        <unit>other</unit>
        <pickID>smi:nakamura81/pick/S14/01105</pickID>
      </amplitude>
      <ns1:moon_event_type>unclassified</ns1:moon_event_type>
    </event>
    <event publicID="smi:nakamura81/event/01106">
      <type>earthquake</type>
      <description>
        <text>deep moonquake</text>
      </description>
      <comment id="smi:nakamura81/event/comment/bulow07/01106">
        <text>bulow_moonquake: A220</text>
      </comment>
      <pick publicID="smi:nakamura81/pick/S14/01106">
        <time>
          <value>1971-04-15T23:22:00.000000Z</value>
          <uncertainty>60.0</uncertainty>
        </time>
        <waveformID networkCode="XA" stationCode="S14" locationCode="" channelCode=""></waveformID>
        <phaseHint>P</phaseHint>
        <ns0:bulow_moonquake>A220</ns0:bulow_moonquake>
      </pick>
      <amplitude publicID="smi:nakamura81/amplitude/S14/01106">
        <genericAmplitude>
          <value>3.5</value>
        </genericAmplitude>
        <type>A</type>
        <unit>other</unit>
        <pickID>smi:nakamura81/pick/S14/01106</pickID>
      </amplitude>
      <ns1:moon_event_type>deep moonquake</ns1:moon_event_type>
    </event>
    <event publicID="smi:nakamura81/event/01107">
      <type>not reported</type>
      <description>
        <text>unclassified</text>
      </description>
      <pick publicID="smi:nakamura81/pick/S14/01107">
        <time>
          <value>1971-04-16T01:14:00.000000Z</value>
          <uncertainty>60.0</uncertainty>
        </time>
        <waveformID networkCode="XA" stationCode="S14" locationCode="" channelCode=""></waveformID>
        <phaseHint>P</phaseHint>
      </pick>
      <amplitude publicID="smi:nakamura81/amplitude/S14/01107">
        <genericAmplitude>
          <value>2.5</value>
        </genericAmplitude>
        <type>A</type>
        <unit>other</unit>
        <pickID>smi:nakamura81/pick/S14/01107</pickID>
      </amplitude>
      <ns1:moon_event_type>unclassified</ns1:moon_event_type>
    </event>
    <event publicID="smi:nakamura81/event/01108">
      <type>earthquake</type>
      <description>
        <text>deep moonquake</text>
      </description>
      <comment id="smi:nakamura81/event/comment/bulow07/01108">
        <text>bulow_moonquake: A337</text>
      </comment>
      <pick publicID="smi:nakamura81/pick/S14/01108">
        <time>
          <value>1971-04-16T03:05:00.000000Z</value>
          <uncertainty>60.0</uncertainty>
        </time>
        <waveformID networkCode="XA" stationCode="S14" locationCode="" channelCode=""></waveformID>
        <phaseHint>P</phaseHint>
        <ns0:bulow_moonquake>A337</ns0:bulow_moonquake>
      </pick>
      <amplitude publicID="smi:nakamura81/amplitude/S14/01108">
        <genericAmplitude>
          <value>3.0</value>
        </genericAmplitude>
        <type>A</type>
        <unit>other</unit>
        <pickID>smi:nakamura81/pick/S14/01108</pickID>
      </amplitude>
      <ns1:moon_event_type>deep moonquake</ns1:moon_event_type>
    </event>
    <event publicID="smi:nakamura81/event/01109">
      <type>not reported</type>
      <description>
        <text>unclassified</text>
      </description>
      <pick publicID="smi:nakamura81/pick/S14/01109">
        <time>
          <value>1971-04-16T05:58:00.000000Z</value>
          <uncertainty>60.0</uncertainty>
        </time>
        <waveformID networkCode="XA" stationCode="S14" locationCode="" channelCode=""></waveformID>
        <phaseHint>P</phaseHint>
      </pick>
      <amplitude publicID="smi:nakamura81/amplitude/S14/01109">
        <genericAmplitude>
          <value>2.2</value>
        </genericAmplitude>
        <type>A</type>
        <unit>other</unit>
        <pickID>smi:nakamura81/pick/S14/01109</pickID>
      </amplitude>
      <ns1:moon_event_type>unclassified</ns1:moon_event_type>
    </event>
    <event publicID="smi:nakamura81/event/01110">
      <type>earthquake</type>
      <description>
        <text>deep moonquake</text>
      </description>
      <comment id="smi:nakamura81/event/comment/bulow07/01110">
        <text>bulow_moonquake: A1</text>
      </comment>
      <pick publicID="smi:nakamura81/pick/S14/01110">
        <time>
          <value>1971-04-16T07:10:00.000000Z</value>
          <uncertainty>60.0</uncertainty>
        </time>
        <waveformID networkCode="XA" stationCode="S14" locationCode="" channelCode=""></waveformID>
        <phaseHint>P</phaseHint>
        <ns0:bulow_moonquake>A1</ns0:bulow_moonquake>
      </pick>
      <amplitude publicID="smi:nakamura81/amplitude/S14/01110">
        <genericAmplitude>
          <value>3.0</value>
        </genericAmplitude>
        <type>A</type>
        <unit>other</unit>
        <pickID>smi:nakamura81/pick/S14/01110</pickID>
      </amplitude>
      <ns1:moon_event_type>deep moonquake</ns1:moon_event_type>
    </event>
    <event publicID="smi:nakamura81/event/01111">
      <type>not reported</type>
      <description>
        <text>unclassified</text>
      </description>
      <pick publicID="smi:nakamura81/pick/S14/01111">
        <time>
          <value>1971-04-16T07:24:00.000000Z</value>
          <uncertainty>60.0</uncertainty>
        </time>
        <waveformID networkCode="XA" stationCode="S14" locationCode="" channelCode=""></waveformID>
        <phaseHint>P</phaseHint>
      </pick>
      <amplitude publicID="smi:nakamura81/amplitude/S14/01111">
        <genericAmplitude>
          <value>3.0</value>
        </genericAmplitude>
        <type>A</type>
        <unit>other</unit>
        <pickID>smi:nakamura81/pick/S14/01111</pickID>
      </amplitude>
      <ns1:moon_event_type>unclassified</ns1:moon_event_type>
    </event>
    <event publicID="smi:nakamura81/event/01112">
      <type>earthquake</type>
      <description>
        <text>deep moonquake</text>
      </description>
      <comment id="smi:nakamura81/event/comment/bulow07/01112">
        <text>bulow_moonquake: A18</text>
      </comment>
      <pick publicID="smi:nakamura81/pick/S14/01112">
        <time>
          <value>1971-04-16T08:26:00.000000Z</value>
          <uncertainty>60.0</uncertainty>
        </time>
        <waveformID networkCode="XA" stationCode="S14" locationCode="" channelCode=""></waveformID>
        <phaseHint>P</phaseHint>
        <ns0:bulow_moonquake>A18</ns0:bulow_moonquake>
      </pick>
      <amplitude publicID="smi:nakamura81/amplitude/S14/01112">
        <genericAmplitude>
          <value>-1.0</value>
        </genericAmplitude>
        <type>A</type>
        <unit>other</unit>
        <pickID>smi:nakamura81/pick/S14/01112</pickID>
      </amplitude>
      <ns1:moon_event_type>deep moonquake</ns1:moon_event_type>
    </event>
    <event publicID="smi:nakamura81/event/01113">
      <type>not reported</type>
      <description>
        <text>unclassified</text>
      </description>
      <pick publicID="smi:nakamura81/pick/S14/01113">
        <time>
          <value>1971-04-16T09:27:00.000000Z</value>
          <uncertainty>60.0</uncertainty>
        </time>
        <waveformID networkCode="XA" stationCode="S14" locationCode="" channelCode=""></waveformID>
        <phaseHint>P</phaseHint>
      </pick>
      <amplitude publicID="smi:nakamura81/amplitude/S14/01113">
        <genericAmplitude>
          <value>2.2</value>
        </genericAmplitude>
        <type>A</type>
        <unit>other</unit>
        <pickID>smi:nakamura81/pick/S14/01113</pickID>
      </amplitude>
      <ns1:moon_event_type>unclassified</ns1:moon_event_type>
    </event>
    <event publicID="smi:nakamura81/event/01114">
      <type>earthquake</type>
      <description>
        <text>deep moonquake</text>
      </description>
      <comment id="smi:nakamura81/event/comment/bulow07/01114">
        <text>bulow_moonquake: A38</text>
      </comment>
      <pick publicID="smi:nakamura81/pick/S14/01114">
        <time>
          <value>1971-04-16T13:43:00.000000Z</value>
          <uncertainty>60.0</uncertainty>
        </time>
        <waveformID networkCode="XA" stationCode="S14" locationCode="" channelCode=""></waveformID>
        <phaseHint>P</phaseHint>
        <ns0:bulow_moonquake>A38</ns0:bulow_moonquake>
      </pick>
      <amplitude publicID="smi:nakamura81/amplitude/S14/01114">
        <genericAmplitude>
          <value>3.7</value>
        </genericAmplitude>
        <type>A</type>
        <unit>other</unit>
        <pickID>smi:nakamura81/pick/S14/01114</pickID>
      </amplitude>
      <ns1:moon_event_type>deep moonquake</ns1:moon_event_type>
    </event>
    <event publicID="smi:nakamura81/event/01115">
      <type>not reported</type>
      <description>
        <text>unclassified</text>
      </description>
      <pick publicID="smi:nakamura81/pick/S14/01115">
        <time>
          <value>1971-04-16T14:48:00.000000Z</value>
