<?xml version='1.0' encoding='utf-8'?>
<q:quakeml xmlns="http://quakeml.org/xmlns/bed/1.2" xmlns:q="http://quakeml.org/xmlns/quakeml/1.2" xmlns:ns0="http://some-page.de/xmlns/1.0" xmlns:ns1="http://some-page.de/xmlns/0.1">
  <eventParameters publicID="smi:local/7ca9a42c-7788-4d92-9576-7fa76b279f1d">
    <event publicID="smi:nakamura81/event/06052">
      <type>meteorite</type>
      <description>
        <text>meteoroid</text>
      </description>
      <comment id="smi:nakamura81/event/comment/06052">
        <text>C NEAR 15</text>
      </comment>
      <pick publicID="smi:nakamura81/pick/S15/06052">
        <time>
          <value>1973-03-13T22:07:00.000000Z</value>
          <uncertainty>60.0</uncertainty>
        </time>
        <waveformID networkCode="XA" stationCode="S15" locationCode="" channelCode=""></waveformID>
        <phaseHint>P</phaseHint>
        <comment id="smi:nakamura81/pick/comment/S15/06052">
          <text>noisy data</text>
        </comment>
      </pick>
      <amplitude publicID="smi:nakamura81/amplitude/S15/06052">
        <genericAmplitude>
          <value>6.0</value>
        </genericAmplitude>
        <type>A</type>
        <unit>other</unit>
        <pickID>smi:nakamura81/pick/S15/06052</pickID>
      </amplitude>
      <ns1:moon_event_type>meteoroid</ns1:moon_event_type>
    </event>
    <event publicID="smi:nakamura81/event/06066">
      <type>earthquake</type>
      <description>
        <text>unclassified deep moonquake</text>
      </description>
      <pick publicID="smi:nakamura81/pick/S15/06066">
        <time>
          <value>1973-03-15T02:08:00.000000Z</value>
          <uncertainty>60.0</uncertainty>
        </time>
        <waveformID networkCode="XA" stationCode="S15" locationCode="" channelCode=""></waveformID>
        <phaseHint>P</phaseHint>
        <comment id="smi:nakamura81/pick/comment/S15/06066">
          <text>noisy data</text>
        </comment>
      </pick>
      <amplitude publicID="smi:nakamura81/amplitude/S15/06066">
        <genericAmplitude>
          <value>2.0</value>
        </genericAmplitude>
        <type>A</type>
        <unit>other</unit>
        <pickID>smi:nakamura81/pick/S15/06066</pickID>
      </amplitude>
      <ns1:moon_event_type>unclassified deep moonquake</ns1:moon_event_type>
    </event>
    <event publicID="smi:nakamura81/event/06072">
      <type>meteorite</type>
      <description>
        <text>meteoroid</text>
      </description>
      <comment id="smi:nakamura81/event/comment/06072">
        <text>NEAR 16</text>
      </comment>
      <pick publicID="smi:nakamura81/pick/S15/06072">
        <time>
          <value>1973-03-15T13:46:00.000000Z</value>
          <uncertainty>60.0</uncertainty>
        </time>
        <waveformID networkCode="XA" stationCode="S15" locationCode="" channelCode=""></waveformID>
        <phaseHint>P</phaseHint>
        <comment id="smi:nakamura81/pick/comment/S15/06072">
          <text>noisy data</text>
        </comment>
      </pick>
      <amplitude publicID="smi:nakamura81/amplitude/S15/06072">
        <genericAmplitude>
          <value>2.0</value>
        </genericAmplitude>
        <type>A</type>
        <unit>other</unit>
        <pickID>smi:nakamura81/pick/S15/06072</pickID>
      </amplitude>
      <ns1:moon_event_type>meteoroid</ns1:moon_event_type>
    </event>
    <event publicID="smi:nakamura81/event/06080">
      <type>earthquake</type>
      <description>
        <text>unclassified deep moonquake</text>
      </description>
      <pick publicID="smi:nakamura81/pick/S15/06080">
        <time>
          <value>1973-03-16T02:12:00.000000Z</value>
          <uncertainty>60.0</uncertainty>
        </time>
        <waveformID networkCode="XA" stationCode="S15" locationCode="" channelCode=""></waveformID>
        <phaseHint>P</phaseHint>
        <comment id="smi:nakamura81/pick/comment/S15/06080">
          <text>noisy data</text>
        </comment>
      </pick>
      <amplitude publicID="smi:nakamura81/amplitude/S15/06080">
        <genericAmplitude>
          <value>2.8</value>
        </genericAmplitude>
        <type>A</type>
        <unit>other</unit>
        <pickID>smi:nakamura81/pick/S15/06080</pickID>
      </amplitude>
      <ns1:moon_event_type>unclassified deep moonquake</ns1:moon_event_type>
    </event>
    <event publicID="smi:nakamura81/event/06081">
      <type>earthquake</type>
      <description>
        <text>unclassified deep moonquake</text>
      </description>
      <pick publicID="smi:nakamura81/pick/S15/06081">
        <time>
          <value>1973-03-16T03:23:00.000000Z</value>
          <uncertainty>60.0</uncertainty>
        </time>
        <waveformID networkCode="XA" stationCode="S15" locationCode="" channelCode=""></waveformID>
        <phaseHint>P</phaseHint>
        <comment id="smi:nakamura81/pick/comment/S15/06081">
          <text>noisy data</text>
        </comment>
      </pick>
      <amplitude publicID="smi:nakamura81/amplitude/S15/06081">
        <genericAmplitude>
          <value>1.8</value>
        </genericAmplitude>
        <type>A</type>
        <unit>other</unit>
        <pickID>smi:nakamura81/pick/S15/06081</pickID>
      </amplitude>
      <ns1:moon_event_type>unclassified deep moonquake</ns1:moon_event_type>
    </event>
    <event publicID="smi:nakamura81/event/06088">
      <type>meteorite</type>
      <description>
        <text>meteoroid</text>
      </description>
      <comment id="smi:nakamura81/event/comment/06088">
        <text>C SP=6</text>
      </comment>
      <pick publicID="smi:nakamura81/pick/S15/06088">
        <time>
          <value>1973-03-16T16:58:00.000000Z</value>
          <uncertainty>60.0</uncertainty>
        </time>
        <waveformID networkCode="XA" stationCode="S15" locationCode="" channelCode=""></waveformID>
        <phaseHint>P</phaseHint>
        <comment id="smi:nakamura81/pick/comment/S15/06088">
          <text>noisy data</text>
        </comment>
      </pick>
      <amplitude publicID="smi:nakamura81/amplitude/S15/06088">
        <genericAmplitude>
          <value>2.8</value>
        </genericAmplitude>
        <type>A</type>
        <unit>other</unit>
        <pickID>smi:nakamura81/pick/S15/06088</pickID>
      </amplitude>
      <ns1:moon_event_type>meteoroid</ns1:moon_event_type>
    </event>
    <event publicID="smi:nakamura81/event/06100">
      <type>meteorite</type>
      <description>
        <text>meteoroid</text>
      </description>
      <pick publicID="smi:nakamura81/pick/S15/06100">
        <time>
          <value>1973-03-17T08:58:00.000000Z</value>
          <uncertainty>60.0</uncertainty>
        </time>
        <waveformID networkCode="XA" stationCode="S15" locationCode="" channelCode=""></waveformID>
        <phaseHint>P</phaseHint>
      </pick>
      <amplitude publicID="smi:nakamura81/amplitude/S15/06100">
        <genericAmplitude>
          <value>6.0</value>
        </genericAmplitude>
        <type>A</type>
        <unit>other</unit>
        <pickID>smi:nakamura81/pick/S15/06100</pickID>
      </amplitude>
      <ns1:moon_event_type>meteoroid</ns1:moon_event_type>
    </event>
    <event publicID="smi:nakamura81/event/06120">
      <type>meteorite</type>
      <description>
        <text>meteoroid</text>
      </description>
      <comment id="smi:nakamura81/event/comment/06120">
        <text>C</text>
      </comment>
      <pick publicID="smi:nakamura81/pick/S15/06120">
        <time>
          <value>1973-03-20T06:05:00.000000Z</value>
          <uncertainty>60.0</uncertainty>
        </time>
        <waveformID networkCode="XA" stationCode="S15" locationCode="" channelCode=""></waveformID>
        <phaseHint>P</phaseHint>
      </pick>
      <amplitude publicID="smi:nakamura81/amplitude/S15/06120">
        <genericAmplitude>
          <value>1.3</value>
        </genericAmplitude>
        <type>A</type>
        <unit>other</unit>
        <pickID>smi:nakamura81/pick/S15/06120</pickID>
      </amplitude>
      <ns1:moon_event_type>meteoroid</ns1:moon_event_type>
    </event>
    <event publicID="smi:nakamura81/event/06124">
      <type>meteorite</type>
      <description>
        <text>meteoroid</text>
      </description>
      <pick publicID="smi:nakamura81/pick/S15/06124">
        <time>
          <value>1973-03-20T18:35:00.000000Z</value>
          <uncertainty>60.0</uncertainty>
        </time>
        <waveformID networkCode="XA" stationCode="S15" locationCode="" channelCode=""></waveformID>
        <phaseHint>P</phaseHint>
      </pick>
      <amplitude publicID="smi:nakamura81/amplitude/S15/06124">
        <genericAmplitude>
          <value>1.8</value>
        </genericAmplitude>
        <type>A</type>
        <unit>other</unit>
        <pickID>smi:nakamura81/pick/S15/06124</pickID>
      </amplitude>
      <ns1:moon_event_type>meteoroid</ns1:moon_event_type>
    </event>
    <event publicID="smi:nakamura81/event/06125">
      <type>not reported</type>
      <description>
        <text>unclassified</text>
      </description>
      <pick publicID="smi:nakamura81/pick/S15/06125">
        <time>
          <value>1973-03-21T10:02:00.000000Z</value>
          <uncertainty>60.0</uncertainty>
        </time>
        <waveformID networkCode="XA" stationCode="S15" locationCode="" channelCode=""></waveformID>
        <phaseHint>P</phaseHint>
      </pick>
      <amplitude publicID="smi:nakamura81/amplitude/S15/06125">
        <genericAmplitude>
          <value>1.2</value>
        </genericAmplitude>
        <type>A</type>
        <unit>other</unit>
        <pickID>smi:nakamura81/pick/S15/06125</pickID>
      </amplitude>
      <ns1:moon_event_type>unclassified</ns1:moon_event_type>
    </event>
    <event publicID="smi:nakamura81/event/06127">
      <type>meteorite</type>
      <description>
        <text>meteoroid</text>
      </description>
      <pick publicID="smi:nakamura81/pick/S15/06127">
        <time>
          <value>1973-03-22T09:30:00.000000Z</value>
          <uncertainty>60.0</uncertainty>
        </time>
        <waveformID networkCode="XA" stationCode="S15" locationCode="" channelCode=""></waveformID>
        <phaseHint>P</phaseHint>
      </pick>
      <amplitude publicID="smi:nakamura81/amplitude/S15/06127">
        <genericAmplitude>
          <value>2.0</value>
        </genericAmplitude>
        <type>A</type>
        <unit>other</unit>
        <pickID>smi:nakamura81/pick/S15/06127</pickID>
      </amplitude>
      <ns1:moon_event_type>meteoroid</ns1:moon_event_type>
    </event>
    <event publicID="smi:nakamura81/event/06129">
      <type>meteorite</type>
      <description>
        <text>meteoroid</text>
      </description>
      <pick publicID="smi:nakamura81/pick/S15/06129">
        <time>
          <value>1973-03-22T15:18:00.000000Z</value>
          <uncertainty>60.0</uncertainty>
        </time>
        <waveformID networkCode="XA" stationCode="S15" locationCode="" channelCode=""></waveformID>
        <phaseHint>P</phaseHint>
      </pick>
      <amplitude publicID="smi:nakamura81/amplitude/S15/06129">
        <genericAmplitude>
          <value>8.0</value>
        </genericAmplitude>
        <type>A</type>
        <unit>other</unit>
        <pickID>smi:nakamura81/pick/S15/06129</pickID>
      </amplitude>
      <ns1:moon_event_type>meteoroid</ns1:moon_event_type>
    </event>
    <event publicID="smi:nakamura81/event/06130">
      <type>not reported</type>
      <description>
        <text>unclassified</text>
      </description>
      <pick publicID="smi:nakamura81/pick/S15/06130">
        <time>
          <value>1973-03-22T17:03:00.000000Z</value>
          <uncertainty>60.0</uncertainty>
        </time>
        <waveformID networkCode="XA" stationCode="S15" locationCode="" channelCode=""></waveformID>
        <phaseHint>P</phaseHint>
      </pick>
      <amplitude publicID="smi:nakamura81/amplitude/S15/06130">
        <genericAmplitude>
          <value>2.0</value>
        </genericAmplitude>
        <type>A</type>
        <unit>other</unit>
        <pickID>smi:nakamura81/pick/S15/06130</pickID>
      </amplitude>
      <ns1:moon_event_type>unclassified</ns1:moon_event_type>
    </event>
    <event publicID="smi:nakamura81/event/06132">
      <type>earthquake</type>
      <description>
        <text>deep moonquake</text>
      </description>
      <comment id="smi:nakamura81/event/comment/bulow07/06132">
        <text>bulow_moonquake: A259</text>
      </comment>
      <pick publicID="smi:nakamura81/pick/S15/06132">
        <time>
          <value>1973-03-22T20:32:00.000000Z</value>
          <uncertainty>60.0</uncertainty>
        </time>
        <waveformID networkCode="XA" stationCode="S15" locationCode="" channelCode=""></waveformID>
        <phaseHint>P</phaseHint>
        <ns0:bulow_moonquake>A259</ns0:bulow_moonquake>
      </pick>
      <amplitude publicID="smi:nakamura81/amplitude/S15/06132">
        <genericAmplitude>
          <value>2.1</value>
        </genericAmplitude>
        <type>A</type>
        <unit>other</unit>
        <pickID>smi:nakamura81/pick/S15/06132</pickID>
      </amplitude>
      <ns1:moon_event_type>deep moonquake</ns1:moon_event_type>
    </event>
    <event publicID="smi:nakamura81/event/06133">
      <type>not reported</type>
      <description>
        <text>unclassified</text>
      </description>
      <pick publicID="smi:nakamura81/pick/S15/06133">
        <time>
          <value>1973-03-23T03:22:00.000000Z</value>
          <uncertainty>60.0</uncertainty>
        </time>
        <waveformID networkCode="XA" stationCode="S15" locationCode="" channelCode=""></waveformID>
        <phaseHint>P</phaseHint>
      </pick>
      <amplitude publicID="smi:nakamura81/amplitude/S15/06133">
        <genericAmplitude>
          <value>2.0</value>
        </genericAmplitude>
        <type>A</type>
        <unit>other</unit>
        <pickID>smi:nakamura81/pick/S15/06133</pickID>
      </amplitude>
      <ns1:moon_event_type>unclassified</ns1:moon_event_type>
    </event>
    <event publicID="smi:nakamura81/event/06134">
      <type>earthquake</type>
      <description>
        <text>deep moonquake</text>
      </description>
      <comment id="smi:nakamura81/event/comment/bulow07/06134">
        <text>bulow_moonquake: A307</text>
      </comment>
      <pick publicID="smi:nakamura81/pick/S15/06134">
        <time>
          <value>1973-03-23T04:54:00.000000Z</value>
          <uncertainty>60.0</uncertainty>
        </time>
        <waveformID networkCode="XA" stationCode="S15" locationCode="" channelCode=""></waveformID>
        <phaseHint>P</phaseHint>
        <ns0:bulow_moonquake>A307</ns0:bulow_moonquake>
      </pick>
      <amplitude publicID="smi:nakamura81/amplitude/S15/06134">
        <genericAmplitude>
          <value>2.0</value>
        </genericAmplitude>
        <type>A</type>
        <unit>other</unit>
        <pickID>smi:nakamura81/pick/S15/06134</pickID>
      </amplitude>
      <ns1:moon_event_type>deep moonquake</ns1:moon_event_type>
    </event>
    <event publicID="smi:nakamura81/event/06135">
      <type>earthquake</type>
      <description>
        <text>deep moonquake</text>
      </description>
      <comment id="smi:nakamura81/event/comment/bulow07/06135">
        <text>bulow_moonquake: A17</text>
      </comment>
      <pick publicID="smi:nakamura81/pick/S15/06135">
        <time>
          <value>1973-03-23T09:52:00.000000Z</value>
          <uncertainty>60.0</uncertainty>
        </time>
        <waveformID networkCode="XA" stationCode="S15" locationCode="" channelCode=""></waveformID>
        <phaseHint>P</phaseHint>
        <ns0:bulow_moonquake>A17</ns0:bulow_moonquake>
      </pick>
      <amplitude publicID="smi:nakamura81/amplitude/S15/06135">
        <genericAmplitude>
          <value>2.5</value>
        </genericAmplitude>
        <type>A</type>
        <unit>other</unit>
        <pickID>smi:nakamura81/pick/S15/06135</pickID>
      </amplitude>
      <ns1:moon_event_type>deep moonquake</ns1:moon_event_type>
    </event>
    <event publicID="smi:nakamura81/event/06137">
      <type>meteorite</type>
      <description>
        <text>meteoroid</text>
      </description>
      <pick publicID="smi:nakamura81/pick/S15/06137">
        <time>
          <value>1973-03-23T17:07:00.000000Z</value>
          <uncertainty>60.0</uncertainty>
        </time>
        <waveformID networkCode="XA" stationCode="S15" locationCode="" channelCode=""></waveformID>
        <phaseHint>P</phaseHint>
      </pick>
      <amplitude publicID="smi:nakamura81/amplitude/S15/06137">
        <genericAmplitude>
          <value>13.0</value>
        </genericAmplitude>
        <type>A</type>
        <unit>other</unit>
        <pickID>smi:nakamura81/pick/S15/06137</pickID>
      </amplitude>
      <ns1:moon_event_type>meteoroid</ns1:moon_event_type>
    </event>
    <event publicID="smi:nakamura81/event/06138">
      <type>earthquake</type>
      <description>
        <text>deep moonquake</text>
      </description>
      <comment id="smi:nakamura81/event/comment/bulow07/06138">
        <text>bulow_moonquake: A73</text>
      </comment>
      <pick publicID="smi:nakamura81/pick/S15/06138">
        <time>
          <value>1973-03-23T22:57:00.000000Z</value>
          <uncertainty>60.0</uncertainty>
        </time>
        <waveformID networkCode="XA" stationCode="S15" locationCode="" channelCode=""></waveformID>
        <phaseHint>P</phaseHint>
        <ns0:bulow_moonquake>A73</ns0:bulow_moonquake>
      </pick>
      <amplitude publicID="smi:nakamura81/amplitude/S15/06138">
        <genericAmplitude>
          <value>2.2</value>
        </genericAmplitude>
        <type>A</type>
        <unit>other</unit>
        <pickID>smi:nakamura81/pick/S15/06138</pickID>
      </amplitude>
      <ns1:moon_event_type>deep moonquake</ns1:moon_event_type>
    </event>
    <event publicID="smi:nakamura81/event/06139">
      <type>earthquake</type>
      <description>
        <text>deep moonquake</text>
      </description>
      <comment id="smi:nakamura81/event/comment/nakamura81/06139">
        <text/>
      </comment>
      <comment id="smi:nakamura81/event/comment/bulow07/06139">
        <text>bulow_moonquake: A53</text>
      </comment>
      <pick publicID="smi:nakamura81/pick/S15/06139">
        <time>
          <value>1973-03-24T06:22:00.000000Z</value>
          <uncertainty>60.0</uncertainty>
        </time>
        <waveformID networkCode="XA" stationCode="S15" locationCode="" channelCode=""></waveformID>
        <phaseHint>P</phaseHint>
        <ns0:bulow_moonquake>A53</ns0:bulow_moonquake>
        <ns0:nakamura_moonquake>A53</ns0:nakamura_moonquake>
      </pick>
      <amplitude publicID="smi:nakamura81/amplitude/S15/06139">
        <genericAmplitude>
          <value>4.0</value>
        </genericAmplitude>
        <type>A</type>
        <unit>other</unit>
        <pickID>smi:nakamura81/pick/S15/06139</pickID>
      </amplitude>
      <ns1:moon_event_type>deep moonquake</ns1:moon_event_type>
    </event>
    <event publicID="smi:nakamura81/event/06140">
      <type>earthquake</type>
      <description>
        <text>deep moonquake</text>
      </description>
      <comment id="smi:nakamura81/event/comment/bulow07/06140">
        <text>bulow_moonquake: A20</text>
      </comment>
      <pick publicID="smi:nakamura81/pick/S15/06140">
        <time>
          <value>1973-03-24T06:45:00.000000Z</value>
          <uncertainty>60.0</uncertainty>
        </time>
        <waveformID networkCode="XA" stationCode="S15" locationCode="" channelCode=""></waveformID>
        <phaseHint>P</phaseHint>
        <ns0:bulow_moonquake>A20</ns0:bulow_moonquake>
      </pick>
      <amplitude publicID="smi:nakamura81/amplitude/S15/06140">
        <genericAmplitude>
          <value>3.0</value>
        </genericAmplitude>
        <type>A</type>
        <unit>other</unit>
        <pickID>smi:nakamura81/pick/S15/06140</pickID>
