<?xml version='1.0' encoding='utf-8'?>
<q:quakeml xmlns="http://quakeml.org/xmlns/bed/1.2" xmlns:q="http://quakeml.org/xmlns/quakeml/1.2" xmlns:ns0="http://some-page.de/xmlns/0.1" xmlns:ns1="http://some-page.de/xmlns/1.0">
  <eventParameters publicID="smi:local/a61514c1-d586-4507-b76a-6fde2d71ffed">
    <event publicID="smi:nakamura81/event/03593">
      <type>earthquake</type>
      <description>
        <text>deep moonquake</text>
      </description>
      <comment id="smi:nakamura81/event/comment/03593">
        <text>16 T OFST</text>
      </comment>
      <comment id="smi:nakamura81/event/comment/bulow07/03593">
        <text>bulow_moonquake: A209</text>
      </comment>
      <pick publicID="smi:nakamura81/pick/S12/03593">
        <time>
          <value>1972-06-01T10:36:00.000000Z</value>
          <uncertainty>60.0</uncertainty>
        </time>
        <waveformID networkCode="XA" stationCode="S12" locationCode="" channelCode=""></waveformID>
        <phaseHint>P</phaseHint>
        <ns1:bulow_moonquake>A209</ns1:bulow_moonquake>
      </pick>
      <amplitude publicID="smi:nakamura81/amplitude/S12/03593">
        <genericAmplitude>
          <value>1.0</value>
        </genericAmplitude>
        <type>A</type>
        <unit>other</unit>
        <pickID>smi:nakamura81/pick/S12/03593</pickID>
      </amplitude>
      <ns0:moon_event_type>deep moonquake</ns0:moon_event_type>
    </event>
    <event publicID="smi:nakamura81/event/03594">
      <type>earthquake</type>
      <description>
        <text>deep moonquake</text>
      </description>
      <comment id="smi:nakamura81/event/comment/03594">
        <text>16 T OFST</text>
      </comment>
      <comment id="smi:nakamura81/event/comment/nakamura81/03594">
        <text/>
      </comment>
      <comment id="smi:nakamura81/event/comment/bulow07/03594">
        <text>bulow_moonquake: A21</text>
      </comment>
      <pick publicID="smi:nakamura81/pick/S12/03594">
        <time>
          <value>1972-06-01T10:53:00.000000Z</value>
          <uncertainty>60.0</uncertainty>
        </time>
        <waveformID networkCode="XA" stationCode="S12" locationCode="" channelCode=""></waveformID>
        <phaseHint>P</phaseHint>
        <ns1:bulow_moonquake>A21</ns1:bulow_moonquake>
        <ns1:nakamura_moonquake>A21</ns1:nakamura_moonquake>
      </pick>
      <amplitude publicID="smi:nakamura81/amplitude/S12/03594">
        <genericAmplitude>
          <value>1.5</value>
        </genericAmplitude>
        <type>A</type>
        <unit>other</unit>
        <pickID>smi:nakamura81/pick/S12/03594</pickID>
      </amplitude>
      <ns0:moon_event_type>deep moonquake</ns0:moon_event_type>
    </event>
    <event publicID="smi:nakamura81/event/03595">
      <type>earthquake</type>
      <description>
        <text>deep moonquake</text>
      </description>
      <comment id="smi:nakamura81/event/comment/03595">
        <text>16 T OFST</text>
      </comment>
      <comment id="smi:nakamura81/event/comment/bulow07/03595">
        <text>bulow_moonquake: A227</text>
      </comment>
      <pick publicID="smi:nakamura81/pick/S12/03595">
        <time>
          <value>1972-06-01T17:23:00.000000Z</value>
          <uncertainty>60.0</uncertainty>
        </time>
        <waveformID networkCode="XA" stationCode="S12" locationCode="" channelCode=""></waveformID>
        <phaseHint>P</phaseHint>
        <ns1:bulow_moonquake>A227</ns1:bulow_moonquake>
      </pick>
      <amplitude publicID="smi:nakamura81/amplitude/S12/03595">
        <genericAmplitude>
          <value>0.5</value>
        </genericAmplitude>
        <type>A</type>
        <unit>other</unit>
        <pickID>smi:nakamura81/pick/S12/03595</pickID>
      </amplitude>
      <ns0:moon_event_type>deep moonquake</ns0:moon_event_type>
    </event>
    <event publicID="smi:nakamura81/event/03596">
      <type>earthquake</type>
      <description>
        <text>deep moonquake</text>
      </description>
      <comment id="smi:nakamura81/event/comment/bulow07/03596">
        <text>bulow_moonquake: A37</text>
      </comment>
      <pick publicID="smi:nakamura81/pick/S12/03596">
        <time>
          <value>1972-06-01T22:20:00.000000Z</value>
          <uncertainty>60.0</uncertainty>
        </time>
        <waveformID networkCode="XA" stationCode="S12" locationCode="" channelCode=""></waveformID>
        <phaseHint>P</phaseHint>
        <ns1:bulow_moonquake>A37</ns1:bulow_moonquake>
      </pick>
      <amplitude publicID="smi:nakamura81/amplitude/S12/03596">
        <genericAmplitude>
          <value>1.0</value>
        </genericAmplitude>
        <type>A</type>
        <unit>other</unit>
        <pickID>smi:nakamura81/pick/S12/03596</pickID>
      </amplitude>
      <ns0:moon_event_type>deep moonquake</ns0:moon_event_type>
    </event>
    <event publicID="smi:nakamura81/event/03597">
      <type>earthquake</type>
      <description>
        <text>deep moonquake</text>
      </description>
      <comment id="smi:nakamura81/event/comment/bulow07/03597">
        <text>bulow_moonquake: A207</text>
      </comment>
      <pick publicID="smi:nakamura81/pick/S12/03597">
        <time>
          <value>1972-06-02T03:07:00.000000Z</value>
          <uncertainty>60.0</uncertainty>
        </time>
        <waveformID networkCode="XA" stationCode="S12" locationCode="" channelCode=""></waveformID>
        <phaseHint>P</phaseHint>
        <ns1:bulow_moonquake>A207</ns1:bulow_moonquake>
      </pick>
      <amplitude publicID="smi:nakamura81/amplitude/S12/03597">
        <genericAmplitude>
          <value>0.5</value>
        </genericAmplitude>
        <type>A</type>
        <unit>other</unit>
        <pickID>smi:nakamura81/pick/S12/03597</pickID>
      </amplitude>
      <ns0:moon_event_type>deep moonquake</ns0:moon_event_type>
    </event>
    <event publicID="smi:nakamura81/event/03598">
      <type>earthquake</type>
      <description>
        <text>deep moonquake</text>
      </description>
      <comment id="smi:nakamura81/event/comment/bulow07/03598">
        <text>bulow_moonquake: A14</text>
      </comment>
      <pick publicID="smi:nakamura81/pick/S12/03598">
        <time>
          <value>1972-06-02T04:54:00.000000Z</value>
          <uncertainty>60.0</uncertainty>
        </time>
        <waveformID networkCode="XA" stationCode="S12" locationCode="" channelCode=""></waveformID>
        <phaseHint>P</phaseHint>
        <ns1:bulow_moonquake>A14</ns1:bulow_moonquake>
      </pick>
      <amplitude publicID="smi:nakamura81/amplitude/S12/03598">
        <genericAmplitude>
          <value>0.5</value>
        </genericAmplitude>
        <type>A</type>
        <unit>other</unit>
        <pickID>smi:nakamura81/pick/S12/03598</pickID>
      </amplitude>
      <ns0:moon_event_type>deep moonquake</ns0:moon_event_type>
    </event>
    <event publicID="smi:nakamura81/event/03599">
      <type>earthquake</type>
      <description>
        <text>deep moonquake</text>
      </description>
      <comment id="smi:nakamura81/event/comment/03599">
        <text>16 NOISY</text>
      </comment>
      <comment id="smi:nakamura81/event/comment/nakamura81/03599">
        <text/>
      </comment>
      <comment id="smi:nakamura81/event/comment/bulow07/03599">
        <text>bulow_moonquake: A1</text>
      </comment>
      <pick publicID="smi:nakamura81/pick/S12/03599">
        <time>
          <value>1972-06-02T08:14:00.000000Z</value>
          <uncertainty>60.0</uncertainty>
        </time>
        <waveformID networkCode="XA" stationCode="S12" locationCode="" channelCode=""></waveformID>
        <phaseHint>P</phaseHint>
        <ns1:bulow_moonquake>A1</ns1:bulow_moonquake>
        <ns1:nakamura_moonquake>A01</ns1:nakamura_moonquake>
      </pick>
      <amplitude publicID="smi:nakamura81/amplitude/S12/03599">
        <genericAmplitude>
          <value>1.0</value>
        </genericAmplitude>
        <type>A</type>
        <unit>other</unit>
        <pickID>smi:nakamura81/pick/S12/03599</pickID>
      </amplitude>
      <ns0:moon_event_type>deep moonquake</ns0:moon_event_type>
    </event>
    <event publicID="smi:nakamura81/event/03601">
      <type>not reported</type>
      <description>
        <text>unclassified</text>
      </description>
      <pick publicID="smi:nakamura81/pick/S12/03601">
        <time>
          <value>1972-06-02T14:25:00.000000Z</value>
          <uncertainty>60.0</uncertainty>
        </time>
        <waveformID networkCode="XA" stationCode="S12" locationCode="" channelCode=""></waveformID>
        <phaseHint>P</phaseHint>
        <comment id="smi:nakamura81/pick/comment/S12/03601">
          <text>the time recorded with the data is computer-generated, and thus is not exact</text>
        </comment>
      </pick>
      <amplitude publicID="smi:nakamura81/amplitude/S12/03601">
        <genericAmplitude>
          <value>1.0</value>
        </genericAmplitude>
        <type>A</type>
        <unit>other</unit>
        <pickID>smi:nakamura81/pick/S12/03601</pickID>
      </amplitude>
      <ns0:moon_event_type>unclassified</ns0:moon_event_type>
    </event>
    <event publicID="smi:nakamura81/event/03602">
      <type>earthquake</type>
      <description>
        <text>deep moonquake</text>
      </description>
      <comment id="smi:nakamura81/event/comment/nakamura81/03602">
        <text/>
      </comment>
      <comment id="smi:nakamura81/event/comment/bulow07/03602">
        <text>bulow_moonquake: A21</text>
      </comment>
      <pick publicID="smi:nakamura81/pick/S12/03602">
        <time>
          <value>1972-06-02T21:37:00.000000Z</value>
          <uncertainty>60.0</uncertainty>
        </time>
        <waveformID networkCode="XA" stationCode="S12" locationCode="" channelCode=""></waveformID>
        <phaseHint>P</phaseHint>
        <ns1:bulow_moonquake>A21</ns1:bulow_moonquake>
        <ns1:nakamura_moonquake>A21</ns1:nakamura_moonquake>
      </pick>
      <amplitude publicID="smi:nakamura81/amplitude/S12/03602">
        <genericAmplitude>
          <value>0.5</value>
        </genericAmplitude>
        <type>A</type>
        <unit>other</unit>
        <pickID>smi:nakamura81/pick/S12/03602</pickID>
      </amplitude>
      <ns0:moon_event_type>deep moonquake</ns0:moon_event_type>
    </event>
    <event publicID="smi:nakamura81/event/03603">
      <type>earthquake</type>
      <description>
        <text>deep moonquake</text>
      </description>
      <comment id="smi:nakamura81/event/comment/03603">
        <text>OLD A48</text>
      </comment>
      <comment id="smi:nakamura81/event/comment/nakamura81/03603">
        <text/>
      </comment>
      <comment id="smi:nakamura81/event/comment/bulow07/03603">
        <text>bulow_moonquake: A1</text>
      </comment>
      <pick publicID="smi:nakamura81/pick/S12/03603">
        <time>
          <value>1972-06-03T06:19:00.000000Z</value>
          <uncertainty>60.0</uncertainty>
        </time>
        <waveformID networkCode="XA" stationCode="S12" locationCode="" channelCode=""></waveformID>
        <phaseHint>P</phaseHint>
        <ns1:bulow_moonquake>A1</ns1:bulow_moonquake>
        <ns1:nakamura_moonquake>A01</ns1:nakamura_moonquake>
      </pick>
      <ns0:moon_event_type>deep moonquake</ns0:moon_event_type>
    </event>
    <event publicID="smi:nakamura81/event/03604">
      <type>earthquake</type>
      <description>
        <text>deep moonquake</text>
      </description>
      <comment id="smi:nakamura81/event/comment/bulow07/03604">
        <text>bulow_moonquake: A219</text>
      </comment>
      <pick publicID="smi:nakamura81/pick/S12/03604">
        <time>
          <value>1972-06-03T07:36:00.000000Z</value>
          <uncertainty>60.0</uncertainty>
        </time>
        <waveformID networkCode="XA" stationCode="S12" locationCode="" channelCode=""></waveformID>
        <phaseHint>P</phaseHint>
        <comment id="smi:nakamura81/pick/comment/S12/03604">
          <text>the time recorded with the data is computer-generated, and thus is not exact</text>
        </comment>
        <ns1:bulow_moonquake>A219</ns1:bulow_moonquake>
      </pick>
      <amplitude publicID="smi:nakamura81/amplitude/S12/03604">
        <genericAmplitude>
          <value>0.5</value>
        </genericAmplitude>
        <type>A</type>
        <unit>other</unit>
        <pickID>smi:nakamura81/pick/S12/03604</pickID>
      </amplitude>
      <ns0:moon_event_type>deep moonquake</ns0:moon_event_type>
    </event>
    <event publicID="smi:nakamura81/event/03614">
      <type>earthquake</type>
      <description>
        <text>deep moonquake</text>
      </description>
      <comment id="smi:nakamura81/event/comment/bulow07/03614">
        <text>bulow_moonquake: A1</text>
      </comment>
      <pick publicID="smi:nakamura81/pick/S12/03614">
        <time>
          <value>1972-06-04T00:45:00.000000Z</value>
          <uncertainty>60.0</uncertainty>
        </time>
        <waveformID networkCode="XA" stationCode="S12" locationCode="" channelCode=""></waveformID>
        <phaseHint>P</phaseHint>
        <ns1:bulow_moonquake>A1</ns1:bulow_moonquake>
      </pick>
      <amplitude publicID="smi:nakamura81/amplitude/S12/03614">
        <genericAmplitude>
          <value>-1.0</value>
        </genericAmplitude>
        <type>A</type>
        <unit>other</unit>
        <pickID>smi:nakamura81/pick/S12/03614</pickID>
      </amplitude>
      <ns0:moon_event_type>deep moonquake</ns0:moon_event_type>
    </event>
    <event publicID="smi:nakamura81/event/03628">
      <type>earthquake</type>
      <description>
        <text>deep moonquake</text>
      </description>
      <comment id="smi:nakamura81/event/comment/03628">
        <text>14 NOISY</text>
      </comment>
      <comment id="smi:nakamura81/event/comment/bulow07/03628">
        <text>bulow_moonquake: A224</text>
      </comment>
      <pick publicID="smi:nakamura81/pick/S12/03628">
        <time>
          <value>1972-06-05T05:43:00.000000Z</value>
          <uncertainty>60.0</uncertainty>
        </time>
        <waveformID networkCode="XA" stationCode="S12" locationCode="" channelCode=""></waveformID>
        <phaseHint>P</phaseHint>
        <comment id="smi:nakamura81/pick/comment/S12/03628">
          <text>the time recorded with the data is computer-generated, and thus is not exact</text>
        </comment>
        <ns1:bulow_moonquake>A224</ns1:bulow_moonquake>
      </pick>
      <amplitude publicID="smi:nakamura81/amplitude/S12/03628">
        <genericAmplitude>
          <value>0.5</value>
        </genericAmplitude>
        <type>A</type>
        <unit>other</unit>
        <pickID>smi:nakamura81/pick/S12/03628</pickID>
      </amplitude>
      <ns0:moon_event_type>deep moonquake</ns0:moon_event_type>
    </event>
    <event publicID="smi:nakamura81/event/03631">
      <type>earthquake</type>
      <description>
        <text>deep moonquake</text>
      </description>
      <comment id="smi:nakamura81/event/comment/03631">
        <text>14 AMP ESTIMATED</text>
      </comment>
      <comment id="smi:nakamura81/event/comment/nakamura81/03631">
        <text/>
      </comment>
      <comment id="smi:nakamura81/event/comment/bulow07/03631">
        <text>bulow_moonquake: A14</text>
      </comment>
      <pick publicID="smi:nakamura81/pick/S12/03631">
        <time>
          <value>1972-06-05T16:17:00.000000Z</value>
          <uncertainty>60.0</uncertainty>
        </time>
        <waveformID networkCode="XA" stationCode="S12" locationCode="" channelCode=""></waveformID>
        <phaseHint>P</phaseHint>
        <comment id="smi:nakamura81/pick/comment/S12/03631">
          <text>the time recorded with the data is computer-generated, and thus is not exact</text>
        </comment>
        <ns1:bulow_moonquake>A14</ns1:bulow_moonquake>
        <ns1:nakamura_moonquake>A14</ns1:nakamura_moonquake>
      </pick>
      <amplitude publicID="smi:nakamura81/amplitude/S12/03631">
        <genericAmplitude>
          <value>2.0</value>
        </genericAmplitude>
        <type>A</type>
        <unit>other</unit>
        <pickID>smi:nakamura81/pick/S12/03631</pickID>
      </amplitude>
      <ns0:moon_event_type>deep moonquake</ns0:moon_event_type>
    </event>
    <event publicID="smi:nakamura81/event/03632">
      <type>not reported</type>
      <description>
        <text>unclassified</text>
      </description>
      <pick publicID="smi:nakamura81/pick/S12/03632">
        <time>
          <value>1972-06-05T20:10:00.000000Z</value>
          <uncertainty>60.0</uncertainty>
        </time>
        <waveformID networkCode="XA" stationCode="S12" locationCode="" channelCode=""></waveformID>
        <phaseHint>P</phaseHint>
      </pick>
      <amplitude publicID="smi:nakamura81/amplitude/S12/03632">
        <genericAmplitude>
          <value>0.5</value>
        </genericAmplitude>
        <type>A</type>
        <unit>other</unit>
        <pickID>smi:nakamura81/pick/S12/03632</pickID>
      </amplitude>
      <ns0:moon_event_type>unclassified</ns0:moon_event_type>
    </event>
    <event publicID="smi:nakamura81/event/03639">
      <type>meteorite</type>
      <description>
        <text>meteoroid</text>
      </description>
      <pick publicID="smi:nakamura81/pick/S12/03639">
        <time>
          <value>1972-06-06T07:04:00.000000Z</value>
          <uncertainty>60.0</uncertainty>
        </time>
        <waveformID networkCode="XA" stationCode="S12" locationCode="" channelCode=""></waveformID>
        <phaseHint>P</phaseHint>
      </pick>
      <amplitude publicID="smi:nakamura81/amplitude/S12/03639">
        <genericAmplitude>
          <value>1.0</value>
        </genericAmplitude>
        <type>A</type>
        <unit>other</unit>
        <pickID>smi:nakamura81/pick/S12/03639</pickID>
      </amplitude>
      <ns0:moon_event_type>meteoroid</ns0:moon_event_type>
    </event>
    <event publicID="smi:nakamura81/event/03640">
      <type>earthquake</type>
      <description>
        <text>deep moonquake</text>
      </description>
      <comment id="smi:nakamura81/event/comment/bulow07/03640">
        <text>bulow_moonquake: A44</text>
      </comment>
      <pick publicID="smi:nakamura81/pick/S12/03640">
        <time>
          <value>1972-06-06T07:40:00.000000Z</value>
          <uncertainty>60.0</uncertainty>
        </time>
        <waveformID networkCode="XA" stationCode="S12" locationCode="" channelCode=""></waveformID>
        <phaseHint>P</phaseHint>
        <ns1:bulow_moonquake>A44</ns1:bulow_moonquake>
      </pick>
      <amplitude publicID="smi:nakamura81/amplitude/S12/03640">
        <genericAmplitude>
          <value>1.0</value>
        </genericAmplitude>
        <type>A</type>
        <unit>other</unit>
        <pickID>smi:nakamura81/pick/S12/03640</pickID>
      </amplitude>
      <ns0:moon_event_type>deep moonquake</ns0:moon_event_type>
    </event>
    <event publicID="smi:nakamura81/event/03644">
      <type>earthquake</type>
      <description>
        <text>deep moonquake</text>
      </description>
      <comment id="smi:nakamura81/event/comment/03644">
        <text>15 T?</text>
      </comment>
      <comment id="smi:nakamura81/event/comment/bulow07/03644">
        <text>bulow_moonquake: A348</text>
      </comment>
      <pick publicID="smi:nakamura81/pick/S12/03644">
        <time>
          <value>1972-06-06T16:19:00.000000Z</value>
          <uncertainty>60.0</uncertainty>
        </time>
        <waveformID networkCode="XA" stationCode="S12" locationCode="" channelCode=""></waveformID>
        <phaseHint>P</phaseHint>
        <ns1:bulow_moonquake>A348</ns1:bulow_moonquake>
      </pick>
      <amplitude publicID="smi:nakamura81/amplitude/S12/03644">
        <genericAmplitude>
          <value>0.5</value>
        </genericAmplitude>
        <type>A</type>
        <unit>other</unit>
        <pickID>smi:nakamura81/pick/S12/03644</pickID>
      </amplitude>
