<?xml version='1.0' encoding='utf-8'?>
<q:quakeml xmlns="http://quakeml.org/xmlns/bed/1.2" xmlns:q="http://quakeml.org/xmlns/quakeml/1.2" xmlns:ns0="http://some-page.de/xmlns/0.1" xmlns:ns1="http://some-page.de/xmlns/1.0">
  <eventParameters publicID="smi:local/3803d47f-57d0-44c1-90c8-65a487b7cdf2">
    <event publicID="smi:nakamura81/event/03594">
      <type>earthquake</type>
      <description>
        <text>deep moonquake</text>
      </description>
      <comment id="smi:nakamura81/event/comment/03594">
        <text>16 T OFST</text>
      </comment>
      <comment id="smi:nakamura81/event/comment/nakamura81/03594">
        <text/>
      </comment>
      <comment id="smi:nakamura81/event/comment/bulow07/03594">
        <text>bulow_moonquake: A21</text>
      </comment>
      <pick publicID="smi:nakamura81/pick/S15/03594">
        <time>
          <value>1972-06-01T10:53:00.000000Z</value>
          <uncertainty>60.0</uncertainty>
        </time>
        <waveformID networkCode="XA" stationCode="S15" locationCode="" channelCode=""></waveformID>
        <phaseHint>P</phaseHint>
        <ns1:bulow_moonquake>A21</ns1:bulow_moonquake>
        <ns1:nakamura_moonquake>A21</ns1:nakamura_moonquake>
      </pick>
      <ns0:moon_event_type>deep moonquake</ns0:moon_event_type>
    </event>
    <event publicID="smi:nakamura81/event/03596">
      <type>earthquake</type>
      <description>
        <text>deep moonquake</text>
      </description>
      <comment id="smi:nakamura81/event/comment/bulow07/03596">
        <text>bulow_moonquake: A37</text>
      </comment>
      <pick publicID="smi:nakamura81/pick/S15/03596">
        <time>
          <value>1972-06-01T22:20:00.000000Z</value>
          <uncertainty>60.0</uncertainty>
        </time>
        <waveformID networkCode="XA" stationCode="S15" locationCode="" channelCode=""></waveformID>
        <phaseHint>P</phaseHint>
        <ns1:bulow_moonquake>A37</ns1:bulow_moonquake>
      </pick>
      <amplitude publicID="smi:nakamura81/amplitude/S15/03596">
        <genericAmplitude>
          <value>1.5</value>
        </genericAmplitude>
        <type>A</type>
        <unit>other</unit>
        <pickID>smi:nakamura81/pick/S15/03596</pickID>
      </amplitude>
      <ns0:moon_event_type>deep moonquake</ns0:moon_event_type>
    </event>
    <event publicID="smi:nakamura81/event/03599">
      <type>earthquake</type>
      <description>
        <text>deep moonquake</text>
      </description>
      <comment id="smi:nakamura81/event/comment/03599">
        <text>16 NOISY</text>
      </comment>
      <comment id="smi:nakamura81/event/comment/nakamura81/03599">
        <text/>
      </comment>
      <comment id="smi:nakamura81/event/comment/bulow07/03599">
        <text>bulow_moonquake: A1</text>
      </comment>
      <pick publicID="smi:nakamura81/pick/S15/03599">
        <time>
          <value>1972-06-02T08:14:00.000000Z</value>
          <uncertainty>60.0</uncertainty>
        </time>
        <waveformID networkCode="XA" stationCode="S15" locationCode="" channelCode=""></waveformID>
        <phaseHint>P</phaseHint>
        <comment id="smi:nakamura81/pick/comment/S15/03599">
          <text>the time recorded with the data is computer-generated, and thus is not exact</text>
        </comment>
        <ns1:bulow_moonquake>A1</ns1:bulow_moonquake>
        <ns1:nakamura_moonquake>A01</ns1:nakamura_moonquake>
      </pick>
      <ns0:moon_event_type>deep moonquake</ns0:moon_event_type>
    </event>
    <event publicID="smi:nakamura81/event/03603">
      <type>earthquake</type>
      <description>
        <text>deep moonquake</text>
      </description>
      <comment id="smi:nakamura81/event/comment/03603">
        <text>OLD A48</text>
      </comment>
      <comment id="smi:nakamura81/event/comment/nakamura81/03603">
        <text/>
      </comment>
      <comment id="smi:nakamura81/event/comment/bulow07/03603">
        <text>bulow_moonquake: A1</text>
      </comment>
      <pick publicID="smi:nakamura81/pick/S15/03603">
        <time>
          <value>1972-06-03T06:19:00.000000Z</value>
          <uncertainty>60.0</uncertainty>
        </time>
        <waveformID networkCode="XA" stationCode="S15" locationCode="" channelCode=""></waveformID>
        <phaseHint>P</phaseHint>
        <ns1:bulow_moonquake>A1</ns1:bulow_moonquake>
        <ns1:nakamura_moonquake>A01</ns1:nakamura_moonquake>
      </pick>
      <ns0:moon_event_type>deep moonquake</ns0:moon_event_type>
    </event>
    <event publicID="smi:nakamura81/event/03621">
      <type>not reported</type>
      <description>
        <text>unclassified</text>
      </description>
      <pick publicID="smi:nakamura81/pick/S15/03621">
        <time>
          <value>1972-06-04T11:30:00.000000Z</value>
          <uncertainty>60.0</uncertainty>
        </time>
        <waveformID networkCode="XA" stationCode="S15" locationCode="" channelCode=""></waveformID>
        <phaseHint>P</phaseHint>
      </pick>
      <amplitude publicID="smi:nakamura81/amplitude/S15/03621">
        <genericAmplitude>
          <value>1.0</value>
        </genericAmplitude>
        <type>A</type>
        <unit>other</unit>
        <pickID>smi:nakamura81/pick/S15/03621</pickID>
      </amplitude>
      <ns0:moon_event_type>unclassified</ns0:moon_event_type>
    </event>
    <event publicID="smi:nakamura81/event/03623">
      <type>earthquake</type>
      <description>
        <text>deep moonquake</text>
      </description>
      <comment id="smi:nakamura81/event/comment/bulow07/03623">
        <text>bulow_moonquake: A82</text>
      </comment>
      <pick publicID="smi:nakamura81/pick/S15/03623">
        <time>
          <value>1972-06-04T17:53:00.000000Z</value>
          <uncertainty>60.0</uncertainty>
        </time>
        <waveformID networkCode="XA" stationCode="S15" locationCode="" channelCode=""></waveformID>
        <phaseHint>P</phaseHint>
        <ns1:bulow_moonquake>A82</ns1:bulow_moonquake>
      </pick>
      <amplitude publicID="smi:nakamura81/amplitude/S15/03623">
        <genericAmplitude>
          <value>1.0</value>
        </genericAmplitude>
        <type>A</type>
        <unit>other</unit>
        <pickID>smi:nakamura81/pick/S15/03623</pickID>
      </amplitude>
      <ns0:moon_event_type>deep moonquake</ns0:moon_event_type>
    </event>
    <event publicID="smi:nakamura81/event/03625">
      <type>not reported</type>
      <description>
        <text>unclassified</text>
      </description>
      <pick publicID="smi:nakamura81/pick/S15/03625">
        <time>
          <value>1972-06-04T20:32:00.000000Z</value>
          <uncertainty>60.0</uncertainty>
        </time>
        <waveformID networkCode="XA" stationCode="S15" locationCode="" channelCode=""></waveformID>
        <phaseHint>P</phaseHint>
      </pick>
      <ns0:moon_event_type>unclassified</ns0:moon_event_type>
    </event>
    <event publicID="smi:nakamura81/event/03630">
      <type>earthquake</type>
      <description>
        <text>deep moonquake</text>
      </description>
      <comment id="smi:nakamura81/event/comment/bulow07/03630">
        <text>bulow_moonquake: A19</text>
      </comment>
      <pick publicID="smi:nakamura81/pick/S15/03630">
        <time>
          <value>1972-06-05T14:44:00.000000Z</value>
          <uncertainty>60.0</uncertainty>
        </time>
        <waveformID networkCode="XA" stationCode="S15" locationCode="" channelCode=""></waveformID>
        <phaseHint>P</phaseHint>
        <ns1:bulow_moonquake>A19</ns1:bulow_moonquake>
      </pick>
      <amplitude publicID="smi:nakamura81/amplitude/S15/03630">
        <genericAmplitude>
          <value>2.7</value>
        </genericAmplitude>
        <type>A</type>
        <unit>other</unit>
        <pickID>smi:nakamura81/pick/S15/03630</pickID>
      </amplitude>
      <ns0:moon_event_type>deep moonquake</ns0:moon_event_type>
    </event>
    <event publicID="smi:nakamura81/event/03632">
      <type>not reported</type>
      <description>
        <text>unclassified</text>
      </description>
      <pick publicID="smi:nakamura81/pick/S15/03632">
        <time>
          <value>1972-06-05T20:10:00.000000Z</value>
          <uncertainty>60.0</uncertainty>
        </time>
        <waveformID networkCode="XA" stationCode="S15" locationCode="" channelCode=""></waveformID>
        <phaseHint>P</phaseHint>
      </pick>
      <amplitude publicID="smi:nakamura81/amplitude/S15/03632">
        <genericAmplitude>
          <value>0.5</value>
        </genericAmplitude>
        <type>A</type>
        <unit>other</unit>
        <pickID>smi:nakamura81/pick/S15/03632</pickID>
      </amplitude>
      <ns0:moon_event_type>unclassified</ns0:moon_event_type>
    </event>
    <event publicID="smi:nakamura81/event/03636">
      <type>earthquake</type>
      <description>
        <text>deep moonquake</text>
      </description>
      <comment id="smi:nakamura81/event/comment/bulow07/03636">
        <text>bulow_moonquake: A277</text>
      </comment>
      <pick publicID="smi:nakamura81/pick/S15/03636">
        <time>
          <value>1972-06-06T04:14:00.000000Z</value>
          <uncertainty>60.0</uncertainty>
        </time>
        <waveformID networkCode="XA" stationCode="S15" locationCode="" channelCode=""></waveformID>
        <phaseHint>P</phaseHint>
        <ns1:bulow_moonquake>A277</ns1:bulow_moonquake>
      </pick>
      <amplitude publicID="smi:nakamura81/amplitude/S15/03636">
        <genericAmplitude>
          <value>1.0</value>
        </genericAmplitude>
        <type>A</type>
        <unit>other</unit>
        <pickID>smi:nakamura81/pick/S15/03636</pickID>
      </amplitude>
      <ns0:moon_event_type>deep moonquake</ns0:moon_event_type>
    </event>
    <event publicID="smi:nakamura81/event/03639">
      <type>meteorite</type>
      <description>
        <text>meteoroid</text>
      </description>
      <pick publicID="smi:nakamura81/pick/S15/03639">
        <time>
          <value>1972-06-06T07:04:00.000000Z</value>
          <uncertainty>60.0</uncertainty>
        </time>
        <waveformID networkCode="XA" stationCode="S15" locationCode="" channelCode=""></waveformID>
        <phaseHint>P</phaseHint>
      </pick>
      <amplitude publicID="smi:nakamura81/amplitude/S15/03639">
        <genericAmplitude>
          <value>1.0</value>
        </genericAmplitude>
        <type>A</type>
        <unit>other</unit>
        <pickID>smi:nakamura81/pick/S15/03639</pickID>
      </amplitude>
      <ns0:moon_event_type>meteoroid</ns0:moon_event_type>
    </event>
    <event publicID="smi:nakamura81/event/03640">
      <type>earthquake</type>
      <description>
        <text>deep moonquake</text>
      </description>
      <comment id="smi:nakamura81/event/comment/bulow07/03640">
        <text>bulow_moonquake: A44</text>
      </comment>
      <pick publicID="smi:nakamura81/pick/S15/03640">
        <time>
          <value>1972-06-06T07:40:00.000000Z</value>
          <uncertainty>60.0</uncertainty>
        </time>
        <waveformID networkCode="XA" stationCode="S15" locationCode="" channelCode=""></waveformID>
        <phaseHint>P</phaseHint>
        <ns1:bulow_moonquake>A44</ns1:bulow_moonquake>
      </pick>
      <amplitude publicID="smi:nakamura81/amplitude/S15/03640">
        <genericAmplitude>
          <value>1.0</value>
        </genericAmplitude>
        <type>A</type>
        <unit>other</unit>
        <pickID>smi:nakamura81/pick/S15/03640</pickID>
      </amplitude>
      <ns0:moon_event_type>deep moonquake</ns0:moon_event_type>
    </event>
    <event publicID="smi:nakamura81/event/03647">
      <type>earthquake</type>
      <description>
        <text>deep moonquake</text>
      </description>
      <comment id="smi:nakamura81/event/comment/bulow07/03647">
        <text>bulow_moonquake: A70</text>
      </comment>
      <pick publicID="smi:nakamura81/pick/S15/03647">
        <time>
          <value>1972-06-06T20:20:00.000000Z</value>
          <uncertainty>60.0</uncertainty>
        </time>
        <waveformID networkCode="XA" stationCode="S15" locationCode="" channelCode=""></waveformID>
        <phaseHint>P</phaseHint>
        <ns1:bulow_moonquake>A70</ns1:bulow_moonquake>
      </pick>
      <ns0:moon_event_type>deep moonquake</ns0:moon_event_type>
    </event>
    <event publicID="smi:nakamura81/event/03650">
      <type>earthquake</type>
      <description>
        <text>unclassified deep moonquake</text>
      </description>
      <pick publicID="smi:nakamura81/pick/S15/03650">
        <time>
          <value>1972-06-06T22:18:00.000000Z</value>
          <uncertainty>60.0</uncertainty>
        </time>
        <waveformID networkCode="XA" stationCode="S15" locationCode="" channelCode=""></waveformID>
        <phaseHint>P</phaseHint>
      </pick>
      <amplitude publicID="smi:nakamura81/amplitude/S15/03650">
        <genericAmplitude>
          <value>1.5</value>
        </genericAmplitude>
        <type>A</type>
        <unit>other</unit>
        <pickID>smi:nakamura81/pick/S15/03650</pickID>
      </amplitude>
      <ns0:moon_event_type>unclassified deep moonquake</ns0:moon_event_type>
    </event>
    <event publicID="smi:nakamura81/event/03656">
      <type>earthquake</type>
      <description>
        <text>deep moonquake</text>
      </description>
      <comment id="smi:nakamura81/event/comment/bulow07/03656">
        <text>bulow_moonquake: A223</text>
      </comment>
      <pick publicID="smi:nakamura81/pick/S15/03656">
        <time>
          <value>1972-06-07T08:32:00.000000Z</value>
          <uncertainty>60.0</uncertainty>
        </time>
        <waveformID networkCode="XA" stationCode="S15" locationCode="" channelCode=""></waveformID>
        <phaseHint>P</phaseHint>
        <ns1:bulow_moonquake>A223</ns1:bulow_moonquake>
      </pick>
      <amplitude publicID="smi:nakamura81/amplitude/S15/03656">
        <genericAmplitude>
          <value>1.5</value>
        </genericAmplitude>
        <type>A</type>
        <unit>other</unit>
        <pickID>smi:nakamura81/pick/S15/03656</pickID>
      </amplitude>
      <ns0:moon_event_type>deep moonquake</ns0:moon_event_type>
    </event>
    <event publicID="smi:nakamura81/event/03659">
      <type>earthquake</type>
      <description>
        <text>deep moonquake</text>
      </description>
      <comment id="smi:nakamura81/event/comment/nakamura81/03659">
        <text/>
      </comment>
      <comment id="smi:nakamura81/event/comment/bulow07/03659">
        <text>bulow_moonquake: A40</text>
      </comment>
      <pick publicID="smi:nakamura81/pick/S15/03659">
        <time>
          <value>1972-06-07T14:13:00.000000Z</value>
          <uncertainty>60.0</uncertainty>
        </time>
        <waveformID networkCode="XA" stationCode="S15" locationCode="" channelCode=""></waveformID>
        <phaseHint>P</phaseHint>
        <comment id="smi:nakamura81/pick/comment/S15/03659">
          <text>noisy data</text>
        </comment>
        <ns1:bulow_moonquake>A40</ns1:bulow_moonquake>
        <ns1:nakamura_moonquake>A40</ns1:nakamura_moonquake>
      </pick>
      <ns0:moon_event_type>deep moonquake</ns0:moon_event_type>
    </event>
    <event publicID="smi:nakamura81/event/03664">
      <type>earthquake</type>
      <description>
        <text>deep moonquake</text>
      </description>
      <comment id="smi:nakamura81/event/comment/bulow07/03664">
        <text>bulow_moonquake: A90</text>
      </comment>
      <pick publicID="smi:nakamura81/pick/S15/03664">
        <time>
          <value>1972-06-08T11:10:00.000000Z</value>
          <uncertainty>60.0</uncertainty>
        </time>
        <waveformID networkCode="XA" stationCode="S15" locationCode="" channelCode=""></waveformID>
        <phaseHint>P</phaseHint>
        <ns1:bulow_moonquake>A90</ns1:bulow_moonquake>
      </pick>
      <ns0:moon_event_type>deep moonquake</ns0:moon_event_type>
    </event>
    <event publicID="smi:nakamura81/event/03667">
      <type>earthquake</type>
      <description>
        <text>deep moonquake</text>
      </description>
      <comment id="smi:nakamura81/event/comment/bulow07/03667">
        <text>bulow_moonquake: A236</text>
      </comment>
      <pick publicID="smi:nakamura81/pick/S15/03667">
        <time>
          <value>1972-06-08T12:24:00.000000Z</value>
          <uncertainty>60.0</uncertainty>
        </time>
        <waveformID networkCode="XA" stationCode="S15" locationCode="" channelCode=""></waveformID>
        <phaseHint>P</phaseHint>
        <ns1:bulow_moonquake>A236</ns1:bulow_moonquake>
      </pick>
      <amplitude publicID="smi:nakamura81/amplitude/S15/03667">
        <genericAmplitude>
          <value>1.2</value>
        </genericAmplitude>
        <type>A</type>
        <unit>other</unit>
        <pickID>smi:nakamura81/pick/S15/03667</pickID>
      </amplitude>
      <ns0:moon_event_type>deep moonquake</ns0:moon_event_type>
    </event>
    <event publicID="smi:nakamura81/event/03669">
      <type>earthquake</type>
      <description>
        <text>deep moonquake</text>
      </description>
      <comment id="smi:nakamura81/event/comment/nakamura81/03669">
        <text/>
      </comment>
      <comment id="smi:nakamura81/event/comment/bulow07/03669">
        <text>bulow_moonquake: A41</text>
      </comment>
      <pick publicID="smi:nakamura81/pick/S15/03669">
        <time>
          <value>1972-06-08T16:19:00.000000Z</value>
          <uncertainty>60.0</uncertainty>
        </time>
        <waveformID networkCode="XA" stationCode="S15" locationCode="" channelCode=""></waveformID>
        <phaseHint>P</phaseHint>
        <ns1:bulow_moonquake>A41</ns1:bulow_moonquake>
        <ns1:nakamura_moonquake>A41</ns1:nakamura_moonquake>
      </pick>
      <amplitude publicID="smi:nakamura81/amplitude/S15/03669">
        <genericAmplitude>
          <value>1.0</value>
        </genericAmplitude>
        <type>A</type>
        <unit>other</unit>
        <pickID>smi:nakamura81/pick/S15/03669</pickID>
      </amplitude>
      <ns0:moon_event_type>deep moonquake</ns0:moon_event_type>
    </event>
    <event publicID="smi:nakamura81/event/03672">
      <type>earthquake</type>
      <description>
        <text>deep moonquake</text>
      </description>
      <comment id="smi:nakamura81/event/comment/bulow07/03672">
        <text>bulow_moonquake: A248</text>
      </comment>
      <pick publicID="smi:nakamura81/pick/S15/03672">
        <time>
          <value>1972-06-08T20:19:00.000000Z</value>
          <uncertainty>60.0</uncertainty>
        </time>
        <waveformID networkCode="XA" stationCode="S15" locationCode="" channelCode=""></waveformID>
        <phaseHint>P</phaseHint>
        <ns1:bulow_moonquake>A248</ns1:bulow_moonquake>
      </pick>
      <amplitude publicID="smi:nakamura81/amplitude/S15/03672">
        <genericAmplitude>
          <value>1.5</value>
        </genericAmplitude>
        <type>A</type>
        <unit>other</unit>
        <pickID>smi:nakamura81/pick/S15/03672</pickID>
      </amplitude>
      <ns0:moon_event_type>deep moonquake</ns0:moon_event_type>
    </event>
    <event publicID="smi:nakamura81/event/03682">
      <type>earthquake</type>
      <description>
        <text>deep moonquake</text>
      </description>
      <comment id="smi:nakamura81/event/comment/bulow07/03682">
        <text>bulow_moonquake: A212</text>
      </comment>
      <pick publicID="smi:nakamura81/pick/S15/03682">
        <time>
          <value>1972-06-09T05:43:00.000000Z</value>
          <uncertainty>60.0</uncertainty>
        </time>
        <waveformID networkCode="XA" stationCode="S15" locationCode="" channelCode=""></waveformID>
        <phaseHint>P</phaseHint>
        <ns1:bulow_moonquake>A212</ns1:bulow_moonquake>
      </pick>
      <amplitude publicID="smi:nakamura81/amplitude/S15/03682">
        <genericAmplitude>
          <value>1.5</value>
        </genericAmplitude>
        <type>A</type>
